 id|name|oper|city|st|zip_fixed|lat|lng|fy09|fy08|fy07|fy06|fy05|fy04|fy03|fy02|fy01|fy00|fy99|fy98|fy97|fy96|fy95|fy94|fy93|fy92|fy91|fy90|fy89|fy88|fy87|fy86|fy85|fy84|fy83|fy82|fy81 
13|LAREDO CONTRACT DET. FAC.|Corrections Corporation of America|LAREDO|TX|78042|27.51|-99.51|299|374|448|333|385|412|499|473|421|405|331|307|217|187|150|109|179|225|249|111|126|271|119|9|4|1|0|0|0
16|STEWART DETENTION CENTER|Corrections Corporation of America|LUMPKIN|GA|31815|32.0509895|-84.7990901|1800|1645|1227|0|0|0|0|0|0|0|0|0|0|0|0|0|0|0|0|0|0|0|0|0|0|0|0|0|0
2|ELOY FEDERAL CONTRACT FAC|Corrections Corporation of America|ELOY|AZ|85231|32.8079816|-111.4514369|1473|1458|1482|1017|949|929|912|868|917|723|742|762|566|496|395|9|3|2|0|0|0|0|0|0|0|0|0|0|0
107|CCA CENT.AZ.DET.CTR.|Corrections Corporation of America|FLORENCE|AZ|85232|32.772674|-111.1652687|68|62|54|61|74|64|101|49|0|7|12|32|0|0|0|0|0|0|0|0|0|0|0|0|0|0|0|0|0
15|DENVER CONTRACT DET. FAC.|GEO Group, Inc|AURORA|CO|80010|39.7393313|-104.8629746|376|395|394|368|295|337|341|325|318|331|308|282|288|249|211|217|247|142|146|17|2|0|0|0|0|0|0|0|0
18|NORTHWEST DET. CENTER|GEO Group, Inc|TACOMA|WA|98421|47.2592223|-122.4003064|981|1014|904|651|491|158|4|2|0|0|0|0|0|0|0|0|0|0|0|0|0|0|0|0|0|0|0|0|0
41|INS/WACKENHUT CON/FAC, NY|GEO Group, Inc|JAMAICA|NY|11413|40.6679426|-73.7536695|0|0|0|0|109|161|154|167|190|189|183|180|57|1|43|97|101|102|42|0|0|0|0|0|0|0|0|0|0
55|KARNES CTY CORR CTR|GEO Group, Inc|KARNES CITY|TX|78118|28.8849772|-97.9008355|316|139|106|59|62|103|101|32|110|148|97|49|0|0|0|0|0|0|0|0|0|0|0|0|0|0|0|0|0
74|JEFFERSON COUNTY JAIL|GEO Group, Inc|BEAUMONT|TX|77701|30.0665117|-94.0951038|3|11|78|108|154|340|294|11|0|0|0|0|0|0|0|0|0|0|0|0|0|0|0|0|0|0|0|0|0
919|REEVES COUNTY DET. CENTER|GEO Group, Inc|PECOS|TX|79772|31.4229124|-103.4932293|0|0|0|0|0|0|1|0|0|0|0|0|0|0|0|0|0|0|0|0|0|0|0|0|0|0|0|0|0
482|BROOKFIELD POLICE DEPT.|City or Municipality|BROOKFIELD|IL|60513|41.8239203|-87.8517253|0|0|0|0|0|0|0|2|1|1|2|1|1|2|3|3|1|2|4|3|3|0|0|0|0|0|0|0|0
621|ALEXANDRIA CITY JAIL|City or Municipality|ALEXANDRIA|VA|22314|38.7999723|-77.0506896|0|2|0|0|0|0|0|1|1|0|0|0|4|2|2|0|0|0|0|0|0|0|0|0|0|0|0|0|0
638|NORTH CHICAGO P.D.|City or Municipality|NORTH CHICAGO|IL|60064|42.3199976|-87.8697056|0|0|0|0|0|0|0|0|1|1|2|0|0|0|0|0|0|0|1|1|2|1|0|1|0|0|0|0|0
632|MONTEREY PARK POLICE DEPT|City or Municipality|MONTEREY PARK|CA|98188|34.0625106|-118.1228476|9|2|0|0|0|0|0|0|0|0|0|0|0|0|0|0|0|0|0|0|0|0|0|0|0|0|0|0|0
691|BELLEVILLE PD, BELVIL, MI|City or Municipality|BELLEVILLE|MI|48111|42.2047619|-83.4852133|0|0|0|0|0|0|1|0|0|3|0|2|1|0|0|0|0|0|0|0|0|0|0|0|0|0|0|0|0
146|VIRGINIA BEACH|City or Municipality|VIRGINIA BEACH|VA|23456|36.7358202|-76.0275859|12|53|3|0|0|0|0|17|47|38|56|91|47|0|7|2|0|0|0|0|0|0|0|0|0|0|0|0|0
277|MAPLE HEIGHTS CITY JAIL|City or Municipality|MAPLE HEIGHTS|OH|44317|41.4153313|-81.565956|16|17|15|2|5|11|18|23|24|14|0|0|0|0|0|0|0|0|0|0|0|0|0|0|0|0|0|0|0
332|HOSANNA HOMES FOR BOYS|City or Municipality|CASTRO VALLEY|CA|94552|37.6940973|-122.0863522|0|0|0|12|10|12|11|11|15|9|6|3|0|0|0|0|0|0|0|0|0|0|0|0|0|0|0|0|0
334|STONE PARK POLICE DEPT.|City or Municipality|STONE PARK|IL|60165|41.9055862|-87.8836732|0|2|4|4|4|6|6|8|8|7|9|8|8|7|3|2|1|2|0|0|0|0|0|0|0|0|0|0|0
400|PORTSMOUTH CITY JAIL|City or Municipality|PORTSMOUTH|VA|23704|36.8274757|-76.3116235|0|0|0|0|0|0|0|32|2|2|4|15|2|0|0|0|0|0|0|0|0|0|0|0|0|0|0|0|0
541|DEARBORN POLICE DEPT.|City or Municipality|DEARBORN|MI|48126|42.3382755|-83.1756188|6|6|2|0|0|0|0|0|0|0|3|4|0|0|0|0|0|0|0|0|0|0|0|0|0|0|0|0|0
521|PASADENA CITY JAIL|City or Municipality|PASADENA|CA|61021|34.1477849|-118.1445155|18|5|0|0|0|0|0|0|0|0|0|0|0|0|0|0|0|0|0|0|0|0|0|0|0|0|0|0|0
650|TAYLOR PD,TAYLOR, MI|City or Municipality|TAYLOR|MI|48180|42.240872|-83.2696509|0|0|0|0|2|1|0|0|0|0|0|2|4|1|1|0|0|0|0|0|0|0|0|0|0|0|0|0|0
667|POMONA CITY JAIL|City or Municipality|POMONA|CA|91766|34.0397162|-117.7549295|6|3|0|0|0|0|0|0|0|0|0|0|0|0|0|0|0|0|0|0|0|0|0|0|0|0|0|0|0
852|BROWNSTOWN POLICE DEPT.|City or Municipality|BROWNSTOWN|MI|48183|42.1352293|-83.2291862|0|0|0|0|0|2|0|0|0|0|0|0|0|0|0|0|0|0|0|0|0|0|0|0|0|0|0|0|0
935|KODIAK CITY JAIL|City or Municipality|KODIAK|AK|99615|57.79|-152.4072222|0|0|1|0|0|0|0|0|0|0|0|0|0|0|0|0|0|0|0|0|0|0|0|0|0|0|0|0|0
436|FORT DIX FED.CORR.INST.|Regional and Federal Facilities|FORT DIX|NJ|08640|40.0027552|-74.6224755|0|0|0|0|6|13|10|6|3|2|0|0|0|0|0|0|0|0|0|0|0|0|0|0|0|0|0|0|0
437|SAFFORD FED.CORR.INST.|Regional and Federal Facilities|SAFFORD|AZ|85546|32.8339546|-109.70758|0|0|0|0|2|8|9|3|2|2|0|0|0|0|0|0|2|2|2|4|4|0|0|0|0|0|0|0|0
345|ESTILL FED.CORR.INST.|Regional and Federal Facilities|ESTILL|SC|29918|32.754891|-81.2420467|0|0|0|0|2|3|3|5|6|7|6|5|8|11|13|10|2|0|0|0|0|0|0|0|0|0|0|0|0
60|LEWISBURG U.S. PEN.|Regional and Federal Facilities|LEWISBURG|PA|17837|40.9645293|-76.8844101|0|0|0|0|0|4|8|11|18|24|37|43|44|41|42|48|71|96|101|111|139|177|124|55|32|12|9|8|4
34|CCA, FLORENCE CORRECTIONAL CENTER|Corrections Corporation of America|FLORENCE|AZ|85232|32.772674|-111.1652687|201|220|181|298|434|353|89|166|298|64|1|1|1|1|1|1|1|1|1|1|1|0|0|0|0|0|0|0|0
103|WYATT DETENTION CENTER|Central Falls Detention Facility Corporation|CENTRAL FALLS|RI|02863|41.8906553|-71.3922785|89|198|159|59|61|39|0|0|0|12|28|2|0|0|0|0|0|0|0|0|0|0|0|0|0|0|0|0|0
151|GREENFIELD HOUSE OF CORR.|City or Municipality|GREENFIELD|MA|01301|42.5875857|-72.5995339|71|76|49|7|19|43|30|26|27|4|4|0|0|0|0|0|0|0|0|0|0|0|0|0|0|0|0|0|0
313|GENESEE COUNTY JAIL|County|BATAVIA|NY|04021|42.9981156|-78.1875167|0|4|2|3|2|0|4|2|1|3|0|3|3|14|18|20|16|8|0|0|0|0|0|0|0|0|0|0|0
894|NORTHWEST STATE CORRECTIONAL CTR.|State|ST ALBANS|VT|05488|44.816447|-73.1362711|1|0|0|0|0|0|0|0|0|0|0|0|0|0|0|0|0|0|0|0|0|0|0|0|0|0|0|0|0
28|HUDSON COUNTY JAIL|County|KEARNEY|NJ|07302|40.7218318|-74.0447003|318|380|267|230|212|245|220|233|242|174|100|11|0|0|0|0|0|0|0|0|0|0|0|0|0|0|0|0|0
45|PLYMOUTH COUNTY H.O.C.|County|PLYMOUTH|MA|02360|41.9584367|-70.6672576|310|227|198|193|176|181|174|81|50|43|41|15|0|0|0|0|0|0|0|0|0|0|0|0|0|0|0|0|0
52|SUFFOLK HOC SBAY|County|BOSTON|MA|02118|42.3377967|-71.0705763|252|244|252|263|215|175|22|0|0|0|0|0|0|0|0|0|0|0|0|0|0|0|0|0|0|0|0|0|0
68|PASSAIC COUNTY JAIL|County|PATERSON|NJ|07505|40.9163004|-74.172438|0|0|1|61|232|289|82|160|70|52|22|9|34|15|14|10|8|17|11|7|0|0|0|0|0|0|0|0|0
166|FAIRTON FCI|Regional and Federal Facilities|FAIRTON|NJ|08320|39.3799|-75.22252|0|0|0|0|7|14|16|15|19|22|29|39|43|33|26|22|23|17|3|0|0|0|0|0|0|0|0|0|0
75|MONMOUTH COUNTY JAIL|County|FREEHOLD|NJ|07728|40.260111|-74.2737573|147|139|140|129|76|123|143|82|0|0|0|0|0|4|1|0|0|0|0|0|0|0|0|0|0|0|0|0|0
76|BERGEN COUNTY JAIL|County|HACKENSACK|NJ|07601|40.8859325|-74.0434736|120|137|147|129|136|139|99|55|14|0|0|0|0|2|0|0|0|0|0|0|0|0|0|0|0|0|0|0|0
113|ACI, CRANSTON RI|State|CRANSTON|RI|02920|41.7612384|-71.4655565|0|0|0|0|0|26|88|124|145|95|8|37|34|0|0|0|0|0|0|0|0|0|0|0|0|0|0|0|0
133|YORK CORR INST|State|NIANTIC|CT|06357|41.3253756|-72.1931338|4|14|33|50|49|65|58|61|51|31|22|7|0|0|0|0|0|0|0|0|0|0|0|0|0|0|0|0|0
105|HILLSBOROUGH COUNTY JAIL|County|MANCHESTER|NH|03103|42.9561485|-71.4418101|0|0|0|0|0|0|0|0|0|72|195|158|95|48|17|8|4|12|11|0|0|0|0|0|0|0|0|0|0
153|BOSTON SPC|Federal|BOSTON|MA|02109|42.3618604|-71.0549768|2|0|1|0|0|0|0|0|0|0|0|10|50|53|49|46|49|47|39|8|0|0|0|0|0|0|0|0|0
190|ESSEX COUNTY JAIL|County|NEWARK|NJ|07105|40.7231264|-74.1416127|225|43|0|0|0|0|0|0|0|0|0|0|0|0|0|0|0|0|2|0|0|0|0|0|0|0|0|0|0
193|SUSSEX COUNTY JAIL|County|SUSSEX|NJ|07860|41.0461965|-74.8039205|22|27|33|24|11|11|22|32|26|26|21|5|0|3|0|1|0|0|0|0|0|0|0|0|0|0|0|0|0
233|ROCKINGHAM COUNTY JAIL|County|BRENTWOOD|NH|03833|42.9996568|-70.9784562|0|1|5|5|3|4|9|17|26|29|35|32|13|6|0|0|0|0|0|0|0|0|0|0|0|0|0|0|0
242|MERCER COUNTY JAIL|County|TRENTON|NJ|08650|40.1954673|-74.6502902|0|3|3|3|3|3|0|8|23|0|0|96|31|0|0|0|0|0|0|0|0|0|0|0|0|0|0|0|0
256|NORFLK CNTY DEDHAM|County|DEDHAM|MA|02026|42.2417653|-71.166164|52|37|22|0|0|21|30|0|0|0|0|0|0|0|0|0|0|0|0|0|0|0|0|0|0|0|0|1|1
283|OSBORN CORR INST|State|SOMERS|CT|06071|41.9878742|-72.4494848|0|0|6|28|22|41|22|3|8|5|0|0|0|0|0|0|0|0|0|0|0|0|0|0|0|0|0|0|0
323|FRANKLIN COUNTY JAIL, VT|County|ST ALBANS|VT|05478|44.8097222|-73.0872222|15|16|17|5|3|4|3|7|7|3|1|2|4|5|2|0|0|0|0|0|0|0|0|0|0|0|0|0|0
381|MORRIS COUNTY JAIL|County|MORRISTOWN|NJ|07960|40.7967667|-74.4815438|0|0|0|0|0|0|0|0|0|0|0|0|8|9|5|5|6|11|9|8|1|0|0|0|0|0|0|0|0
478|CAMDEN COUNTY JAIL|County|CAMDEN|NJ|08101|39.9099986|-75.0981842|0|0|0|0|0|4|10|16|0|0|0|0|0|0|0|0|0|0|0|0|0|0|0|0|0|0|0|0|0
598|VT. DEPT. OF CORRECTIONS|State|WATERBURY|VT|05676|44.3378343|-72.756229|4|4|4|1|1|0|0|0|0|0|0|0|0|0|0|0|0|0|0|0|0|0|0|0|0|0|0|0|0
643|BARNSTABLE COUNTY|County|BARNSTABLE|MA|02630|41.6988334|-70.294405|0|1|9|0|0|0|0|0|0|0|0|0|0|0|0|0|0|0|0|0|0|0|0|0|0|0|0|0|0
714|LAFFAYETTE SHERIFF'S LOCK|State|HARTFORD|CT|06106|41.7527778|-72.7038047|2|1|0|0|0|1|0|0|0|0|0|0|2|1|0|0|0|0|0|0|0|0|0|0|0|0|0|0|0
755|BWATER ST HOSP BRIDGEWATE|State|BRIDGEWATER|MA|02324|41.9903787|-70.9750426|0|0|0|0|0|1|2|2|0|0|0|0|0|0|0|0|0|0|0|0|0|0|0|0|0|0|0|0|0
763|GARNER CORR INST|State|NEWTOWN|CT|06470|41.4139843|-73.3034505|0|0|0|0|0|1|2|0|2|0|0|0|0|0|0|0|0|0|0|0|0|0|0|0|0|0|0|0|0
124|EL RENO FED.CORR.INST.|Regional and Federal Facilities|EL RENO|OK|73036|35.5322741|-97.9550493|0|0|0|0|4|11|18|23|22|27|28|25|22|27|29|30|37|36|38|37|14|35|17|6|6|6|4|1|0
488|SAN DIEGO MCC|Regional and Federal Facilities|SAN DIEGO|CA|92101|32.721742|-117.1647094|0|0|0|0|0|0|0|0|0|0|2|4|2|0|0|1|1|0|0|1|0|10|4|2|0|0|0|0|0
770|NEW/INS OS HOLD ROOM|Federal|NEWARK|NJ|07102|40.7350747|-74.1739057|0|0|0|0|0|0|0|0|0|0|0|0|0|0|0|1|0|0|3|0|0|0|0|0|0|0|0|0|0
793|NORTHERN CORR INST|State|SOMERS|CT|06071|41.9878742|-72.4494848|0|0|0|0|0|0|1|0|1|1|0|0|0|0|0|0|0|0|0|0|0|0|0|0|0|0|0|0|0
272|WESTMINSTER CUSTODY|Federal|WESTMINSTER|CA|92683|33.7513419|-117.9939921|0|10|66|6|11|12|17|19|7|0|0|0|0|0|0|0|0|0|0|0|0|0|0|0|0|0|0|0|0
288|JUVENILE CENTER||LOS FRESNOS|TX||26.0717438|-97.4763733|0|0|0|0|0|0|0|0|0|0|0|0|0|0|0|0|0|0|1|70|50|8|0|0|0|0|0|0|0
452|ESSEX CO. JAIL, MIDDLETON|County|MIDDLETON|MA|01949|42.6007246|-71.014118|11|24|1|0|0|0|0|0|0|0|0|0|0|0|0|0|0|0|0|0|0|0|0|0|0|0|0|0|0
280|RANDALL COUNTY JAIL|County|AMARILLO|TX|79118|35.2219971|-101.8312969|70|62|9|0|0|0|0|0|0|0|0|0|0|0|0|0|0|0|0|0|0|0|0|0|0|0|0|0|0
296|ALLEGHENY CO. JAIL|County|PITTSBURGH|PA|15219|40.440368|-79.9836108|13|22|24|13|8|11|11|9|5|2|1|2|0|0|0|0|0|0|0|0|0|0|0|0|0|0|0|0|0
303|SHAWNEE COUNTY DEPT OF CORR.|County|TOPEKA|KS|66607|39.0447612|-95.6300233|6|16|9|8|0|5|20|13|11|19|6|0|0|0|0|0|0|0|0|0|0|0|0|0|0|0|0|0|0
139|PETERSBURG FED.CORR.INST.|Regional and Federal Facilities|PETERSBURG|VA|23804|37.2299999|-77.4|0|0|0|0|3|7|5|3|3|4|3|5|7|5|4|6|10|13|16|18|33|124|83|24|11|5|4|3|2
189|RAY BROOK FED.CORR.INST.|Regional and Federal Facilities|RAY BROOK|NY|12977|44.2988935|-74.1004252|0|0|0|1|3|7|6|3|2|3|2|3|4|4|8|11|19|27|45|48|27|20|12|5|3|2|2|0|0
222|ALLENWOOD U.S.PEN.|Regional and Federal Facilities|WHITE DEER|PA|17887|41.0660513|-76.8807437|0|0|0|3|7|17|17|15|18|24|29|29|18|13|9|6|4|3|0|0|0|0|0|0|0|0|0|0|0
237|ROCHESTER FED.MED.CENTER|Regional and Federal Facilities|ROCHESTER|MN|55903|44.02|-92.4599999|2|1|3|4|8|13|13|13|10|15|15|14|11|12|12|7|2|3|6|5|4|4|2|0|0|0|0|0|0
23|BRADENTON DETENTION CENTER|Regional and Federal Facilities|BRADENTON|FL|34205|27.4867008|-82.5780878|0|0|0|219|351|400|421|432|411|322|351|316|230|5|0|0|0|0|0|0|0|0|0|0|0|0|0|0|0
72|TALLADEGA FCI|Regional and Federal Facilities|TALLADEGA|AL|35160|33.4359416|-86.1058048|0|0|0|0|0|4|15|29|37|32|32|21|15|20|18|15|32|42|100|139|129|116|84|47|41|30|20|15|11
94|SEATAC FED.DET.CENTER|Regional and Federal Facilities|SEATAC|WA|98198|47.4042825|-122.3206826|0|2|6|3|3|39|65|100|187|182|144|58|0|0|0|0|0|0|0|0|0|0|0|0|0|0|0|0|0
112|SPRINGFIELD FED.MED.CNTR|Regional and Federal Facilities|SPRINGFIELD|MO|65808|37.19|-93.26|4|6|9|12|18|18|14|15|15|16|16|15|22|26|34|37|24|23|29|36|44|51|32|13|9|6|5|5|3
116|MEMPHIS FED.CORR.INST.|Regional and Federal Facilities|MEMPHIS|TN|38134|35.1927931|-89.8692203|1|1|1|1|1|9|23|24|30|39|39|35|35|37|35|38|29|29|47|34|20|27|10|0|1|1|1|0|0
136|HONOLULU FEDERAL DETENTION CENTER|Regional and Federal Facilities|HONOLULU|HI|96819|21.3644294|-157.8689014|56|75|44|37|41|62|61|35|0|0|0|0|0|0|0|0|0|0|0|0|0|0|0|0|0|0|0|0|0
137|OXFORD FED.CORR.INST.|Regional and Federal Facilities|OXFORD|WI|53952|43.7813661|-89.5726232|0|0|0|0|4|9|3|3|3|5|11|14|15|8|5|9|26|36|53|41|28|59|51|13|4|1|1|2|2
135|FLORENCE US PEN|Regional and Federal Facilities|FLORENCE|CO|81292|38.3902777|-105.1185988|0|0|0|0|9|27|33|33|39|52|51|43|34|42|32|15|4|0|0|0|0|0|0|0|0|0|0|0|0
157|CASA SAN JUAN|Regional and Federal Facilities|SAN DIEGO|CA|92103|32.7478638|-117.1647094|0|0|4|4|11|14|16|25|19|21|19|17|18|24|20|14|15|12|16|19|14|16|17|8|0|0|0|0|0
163|ASHLAND FED.CORR.INST.|Regional and Federal Facilities|ASHLAND|KY|41105|38.4799999|-82.65|0|0|0|0|0|2|11|12|12|14|15|14|20|24|21|18|20|27|46|46|21|8|2|0|0|0|0|0|0
170|MANCHESTER FED CORR INSTR|Regional and Federal Facilities|MANCHESTER|KY|40962|37.1537007|-83.7618641|0|0|0|0|0|4|18|23|26|31|34|33|33|34|34|29|8|0|0|0|0|0|0|0|0|0|0|0|0
171|BASTROP FED.CORR.INST.|Regional and Federal Facilities|BASTROP|TX|78602|30.1104947|-97.3152701|0|0|0|0|2|4|4|4|5|7|9|15|18|21|22|23|26|24|30|41|28|15|6|2|2|1|0|0|0
176|JESUP FED.CORR.INST.|Regional and Federal Facilities|JESUP|GA|31545|31.6074365|-81.8853924|0|0|0|0|3|6|12|14|18|22|31|48|45|25|14|6|14|26|7|1|1|0|0|0|0|0|0|0|0
178|MILAN FED.CORR.INST.|Regional and Federal Facilities|MILAN|MI|48160|42.0853204|-83.6824384|0|0|0|0|0|0|0|0|2|4|6|11|13|11|11|10|18|41|47|50|24|22|15|3|0|0|0|0|0
183|THREE RIVERS FCI|Regional and Federal Facilities|THREE RIVERS,|TX|78071|28.4602717|-98.1825071|0|2|0|0|2|3|8|16|18|24|27|32|30|31|31|26|15|10|5|0|0|0|0|0|0|0|0|0|0
216|CLARKE FRED'K WINCH.|Regional and Federal Facilities|WINCHESTER|VA|22603|39.2754013|-78.1792434|0|38|4|0|0|0|0|2|2|2|2|10|25|26|25|52|19|14|4|0|0|0|0|0|0|0|0|0|0
220|LEXINTON FED.MED CENTER|Regional and Federal Facilities|LEXINGTON|KY|40511|38.1229182|-84.4592701|0|0|0|0|0|0|3|7|9|12|21|29|28|24|15|5|10|10|6|6|6|5|1|0|2|3|9|6|0
221|MCKEAN FED.CORR.INST.|Regional and Federal Facilities|BRADFORD|PA|16701|41.9558963|-78.6439164|0|0|0|0|3|7|7|9|12|16|21|23|19|15|16|19|24|18|5|0|0|0|0|0|0|0|0|0|0
224|SCHUYLKILL FED.CORR.INST.|Regional and Federal Facilities|MINERSVILLE|PA|17954|40.6906451|-76.2621697|0|0|0|0|3|10|10|10|13|18|21|26|26|20|16|15|15|1|0|0|0|0|0|0|0|0|0|0|0
234|ALLENWOOD (MED) FCI|Regional and Federal Facilities|WHITE DEER|PA|17887|41.0660513|-76.8807437|2|2|0|0|4|12|11|10|12|18|22|27|24|16|12|8|4|1|0|0|0|0|0|0|0|0|0|0|0
235|SEAGOVILLE FED.CORR.INST.|Regional and Federal Facilities|SEAGOVILLE|TX|75159|32.6395776|-96.5383228|0|0|0|0|2|4|4|4|3|3|3|3|8|12|10|8|8|7|14|20|26|30|12|2|0|0|0|0|0
284|BECKLEY FED.CORR.INST.|Regional and Federal Facilities|BEAVER|WV|25813|37.7476157|-81.1423203|0|0|0|0|3|8|9|13|21|26|31|15|5|1|1|1|1|0|0|0|0|0|0|0|0|0|0|0|0
293|PEKIN FED.CORR.INST.|Regional and Federal Facilities|PEKIN|IL|61554|40.5675388|-89.640658|0|0|0|0|4|9|15|17|22|24|17|11|5|2|0|0|0|0|0|0|0|0|0|0|0|0|0|0|0
297|GREENVILLE FCI|Regional and Federal Facilities|GREENVILLE|IL|62246|38.8922687|-89.4131356|0|0|0|0|4|10|13|20|26|23|13|8|3|2|0|0|0|0|0|0|0|0|0|0|0|0|0|0|0
357|ALLENWOOD (LOW) FCI|Regional and Federal Facilities|WHITE DEER|PA|17887|41.0660513|-76.8807437|0|0|0|0|4|14|14|4|3|5|7|10|7|5|3|0|0|0|0|0|0|0|0|0|0|0|0|0|0
368|BEAUMONT FCC, MEDIUM|Regional and Federal Facilities|BEAUMONT|TX|77720|30.04|-94.16|0|0|0|0|6|15|13|14|12|7|2|0|0|0|0|0|0|0|0|0|0|0|0|0|0|0|0|0|0
369|ATLANTA U.S. PEN.|Regional and Federal Facilities|ATLANTA|GA|30315|33.7026678|-84.3857442|0|0|0|0|0|0|0|0|0|0|0|0|0|0|1|2|3|3|4|4|3|8|9|6|6|6|7|6|2
382|CENTRAL VA REGIONAL JAIL|Regional and Federal Facilities|ORANGE COUNTY|VA|22960|38.2426674|-77.973865|0|0|0|0|0|0|0|24|21|2|0|0|0|0|0|0|0|0|16|0|0|0|0|0|0|0|0|0|0
471|FOREST CITY FED.CORR.INST|Regional and Federal Facilities|FOREST CITY|AR|72336|32.7920758|-91.413449|0|0|0|0|3|6|5|7|5|4|3|0|0|0|0|0|0|0|0|0|0|0|0|0|0|0|0|0|0
459|YAZOO CITY FCI|Regional and Federal Facilities|YAZOO CITY|MS|39194|32.8551326|-90.4056468|0|0|0|0|3|6|3|2|4|5|5|6|0|0|0|0|0|0|0|0|0|0|0|0|0|0|0|0|0
464|POLLOCK USP|Regional and Federal Facilities|POLLOCK|LA|71467|31.5257321|-92.4070823|0|0|1|1|4|11|8|6|2|1|0|0|0|0|0|0|0|0|0|0|0|0|0|0|0|0|0|0|0
271|MARION USP|Regional and Federal Facilities|MARION|IL|62959|37.7306054|-88.9331256|0|0|0|0|1|2|2|3|2|1|0|0|0|0|0|0|0|0|0|7|30|42|25|10|7|6|5|4|2
569|LORETTO FED.CORR.INST.|Regional and Federal Facilities|LORETTO|PA|15940|40.5031263|-78.630296|0|0|0|0|2|7|5|2|1|0|0|0|0|0|0|0|0|0|0|0|0|0|0|0|0|0|0|0|0
584|FORT WORTH FED.MED.CENTER|Regional and Federal Facilities|FT. WORTH|TX|76619|32.725409|-97.3208496|0|0|0|0|0|0|0|0|0|0|2|2|2|2|1|2|2|2|2|1|0|0|0|0|0|0|0|0|0
594|NORTHWEST REG. ADULT DET.|Regional and Federal Facilities|WINCHESTER|VA|22603|39.2754013|-78.1792434|5|10|0|0|0|0|0|0|0|0|0|0|0|0|0|0|0|0|0|0|0|0|0|0|0|0|0|0|0
623|CARSWELL FED.MED.CTR|Regional and Federal Facilities|FORT WORTH|TX|76127|32.785253|-97.4327273|0|0|0|0|2|3|2|2|1|1|1|0|0|0|0|0|0|0|0|0|0|0|0|0|0|0|0|0|0
631|OTISVILLE FED.CORR.INST.|Regional and Federal Facilities|OTISVILLE|NY|10963|41.4734268|-74.5384933|0|0|0|0|0|0|0|0|0|0|0|0|0|0|0|0|0|0|0|0|0|5|4|2|0|0|0|0|0
778|N.E.NEB.JUVENILE SERVICES|Regional and Federal Facilities|MADISON|NE|68748|41.8275|-97.4569444|0|0|0|0|0|0|0|2|2|0|0|0|0|0|0|0|0|0|0|0|0|0|0|0|0|0|0|0|0
856|LOMPOC FCI|Regional and Federal Facilities|LOMPOC|CA|93436|34.6391501|-120.4579409|0|0|0|0|0|0|1|1|0|0|0|0|0|0|0|0|0|0|0|0|0|0|0|0|0|0|0|0|0
857|MIAMI FED.DET.CENTER|Regional and Federal Facilities|MIAMI|FL|33132|25.776235|-80.1735565|0|0|0|0|0|0|0|0|0|0|1|1|0|0|0|0|0|0|0|0|0|0|0|0|0|0|0|0|0
869|US MARSHALS,S.DIST.FL|Regional and Federal Facilities|MIAMI|FL|33128|25.7767549|-80.2028489|0|0|0|0|0|0|0|2|0|0|0|0|0|0|0|0|0|0|0|0|0|0|0|0|0|0|0|0|0
872|US MARSHALS,MID.DIST.FL|Regional and Federal Facilities|ORLANDO|FL|32801|28.5447366|-81.3784351|0|0|2|0|0|0|0|0|0|0|0|0|0|0|0|0|0|0|0|0|0|0|0|0|0|0|0|0|0
309|ORANGE CO JAIL, GOSHEN NY|County|GOSHEN|NY|10924|41.4020382|-74.3243191|97|11|0|0|0|0|0|0|0|0|0|0|0|0|0|0|0|0|0|0|0|0|0|0|0|0|0|0|0
402|BAPTIST CHILD & FAMILY SERVICES|ORR|SAN ANTONIO|CA|75227|38.1838069|-122.5913723|27|26|4|0|0|0|0|0|0|0|0|0|0|0|0|0|0|0|0|0|0|0|0|0|0|0|0|0|0
329|TALLAHASSEE FED.CORR.INST||TALLAHASSEE|FL||30.4382559|-84.2807329|0|0|0|0|0|0|0|0|2|1|2|6|6|7|5|5|12|10|13|12|8|1|0|0|0|0|0|0|0
426|FORKS CITY JAIL|City or Municipality|FORKS|WA|98331|47.950355|-124.3854867|0|0|0|0|0|11|15|9|6|2|0|0|0|1|0|0|0|1|0|0|0|0|0|0|0|0|0|0|0
337|FORD COUNTY JAIL||PAXTON|IL||40.4603125|-88.0953201|0|0|0|0|0|0|3|16|11|3|9|10|16|9|4|4|2|0|0|0|0|0|0|0|0|0|0|0|0
354|NASSAU COUNTY JAIL|County|YULEE|FL|32097|30.6319034|-81.6064866|4|8|8|4|2|23|28|1|0|0|0|0|0|0|0|0|0|0|0|0|0|0|0|0|0|0|0|0|0
362|TRUMBULL COUNTY JAIL|County|WARREN|OH|44483|41.2375569|-80.8184166|0|0|0|0|8|54|10|0|0|0|0|0|0|0|0|0|0|0|0|0|0|0|0|0|0|0|0|0|0
370|WESTERN SPRINGS POLICE DP||WESTERN SPRINGS|IL||41.8097532|-87.9006155|0|0|0|0|0|0|0|0|0|3|7|6|7|6|7|7|5|5|6|5|5|1|0|0|0|0|0|0|0
378|JACKSON COUNTY JAIL||MARIANNA|FL||30.7743596|-85.2268735|0|0|0|0|0|0|0|0|0|0|0|44|10|1|3|8|0|0|0|0|0|0|0|0|0|0|0|0|0
386|JEFFERSON COUNTY JAIL|County|OSKALOOSA|KS|66066|39.215277|-95.3127498|0|0|0|0|0|9|15|11|12|6|4|3|1|0|0|0|0|0|0|0|0|0|0|0|0|0|0|0|0
391|FT. BEND COUNTY JAIL||RICHMOND|TX||29.5821811|-95.7607832|0|0|0|0|0|0|0|7|15|23|9|4|0|0|0|0|0|0|0|0|0|0|0|0|0|0|0|0|0
395|MILLER COUNTY JAIL|County|TEXARKANA|AR|71854|33.4417915|-94.0376881|11|20|8|5|5|7|2|0|0|0|0|0|0|0|0|0|0|0|0|0|0|0|0|0|0|0|0|0|0
57|BRISTOL CNTY NDARTMOUTH|County|NORTH DARTMOUTH|MA|02748|41.565462|-70.9903438|179|227|164|89|105|145|177|120|64|8|0|0|0|0|0|0|0|0|0|0|0|0|0|0|0|0|0|0|0
411|ORR FOSTER CARE|ORR|WASHINGTON|DC|20447|38.92|-76.99|24|20|9|0|0|0|0|0|0|0|0|0|0|0|0|0|0|0|0|0|0|0|0|0|0|0|0|0|0
418|MONTAGUE COUNTY JAIL||MONTAGUE|TX||33.6460993|-97.6982272|0|0|0|0|0|0|0|0|0|0|0|0|0|0|0|0|8|19|20|3|0|0|0|0|0|0|0|0|0
445|BAL D D & P|Federal|BALTIMORE|MD|21227|39.2396095|-76.6816962|8|10|6|5|4|3|1|1|0|0|0|0|0|0|0|0|0|0|0|0|0|0|0|0|0|0|0|0|0
461|MARTIN COUNTY JAIL|County|STUART|FL|34994|27.197548|-80.2528257|0|0|0|0|0|0|0|0|0|0|0|0|2|4|4|23|0|0|0|0|0|0|0|0|0|0|0|0|0
490|NH STATE PRISON FOR WOMEN|State|GOFFSTOWN|NH|03045|43.0209998|-71.5486562|0|0|0|0|0|0|2|0|4|9|5|2|1|0|0|1|1|2|0|0|0|0|0|0|0|0|0|0|0
468|MARION COUNTY JAIL|County|INDIANAPOLIS|IN|46204|39.7713425|-86.1573709|7|8|0|0|2|3|3|4|3|2|0|0|0|0|0|0|0|0|0|0|0|0|0|0|0|0|0|0|0
473|RICE COUNTY DET CENTER|County|LYONS|KS|67554|38.3450104|-98.2017268|16|13|2|0|0|0|0|0|0|0|0|0|0|0|0|0|0|0|0|0|0|0|0|0|0|0|0|0|0
474|MSCO DURANGO FACILITY||PHOENIX|AZ||33.4483771|-112.0740373|0|0|0|0|0|0|0|0|0|0|0|0|0|0|0|1|6|12|8|2|2|0|0|0|0|0|0|0|0
499|SANGAMON COUNTY JAIL|County|SPRINGFIELD|IL|62701|39.7994917|-89.6498742|0|0|0|1|0|0|1|3|7|3|0|4|2|0|0|0|0|3|0|0|1|0|0|0|0|0|0|0|0
515|NUECES COUNTY JAIL||CORPUS CHRISTI|TX||27.8005828|-97.396381|0|0|0|0|0|0|0|0|0|0|0|3|7|13|0|0|0|0|0|0|0|0|0|0|0|0|0|0|0
518|ST. FRANCOIS COUNTY JAIL|County|FARMINGTON|MO|63640|37.7808846|-90.4217895|0|0|0|0|1|1|0|0|1|2|5|10|2|0|0|0|0|0|0|0|0|0|0|0|0|0|0|0|0
526|ONTARIO COUNTY JAIL|County|CANANDAIGUA|NY|14424|42.8742314|-77.2880382|5|11|7|0|0|0|0|0|0|0|0|0|0|0|0|0|0|0|0|0|0|0|0|0|0|0|0|0|0
534|MEDINA CNTY JUVENILE CORR|County|HONDO|TX|78861|29.3474565|-99.1414249|0|0|0|0|0|0|3|6|8|2|3|0|0|0|0|0|0|0|0|0|0|0|0|0|0|0|0|0|0
549|ORLEANS PARISH JUVENILE FAC|County|NEW ORLEANS|LA|70119|29.9798049|-90.0886948|0|0|0|0|0|0|0|0|0|0|0|4|4|3|3|6|0|0|0|0|0|0|0|0|0|0|0|0|0
556|STUTSMAN CO. JAIL, ND|County|JAMESTOWN|ND|58401|46.9105438|-98.7084357|0|0|0|0|0|0|0|0|0|0|16|3|0|0|0|0|0|0|0|0|0|0|0|0|0|0|0|0|0
558|LAMOILLE COUNTY JAIL||HYDE PARK|VT||44.5939405|-72.6165053|0|0|0|0|0|0|0|0|0|0|0|0|0|0|2|10|6|1|0|0|0|0|0|0|0|0|0|0|0
566|LANE CO JAIL|County|EUGENE|OR|97401|44.0637173|-123.0847061|6|4|0|0|0|0|1|2|1|1|0|3|0|0|0|0|0|0|0|0|0|0|0|0|0|0|0|0|0
573|GRIMES COUNTY SHERIFF'S DEPT.|County|ANDERSON|TX|77830|30.487147|-95.9868986|0|0|0|2|4|8|4|0|0|0|0|0|0|0|0|0|0|0|0|0|0|0|0|0|0|0|0|0|0
581|FRANKLIN COUNTY JAIL|County|MALONE|NY|12953|44.8486596|-74.2948983|0|0|0|0|0|0|0|0|0|1|0|6|6|2|2|0|0|0|0|0|0|0|0|0|0|0|0|0|0
542|BAKERFIELD HOLD|Federal|BAKERSFIELD|CA|44311|35.3732921|-119.0187125|11|9|0|0|0|0|0|0|0|0|0|0|0|0|0|0|0|0|0|0|0|0|0|0|0|0|0|0|0
350|WEST TEXAS DETENTION FACILITY|Regional and Federal Facilities|SIERRA BLANCA|TX|79851|31.1745732|-105.3571764|0|63|17|0|0|0|0|0|0|0|0|0|0|0|0|0|0|0|0|0|0|0|0|0|0|0|0|0|0
145|MISSISSIPPI COUNTY DETENTION CENTE|County|CHARLESTON|MO|63834|36.9208854|-89.350631|50|35|33|32|40|52|59|49|17|9|0|0|0|0|0|0|0|0|0|0|0|0|0|0|0|0|0|0|0
229|NORTH COUNTY JAIL|County|OAKLAND|CA|94607|37.8091431|-122.2909078|0|0|0|0|0|0|0|0|4|11|53|63|35|18|2|2|2|2|2|0|0|0|0|0|0|0|0|0|0
268|SOUTHWEST KEY - HOUSTON|ORR|HOUSTON|TX|77028|29.8341518|-95.2788926|20|19|28|27|37|18|5|0|0|0|0|0|0|0|0|0|0|0|0|0|0|0|0|0|0|0|0|0|0
432|CRITTENDEN SERVICES|ORR|FULLERTON|CA|92832|33.8733037|-117.9307584|27|15|0|0|0|0|0|0|0|0|0|0|0|0|0|0|0|0|0|0|0|0|0|0|0|0|0|0|0
506|HANCOCK COUNTY JAIL, WV||NEW CUMBERLAND|WV||40.4967329|-80.6067392|0|0|0|0|0|0|0|0|0|0|0|0|4|3|2|2|4|5|5|0|0|0|0|0|0|0|0|0|0
26|ORLEANS PARISH SHERIFF|County|NEW ORLEANS|LA|70119|29.9798049|-90.0886948|50|67|67|37|46|184|290|153|159|167|207|447|328|302|269|230|107|9|2|0|0|0|0|0|0|0|0|0|0
44|BERKS COUNTY JAIL, PA|County|LEESPORT|PA|19533|40.4470377|-75.9663221|27|31|27|24|43|109|120|118|176|215|207|188|246|148|13|0|0|0|0|0|0|0|0|0|0|0|0|0|0
108|SNYDER COUNTY JAIL|County|SELINS GROVE|PA|17870|40.8318855|-76.8951551|0|2|5|0|4|19|32|54|71|85|97|82|68|33|13|9|0|0|0|0|0|0|0|0|0|0|0|0|0
141|EAST FELICIANA PAR. PRISON||CLINTON|LA||30.8657362|-91.0156594|0|0|0|0|0|0|4|11|13|22|19|39|33|6|9|19|21|48|61|54|34|1|0|0|0|0|0|0|0
168|SACRAMENTO COUNTY JAIL|County|SACRAMENTO|CA|95814|38.5824933|-121.4941738|33|19|50|35|47|48|43|42|9|0|0|0|0|0|0|0|0|0|0|0|0|0|0|0|0|0|0|0|0
330|ATCHINSON COUNTY JAIL|County|ATCHINSON|KS|66002|39.5630521|-95.1216356|0|0|0|0|0|16|23|31|19|0|0|0|0|0|0|0|0|0|0|0|0|0|0|0|0|0|0|0|0
371|BETHANY C.S.,GRAND RAPIDS|ORR|GRAND RAPIDS|MI|49501|42.9704267|-85.6727369|11|4|1|2|2|2|0|0|0|1|1|4|8|10|11|11|0|0|0|0|0|0|0|0|0|0|0|0|0
388|WAYNE COUNTY JAIL|County|LYONS|NY|14489|43.0642305|-76.9902456|13|20|9|8|0|0|0|0|0|0|0|2|4|4|0|0|0|0|0|0|0|0|0|0|0|0|0|0|0
393|CHAUTAUQUA COUNTY JAIL|County|MAYVILLE|NY|14757|42.2539469|-79.5044913|5|8|5|0|0|0|0|1|2|3|0|2|1|2|2|0|4|6|6|6|2|3|0|0|0|0|0|0|0
98|BARRETT HONOR CAMP|County|ALPINE|CA|75633|32.8350521|-116.7664109|0|0|0|0|0|0|1|1|40|149|159|127|110|71|49|27|4|1|1|1|1|1|1|0|0|0|0|0|0
347|ST MARTIN PARISH MEDICAL|County|ST MARTINVILLE|LA|70282|30.125|-91.8305556|0|0|0|2|6|7|8|9|12|9|13|11|3|0|0|0|0|0|0|0|0|0|0|0|0|0|0|0|0
353|CHEROKEE COUNTY JAIL|County|CENTRE|AL|35690|34.1520406|-85.6788531|0|0|0|0|0|4|12|20|20|18|5|0|0|0|0|0|0|0|0|0|0|0|0|0|0|0|0|0|0
410|WYOMING COUNTY JAIL|County|WARSAW|NY|14569|42.740061|-78.1327881|0|0|2|3|2|2|0|2|0|3|4|6|12|13|6|0|0|0|0|0|0|0|0|0|0|0|0|0|0
427|WASHINGTON COUNTY JAIL|County|STILLWATER|MN|55082|45.0565|-92.822175|0|0|0|1|2|14|18|2|0|4|4|0|0|0|0|0|0|0|0|0|0|0|0|0|0|0|0|0|0
439|MONROE COUNTY JAIL|County|ROCHESTER|NY|14614|43.153975|-77.6120835|0|2|2|2|0|0|0|0|0|0|0|1|2|1|0|1|3|6|10|9|0|0|0|0|0|0|0|0|0
455|STONE COUNTY JAIL|County|GALENA|MO|65656|36.8053375|-93.466579|0|0|0|0|0|6|14|10|5|0|0|0|0|0|0|0|0|0|0|0|0|0|0|0|0|0|0|0|0
517|CHELAN CO. REGIONAL JAIL|County|WENATCHEE|WA|98801|47.4234599|-120.3103494|4|4|0|0|0|12|0|0|0|0|0|0|0|0|0|0|0|0|2|1|0|0|0|0|0|0|0|0|0
535|STATE COR CTR ANNEX ANCHO|State|ANCHORAGE|AK|99501|61.2237855|-149.8702209|0|0|2|2|2|3|1|2|0|1|0|3|4|1|0|0|0|0|0|0|0|0|0|0|0|0|0|0|0
553|LOS ANGELES CITY JAIL||LOS ANGELES|CA||34.0522342|-118.2436849|0|0|0|0|0|0|0|0|0|0|0|0|0|0|0|0|0|0|3|16|0|0|0|0|0|0|0|0|0
586|HENDERSON COUNTY DET. FAC.|County|HENDERSONVILLE|NC|28739|35.3187279|-82.4609528|16|0|0|0|0|0|0|0|0|0|0|0|0|0|0|0|0|0|0|0|0|0|0|0|0|0|0|0|0
592|PEARL RIVER P.D., PEARL RIVER, LA||PEARL RIVER|LA||30.3760264|-89.7483972|0|0|0|0|0|0|0|0|0|0|0|0|0|0|0|0|0|0|0|0|1|8|6|0|0|0|0|0|0
65|HUTTO CCA|Corrections Corporation of America|TAYLOR|TX|76574|30.5707551|-97.4094438|325|252|321|136|0|91|14|0|0|0|0|13|0|0|0|0|0|0|0|0|0|0|0|0|0|0|0|0|0
22|OAKDALE FED. DET. CENTER|Regional and Federal Facilities|OAKDALE|LA|71463|30.8160276|-92.660421|0|0|18|54|39|58|93|139|163|222|238|213|237|184|184|96|92|135|110|50|50|167|738|267|0|0|0|0|0
191|MONTGOMERY CNTY JAIL, PA|County|NORRISTOWN|PA|19404|40.12|-75.34|0|0|3|3|5|33|40|51|67|60|7|0|0|0|0|0|0|0|0|0|0|0|0|0|0|0|0|0|0
559|SEDGWICK COUNTY JAIL|County|WICHITA|KS|67203|37.7006858|-97.3678624|0|0|0|0|0|0|1|1|2|3|2|4|5|1|0|0|0|0|0|0|0|0|0|0|0|0|0|0|0
575|LUTHERAN COMMUNTIY SERVICES NW|ORR|NORTH SEATTLE|WA|98109|47.6288591|-122.3456919|4|7|5|2|0|0|0|0|0|0|0|0|0|0|0|0|0|0|0|0|0|0|0|0|0|0|0|0|0
600|FRANKLIN COUNTY JAIL||COLUMBUS|OH||39.9611755|-82.9987942|0|0|0|0|0|0|0|0|7|7|0|0|0|0|0|0|0|0|0|0|0|0|0|0|0|0|0|0|0
605|ST JEROME'S GROUP HOME|ORR|HOUSTON|TX|77056|29.7484861|-95.4699173|2|6|4|2|0|0|0|0|0|0|0|0|0|0|0|0|0|0|0|0|0|0|0|0|0|0|0|0|0
611|SUWANNEE COUNTY JAIL||LIVE OAK|FL||30.2949457|-82.98402|0|0|0|0|0|0|0|0|0|0|0|13|0|0|0|0|0|0|0|0|0|0|0|0|0|0|0|0|0
616|DESOTO COUNTY JAIL||HERNANDO|MS||34.823987|-89.9937018|0|0|0|0|0|0|0|0|0|0|0|0|0|0|0|0|0|0|0|4|9|0|0|0|0|0|0|0|0
627|SALT LAKE COUNTY - OXBOW||SALT LAKE CITY|UT||40.7607793|-111.8910474|0|0|0|0|0|0|0|0|0|0|3|4|4|0|0|0|0|0|0|0|0|0|0|0|0|0|0|0|0
641|JACKSONVILLE SUB-OFFICE|Federal|JACKSONVILLE|FL|32216|30.2906907|-81.5706109|5|4|0|1|0|0|0|0|0|0|0|0|0|0|0|0|0|0|0|0|0|0|0|0|0|0|0|0|0
646|ROCK ISLAND COUNTY JAIL|County|ROCK ISLAND|IL|61201|41.5094771|-90.5787476|1|0|0|0|0|0|0|3|6|0|0|0|0|0|0|0|0|0|0|0|0|0|0|0|0|0|0|0|0
657|ARAPAHOE COUNTY JAIL|County|LITTLETON|CO|80120|39.5897283|-105.0031457|0|3|4|2|1|0|0|0|0|0|0|0|0|0|0|0|0|0|0|0|0|0|0|0|0|0|0|0|0
662|SCHNECTADY COUNTY JAIL|County|SCHNECTADY|NY|12307|42.8065128|-73.9330429|0|0|0|0|0|0|0|2|0|3|0|3|2|0|0|0|0|0|0|0|0|0|0|0|0|0|0|0|0
668|DADE COUNTY CORRECTIONAL|County|MIAMI|FL|33034|25.413625|-80.6770787|0|0|0|0|0|0|0|3|1|2|0|0|0|0|0|0|0|0|0|1|1|0|0|0|0|0|0|0|0
673|HAMPDEN CO.HOUSE OF CORR.||LUDLOW|MA||42.1600936|-72.475919|0|0|0|0|0|0|0|0|0|0|0|1|4|3|0|0|0|0|0|0|0|0|0|0|0|0|0|0|0
679|ROCKBRIDGE||LEXINGTON|VA||37.7840208|-79.4428157|0|0|0|0|0|0|0|0|0|0|0|0|2|4|2|0|0|0|0|0|0|0|0|0|0|0|0|0|0
680|SAN MIGUEL COUNTY DET CTR||LAS VEGAS|NM||35.5939325|-105.2238969|0|0|0|0|0|0|0|0|0|0|0|5|3|0|0|0|0|0|0|0|0|0|0|0|0|0|0|0|0
686|FT. POLK ARMY BASE, FT. POLK, LA||FT. POLK|LA||31.0465776|-93.2054396|0|0|0|0|0|0|0|0|0|0|0|0|0|0|0|0|0|0|0|0|0|3|4|0|0|0|0|0|0
697|SAN LUIS VALLEY COMM CORR||ALAMOSA|CO||37.4694491|-105.8700214|0|0|0|0|0|0|0|0|0|0|0|0|0|0|2|3|0|2|0|0|0|0|0|0|0|0|0|0|0
702|MONTGOMERY COUNTY JAIL|County|FONDA|NY|12068|42.9545179|-74.3765241|0|0|0|1|0|0|0|2|0|0|1|1|2|0|0|0|0|0|0|0|0|0|0|0|0|0|0|0|0
707|HILLSBOROUGH COUNTY JAIL|County|TAMPA|FL|33619|27.9363828|-82.3777335|0|0|0|0|0|0|0|0|0|0|1|0|3|3|0|0|0|0|0|0|0|0|0|0|0|0|0|0|0
712|FAYETTE COUNTY DETENTION CENTER|County|LEXINGTON|KY|40510|38.0765476|-84.5955732|0|0|0|0|0|2|2|0|2|0|0|0|0|0|0|0|0|0|0|0|0|0|0|0|0|0|0|0|0
718|VALLEY BAPTIST HOSPITAL|Hospital|HARLINGEN|TX|78550|26.2848429|-97.6765157|0|0|0|0|0|0|0|1|1|1|2|2|0|0|0|0|0|0|0|0|0|0|0|0|0|0|0|0|0
729|BENTON COUNTY DETENTION CENTER|County|BENTONVILLE|AR|72712|36.3728538|-94.2088172|0|0|0|0|0|4|2|0|0|0|0|0|0|0|0|0|0|0|0|0|0|0|0|0|0|0|0|0|0
734|GASTON COUNTY JAIL|County|GASTONIA|NC|28052|35.185338|-81.2739073|2|2|1|0|0|0|0|0|0|0|0|0|0|0|0|0|0|0|0|0|0|0|0|0|0|0|0|0|0
740|SCI GRATERFORD, PA||GRATERFORD|PA||40.225556|-75.455|0|0|0|0|0|0|0|0|0|0|0|0|0|0|0|0|0|0|0|0|1|3|1|0|0|0|0|0|0
745|SANTA CRUZ CO. JAIL - PHO|County|NOGALES|AZ|85621|31.3403775|-110.9342532|0|0|0|0|0|0|0|0|0|0|0|0|0|0|0|0|0|2|4|0|0|0|0|0|0|0|0|0|0
751|HURON CO, BAD AXE, MI.||BAD AXE|MI||43.8019592|-83.0007774|0|0|0|0|0|0|0|0|0|0|2|3|0|0|0|0|0|0|0|0|0|0|0|0|0|0|0|0|0
597|VAN BUREN TOWNSHIP PD|City or Municipality|BELLEVILLE|MI|48111|42.2047619|-83.4852133|0|0|0|0|0|10|4|0|0|0|0|0|0|0|0|0|0|0|0|0|0|0|0|0|0|0|0|0|0
652|SOUTHWEST KEY (JUVENILE)|Regional and Federal Facilities|DOVER|DE|19904|39.158168|-75.5243682|0|0|0|0|10|0|0|0|0|0|0|0|0|0|0|0|0|0|0|0|0|0|0|0|0|0|0|0|0
259|FT LAUDERDALE CITY JAIL|City or Municipality|FT.LAUDERDALE|FL|33312|26.0898957|-80.1819268|0|0|0|0|0|2|7|22|14|25|18|14|15|9|11|16|8|0|0|0|0|0|0|0|0|0|0|0|0
228|CUMBERLAND COUNTY JAIL|County|PORTLAND|ME|04102|43.6632805|-70.310958|34|42|34|2|1|2|8|12|11|7|17|10|8|3|2|0|0|0|0|0|0|0|0|0|0|0|0|0|0
475|CORRIGAN CORR INST|State|UNCASVILLE|CT|06382|41.43444|-72.11028|0|0|0|4|6|8|7|0|3|2|0|0|0|0|0|0|0|0|0|0|0|0|0|0|0|0|0|0|0
208|OZAUKEE COUNTY JAIL|County|PORT WASHINGTON|WI|53074|43.3872247|-87.875644|0|0|0|0|64|69|58|52|0|0|0|0|0|0|0|0|0|0|0|0|0|0|0|0|0|0|0|0|0
225|NORTHERN NEV CORR CTR||CARSON CITY|NV||39.1637984|-119.7674034|0|0|0|0|0|0|0|0|0|0|0|0|0|29|26|28|28|31|25|17|18|0|0|0|0|0|0|0|0
244|PHELPS COUNTY JAIL|County|HOLDREDGE|NE|68949|40.3727913|-99.4117197|34|35|34|34|26|4|0|3|3|0|0|0|0|0|0|0|0|0|0|0|0|0|0|0|0|0|0|0|0
273|PALM BEACH COUNTY JAIL|County|WEST PALM BEACH|FL|33408|26.8520904|-80.0590804|21|25|17|15|0|8|9|10|13|16|10|0|0|4|0|0|0|0|0|0|0|0|0|0|0|0|0|0|0
290|CARTER COUNTY, ARDMORE OK|County|ARDMORE|OK|73401|34.1742611|-97.1436254|0|0|0|0|0|0|0|0|0|5|6|14|19|2|0|3|14|27|26|14|0|0|0|0|0|0|0|0|0
307|SALT LAKE COUNTY JAIL|County|SALT LAKE CITY|UT|84190|40.7266023|-111.8874136|3|7|5|5|6|19|22|25|8|3|2|1|0|0|2|3|0|0|0|0|0|0|0|0|0|0|0|0|0
314|PHI DISTRICT OFFICE|Federal|PHILADELPHIA|PA|19130|39.9682609|-75.1749671|6|7|8|6|5|4|3|0|0|0|0|0|0|0|0|0|0|0|0|0|0|6|9|20|13|5|4|4|3
504|NORTHERN OREGON JUV.DET.|ORR|THE DALLES|OR|97058|45.5945645|-121.1786823|7|5|1|0|0|3|2|1|2|3|0|0|0|0|0|0|0|0|0|0|0|0|0|0|0|0|0|0|0
756|RAMADA HOTEL|Hotel|EAST BOSTON|MA|02128|42.3750973|-71.0392173|0|0|1|2|1|1|0|0|0|0|0|0|0|0|0|0|0|0|0|0|0|0|0|0|0|0|0|0|0
765|MERRIMACK COUNTY JAIL|County|BOSCAWAN|NH|03301|43.2086343|-71.5486562|0|0|0|0|0|0|0|0|0|0|0|2|2|0|0|0|0|0|0|0|0|0|0|0|0|0|0|0|0
853|TAUNTON STATE HOSPITAL|State|TAUNTON|MA|02780|41.9125011|-71.1092012|2|0|0|0|0|0|0|0|0|0|0|0|0|0|0|0|0|0|0|0|0|0|0|0|0|0|0|0|0
720|HALL CO JAIL|County|GAINSVILLE|GA|30504|34.2793659|-83.9003022|7|0|0|0|0|0|0|0|0|0|0|0|0|0|0|0|0|0|0|0|0|0|0|0|0|0|0|0|0
823|BUFFALO COUNTY JAIL||ALMA|WI||44.3199654|-91.9148839|0|0|0|0|0|0|0|0|0|0|3|0|0|0|0|0|0|0|0|0|0|0|0|0|0|0|0|0|0
761|TREMPEALEAU COUNTY JAIL||WHITEHALL|WI||44.367461|-91.3165482|0|0|0|0|0|0|0|0|0|0|0|0|0|0|0|0|0|0|0|0|0|0|3|1|0|0|0|0|0
771|PUEBLO COUNTY JAIL|County|PUEBLO|CO|81003|38.2883142|-104.6412925|0|0|3|1|0|0|0|0|0|0|0|0|0|0|0|0|0|0|0|0|0|0|0|0|0|0|0|0|0
776|BP STA BELLINGHAM|Federal|BELLINGHAM|WA|98227|48.75|-122.48|0|0|1|1|1|1|0|0|0|0|0|0|0|0|0|0|0|0|0|0|0|0|0|0|0|0|0|0|0
865|LAS VEGAS HOLD ROOM|Federal|LAS VEGAS|NV|89102|36.1462673|-115.1829873|2|0|0|0|0|0|0|0|0|0|0|0|0|0|0|0|0|0|0|0|0|0|0|0|0|0|0|0|0
875|TOM GREEN CTY JAIL|County|SAN ANGELO|TX|76903|31.4846812|-100.4508956|0|2|0|0|0|0|0|0|0|0|0|0|0|0|0|0|0|0|0|0|0|0|0|0|0|0|0|0|0
32|WACKENHUT CORRECTIONS CORP|GEO Group, Inc|POMPANO BEACH|FL|33073|26.3003637|-80.1819268|568|525|504|348|156|136|134|7|0|0|0|0|0|0|0|0|0|0|0|0|0|0|0|0|0|0|0|0|0
31|IES SHELTER|ORR|LOS FRESNOS|TX|77566|26.0717438|-97.4763733|319|322|306|227|195|160|133|70|81|82|79|75|52|49|45|45|41|52|67|11|1|0|0|0|0|0|0|0|0
77|ATLANTA PRETRIAL DETN CTR|City or Municipality|ATLANTA|GA|30303|33.755711|-84.3883717|171|175|155|158|146|103|1|29|6|1|2|20|8|0|0|0|0|0|0|0|0|0|0|0|0|0|0|0|0
78|ST. ELIZABETH'S HOSPITAL, DISTRICT||WASHINGTON|DC||38.8951118|-77.0363658|0|0|0|0|0|0|0|0|0|0|0|0|0|0|22|72|97|99|113|142|116|109|82|52|27|19|15|7|3
79|BASILE DETENTION CENTER|County|BASILE|LA|70515|30.4852012|-92.5959723|389|535|29|0|0|0|0|0|0|0|0|0|4|0|0|0|0|0|0|0|0|0|0|0|0|0|0|0|0
82|DODGE COUNTY JAIL, JUNEAU|County|JUNEAU|WI|53039|43.4055504|-88.7051037|166|166|123|95|88|163|97|2|0|0|0|0|0|0|0|0|0|0|0|0|0|0|0|0|0|0|0|0|0
119|MONROE COUNTY JAIL|County|KEY WEST|FL|33040|24.5557025|-81.7825914|40|36|48|41|53|38|60|51|27|48|43|32|0|17|0|0|0|0|0|0|0|0|0|0|0|0|0|0|0
120|CLAY COUNTY JAIL|County|GREENCOVE SPRING|FL|32043|29.9456874|-81.734942|0|0|0|46|69|123|128|119|43|0|0|0|0|0|0|0|0|0|0|0|0|0|0|0|0|0|0|0|0
121|TUCSON INS HOLD ROOM|Federal|TUCSON|AZ|85706|32.1482822|-110.9327809|16|13|42|53|60|60|45|28|20|15|12|12|8|29|37|26|18|11|6|5|3|3|3|2|0|0|0|0|0
167|RAPP SEC CENTER|Regional and Federal Facilities|STAFFORD|VA|22404|38.3059409|-77.4801329|0|1|0|0|4|22|36|42|32|26|40|56|41|16|0|0|0|0|0|0|9|3|0|0|0|0|0|0|0
164|LINN COUNTY JAIL|County|CEDAR RAPIDS|IA|52407|41.9799999|-91.66|0|29|29|31|28|16|26|41|46|34|30|16|5|0|0|0|0|0|0|0|0|0|0|0|0|0|0|0|0
169|BUTLER COUNTY JAIL|County|HAMILTON|OH|45011|39.3995008|-84.5613355|192|113|0|0|0|0|14|0|0|0|0|0|0|0|0|0|0|0|0|0|0|0|0|0|0|0|0|0|0
211|TORRANCE/ESTANCIA, NM|Corrections Corporation of America|ESTANCIA|NM|87016|34.7583934|-106.0558506|119|77|11|5|3|7|9|7|0|0|0|0|0|0|0|0|0|0|0|0|0|0|0|0|0|0|0|0|0
210|MARIANNA FED.CORR.INST.|Regional and Federal Facilities|MARIANNA|FL|32446|30.7743596|-85.2268735|0|0|0|0|0|1|0|0|2|2|4|9|10|10|10|14|26|39|52|50|8|2|1|0|0|0|0|0|0
255|GA BAPTIST CHILDREN HOME|Regional and Federal Facilities|MEANSVILLE|GA|30256|33.0492923|-84.3068648|0|0|0|0|30|31|28|16|17|23|17|3|0|0|0|0|0|0|0|0|0|0|0|0|0|0|0|0|0
257|POTTAWATTAMIE COUNTY JAIL|County|COUNCIL BLUFFS|IA|51501|41.2208559|-95.8881542|48|18|23|15|7|9|9|20|10|4|0|0|0|0|0|0|0|0|0|0|0|0|0|0|0|0|0|0|0
304|ST. CROIX COUNTY JAIL||HUDSON|WI||44.9746896|-92.7568703|0|0|0|0|0|0|0|0|0|18|23|27|19|13|5|4|1|1|0|0|0|0|0|0|0|0|0|0|0
305|LIBERTY CTY JUV DET CENTE||LIBERTY|TX||30.057993|-94.7954783|0|0|0|0|0|0|0|3|17|20|27|43|0|0|0|0|0|0|0|0|0|0|0|0|0|0|0|0|0
348|HALL COUNTY SHERIFF|County|GRAND ISLAND|NE|68801|40.9222222|-98.3580556|27|0|0|0|0|0|0|6|5|20|15|6|1|0|0|0|0|0|0|0|0|0|0|0|0|0|0|0|0
781|CONEJOS COUNTY JAIL|County|CONEJOS|CO|81129|37.0926935|-106.0235043|2|2|0|0|0|0|0|0|0|0|0|0|0|0|0|0|0|0|0|0|0|0|0|0|0|0|0|0|0
787|US INS/DETENTION & DEPORTATION|Federal|BLOOMINGTON|MN|55425|44.840798|-93.2982799|0|0|0|0|1|1|1|0|0|0|0|0|0|0|0|0|0|0|0|0|0|0|0|0|0|0|0|0|0
441|NIAGARA COUNTY JAIL|County|LOCKPORT|NY|14094|43.1706128|-78.6903098|1|2|0|0|0|3|3|2|2|0|1|11|5|5|2|0|0|0|0|0|0|0|0|0|0|0|0|0|0
21|ELIZABETH CONTRACT D.F.|Corrections Corporation of America|ELIZABETH|NJ|07201|40.6670494|-74.1650991|266|265|298|295|265|246|267|260|273|278|280|249|113|0|237|33|0|0|0|0|0|0|0|0|0|0|0|0|0
792|KERR COUNTY JAIL|County|KERRVILLE|TX|78028|30.0474332|-99.1403189|0|0|0|0|0|0|0|0|0|0|0|3|0|0|0|0|0|0|0|0|0|0|0|0|0|0|0|0|0
798|KENDALL COUNTY JAIL|County|BOERNE|TX|78006|29.7946641|-98.7319703|0|0|0|0|0|0|0|0|0|2|1|0|0|0|0|0|0|0|0|0|0|0|0|0|0|0|0|0|0
802|PENNINGTON COUNTY JAIL SD|County|RAPID CITY|SD|57701|44.0805434|-103.2310149|1|0|0|0|0|0|0|0|0|2|0|0|0|0|0|0|0|0|0|0|0|0|0|0|0|0|0|0|0
807|DELAWARE COUNTY JAIL|County|DELHI|NY|13753|42.2781401|-74.9159946|0|0|0|0|0|0|0|0|0|0|0|0|0|0|0|0|0|0|0|0|0|3|0|0|0|0|0|0|0
812|PERRY CO PRISON||NEW BLOOMFIELD|PA||40.4183333|-77.1883333|0|0|0|0|0|0|0|0|0|0|0|0|0|0|3|0|0|0|0|0|0|0|0|0|0|0|0|0|0
828|PINELLAS COUNTY JAIL|County|CLEARWATER|FL|33762|27.9006925|-82.6861446|2|0|0|0|1|0|0|0|0|0|0|0|0|0|0|0|0|0|0|0|0|0|0|0|0|0|0|0|0
833|OCEAN COUNTY JAIL||TOMS RIVER|NJ||39.953729|-74.1979192|0|0|0|0|0|0|0|0|0|0|0|0|0|2|0|0|0|0|0|0|0|0|0|0|0|0|0|0|0
63|NEWTON COUNTY CORR. CTR.|GEO Group, Inc|NEWTON|TX|75966|30.8485337|-93.7574008|0|0|0|69|84|172|285|195|47|102|192|29|0|0|0|0|0|9|2|0|0|0|0|0|0|0|0|0|0
73|HARTFORD CORR CENTER|City or Municipality|HARTFORD|CT|06120|41.7888066|-72.6712894|0|0|32|78|83|141|172|151|102|96|67|53|36|17|5|1|0|0|0|0|0|0|0|0|0|0|0|0|0
817|SAC & FOX NATION JUV DET|Regional and Federal Facilities|STROUD|OK|74079|35.7486798|-96.6580726|0|0|0|0|0|0|0|0|0|0|3|0|0|0|0|0|0|0|0|0|0|0|0|0|0|0|0|0|0
89|ENGLEWOOD FED.CORR.INST.|Regional and Federal Facilities|LITTLETON|CO|80123|39.6166037|-105.0674317|0|0|0|0|0|13|3|8|7|8|5|20|67|71|33|19|21|24|65|69|94|145|91|31|15|5|2|1|0
839|ALHAMBRA BHC HOSPITAL|Hospital|ROSEMEAD|CA|91770|34.0805651|-118.072846|2|0|0|0|0|0|0|0|0|0|0|0|0|0|0|0|0|0|0|0|0|0|0|0|0|0|0|0|0
843|PINAL COUNTY JUV.DET.CTR.||FLORENCE|AZ||33.0314508|-111.3873431|0|0|0|0|0|0|0|0|0|0|0|0|0|0|0|0|2|0|0|0|0|0|0|0|0|0|0|0|0
848|SCI HUNTINGDON, PA||HUNTINGDON|PA||40.4847959|-78.0102813|0|0|0|0|0|0|0|0|0|0|0|0|0|0|0|0|0|0|0|0|0|0|2|0|0|0|0|0|0
859|SWEETWATER COUNTY JAIL|County|GREEN RIVER|WY|82935|41.5285757|-109.4662461|0|0|0|0|1|1|0|0|0|0|0|0|0|0|0|0|0|0|0|0|0|0|0|0|0|0|0|0|0
49|MIDDLESEX COUNTY JAIL|County|NORTH BRUNSWICK|NJ|08903|40.52|-74.41|149|195|199|192|196|162|247|149|0|0|0|0|0|0|0|0|0|0|0|0|0|0|0|0|0|0|0|0|0
42|PIKE COUNTY JAIL|County|MILFORD|PA|18337|41.322316|-74.8023882|140|125|121|134|97|132|153|156|163|118|105|121|137|53|0|0|0|0|0|0|0|0|0|0|0|0|0|0|0
197|RED CROSS SHELTER, SAN BENITOS, TX||SAN BENITOS|TX||26.132576|-97.6311006|0|0|0|0|0|0|0|0|0|0|0|0|0|0|0|0|0|0|33|156|68|0|0|0|0|0|0|0|0
66|PINAL COUNTY JAIL|County|FLORENCE|AZ|85232|32.772674|-111.1652687|524|496|125|0|0|0|1|1|0|0|0|0|0|0|0|0|0|0|0|0|0|0|0|0|0|0|0|0|0
81|MONROE CO., MONROE, MI.|County|MONROE|MI|48161|41.9164343|-83.3977101|78|76|96|81|90|97|136|107|66|31|24|24|9|0|0|0|0|0|0|0|0|0|0|0|0|0|0|0|0
870|BOWIE COUNTY JAIL|Community Education Centers|TEXARKANA|TX|77501|33.425125|-94.0476882|0|2|0|0|0|0|0|0|0|0|0|0|0|0|0|0|0|0|0|0|0|0|0|0|0|0|0|0|0
97|BRAZORIA COUNTY DET. CTR|County|ANGELTON|TX|77515|29.16941|-95.4318847|0|0|0|0|0|81|142|67|142|159|118|37|0|0|0|0|0|0|0|0|0|0|0|0|0|0|0|0|0
227|BEDFORD HEIGHTS CITY|City or Municipality|BEDFORD HTS|OH|44146|41.4169982|-81.5273428|22|25|30|24|27|15|6|12|10|13|8|2|2|0|0|0|0|0|0|0|0|0|0|0|0|0|0|0|0
104|DUPAGE COUNTY JAIL||WHEATON|IL||41.8661403|-88.1070127|0|0|0|0|0|0|32|73|110|127|72|110|87|19|0|0|0|0|0|0|0|0|0|2|0|0|0|0|0
106|OKLAHOMA COUNTY JAIL|County|OKLAHOMA CITY|OK|73102|35.4711808|-97.516602|0|85|82|42|35|27|14|14|20|6|101|154|18|2|0|0|0|0|3|0|0|0|0|0|0|0|0|0|0
122|PT COUPEE PAR DETEN. CNTS|County|NEW ROADS|LA|70760|30.7015741|-91.4362242|0|0|0|0|10|27|35|33|34|37|27|36|30|26|22|25|23|40|48|20|48|0|0|0|0|0|0|0|0
131|CONCORDIA PARISH C C|County|FERRIDAY|LA|71334|31.6301664|-91.5545649|0|0|0|0|6|65|58|78|116|117|4|0|0|0|0|0|0|0|0|1|10|0|4|0|0|0|0|0|0
149|HARLINGEN STAGING FACILITY|Federal|HARLINGEN|TX|78552|26.1862754|-97.7634019|100|99|84|53|24|3|0|0|0|0|0|0|0|0|0|0|0|0|0|0|0|0|0|0|0|0|0|0|0
158|HASTINGS DETENTION CENTER|State|HASTINGS|NE|68901|40.5891667|-98.3916667|0|0|0|0|50|121|140|32|0|0|0|0|0|0|0|0|0|0|0|0|0|0|0|0|0|0|0|0|0
165|HANCOCK COUNTY JAIL|County|BAY ST. LOUIS|MS|39520|30.305326|-89.333322|0|0|0|0|0|0|0|0|12|16|19|25|29|27|26|26|21|20|31|28|22|19|8|0|0|0|0|0|0
173|SAN BERNARDINO CO. JAIL|County|SAN BERNADINO|CA|92408|34.0868517|-117.2617329|8|102|31|27|36|33|37|14|2|1|0|0|0|0|0|7|6|0|0|0|0|0|0|0|0|0|0|0|0
182|MONTGOMERY COUNTY JAIL|County|CONROE|TX|77301|30.3120301|-95.4253757|265|16|0|0|0|0|0|0|0|0|0|0|0|0|0|0|0|0|0|0|0|0|0|0|0|0|0|0|0
186|TURNER GUIFORD KNIGHT (TGK) JAIL|County|MIAMI|FL|33166|25.8235041|-80.3101684|0|0|0|0|0|52|51|98|74|0|0|0|0|0|0|0|0|0|0|0|0|0|0|0|0|0|0|0|0
206|BASTROP COUNTY JAIL|County|BASTROP|TX|78602|30.1104947|-97.3152701|0|0|0|0|0|0|0|3|7|8|14|26|17|12|16|21|37|59|26|0|0|0|0|0|0|0|0|0|0
214|AVOYELLES WOMEN'S CORR CN|County|MARKSVILLE|LA|71351|31.1279652|-92.0662356|0|0|0|0|0|21|18|21|30|26|22|24|26|8|6|23|8|0|0|0|0|0|0|0|0|0|0|0|0
245|SOUTHWEST KEY CONROE|ORR|CONROE|TX|77304|30.3306413|-95.5302337|36|46|48|36|5|0|0|0|0|0|0|0|0|0|0|0|0|0|0|0|0|0|0|0|0|0|0|0|0
252|TERMINAL ISLAND FCI||SAN PEDRO|CA||33.7358518|-118.2922934|0|0|0|0|0|0|0|0|0|0|0|0|1|1|1|3|12|26|47|48|14|9|6|0|0|0|0|0|0
25|KERN COUNTY JAIL (LERDO)|County|BAKERSFIELD|CA|93308|35.3732921|-119.0187125|114|121|159|140|128|153|171|194|235|360|388|192|199|166|176|189|195|85|0|0|0|0|0|0|0|0|0|0|0
881|ST. MARTIN PARISH PRISON|County|BREAUX BRIDGE|LA|70517|30.2735323|-91.8992837|0|0|0|0|0|0|0|0|0|1|0|0|0|0|0|0|0|0|0|0|0|0|0|0|0|0|0|0|0
885|COWLITZ CO. JUV. DET.|County|LONGVIEW|WA|98632|46.1381676|-122.9381672|1|0|0|0|0|0|0|0|0|0|0|0|0|0|0|0|0|0|0|0|0|0|0|0|0|0|0|0|0
888|CALIF.INST.RECEPTION CTR.||CHINO|CA||34.0122346|-117.688944|0|0|0|0|0|0|0|0|0|0|0|0|0|0|0|0|0|0|0|1|0|0|0|0|0|0|0|0|0
899|SCOTT COUNTY DET.FACILITY||DAVENPORT|IA||41.5236437|-90.5776367|0|0|0|0|0|0|0|0|0|0|1|0|0|0|0|0|0|0|0|0|0|0|0|0|0|0|0|0|0
905|PRINCE GEORGES CO DET CEN||UPPER MARLBORO|MD||38.8159473|-76.7496909|0|0|0|0|0|0|0|0|0|0|0|0|0|0|0|0|0|0|0|1|0|0|0|0|0|0|0|0|0
910|KERR COUNTY JDC|County|KERRVILLE|TX|78028|30.0474332|-99.1403189|0|0|0|0|0|0|0|0|0|0|0|1|0|0|0|0|0|0|0|0|0|0|0|0|0|0|0|0|0
916|DOUGLAS CO JUV DET SVCES||OMAHA|NE||41.2523634|-95.9979883|0|0|0|0|0|0|0|0|0|1|0|0|0|0|0|0|0|0|0|0|0|0|0|0|0|0|0|0|0
921|MARICOPA MEDICAL CENTER|County|PHOENIX|AZ|85038|33.45|-111.97|0|0|0|0|0|0|0|1|0|0|0|0|0|0|0|0|0|0|0|0|0|0|0|0|0|0|0|0|0
115|PAMUNKEY REG JAIL|Regional and Federal Facilities|HANOVER|VA|23069|37.7757835|-77.3094674|41|84|65|37|39|91|68|52|42|33|0|0|0|0|0|0|0|0|0|0|0|0|0|0|0|0|0|0|0
19|VARICK|Ahtna, Inc.|NEW YORK|NY|10014|40.7316717|-74.0094471|235|123|18|8|5|4|3|3|220|190|149|179|188|226|231|210|223|280|229|287|260|178|136|179|52|4|0|0|0
80|PERRY COUNTY CORR. CENTER|County|UNION TOWN|AL|36786|32.988181|-87.915016|298|279|279|64|0|0|0|0|0|0|0|0|0|0|0|0|0|0|0|0|0|0|0|0|0|0|0|0|0
469|GLADES COUNTY DETENTION CENTER FEMALE||MOORE HAVEN|FL|33472|26.8331174|-81.0931234|31|0|0|0|0|0|0|0|0|0|0|0|0|0|0|0|0|0|0|0|0|0|0|0|0|0|0|0|0
742|CORR. CORP. OF AMERICA|Corrections Corporation of America|LEAVENWORTH|KS|66045|39.3111112|-94.9224637|0|0|0|0|0|0|0|0|0|0|0|3|2|0|0|0|0|0|0|0|0|0|0|0|0|0|0|0|0
603|NO. VA. JUVENILE DET|ORR|ALEXANDRIA|VA|22231|38.8048355|-77.0469214|7|4|0|2|2|0|0|0|0|0|0|0|0|0|0|0|0|0|0|0|0|0|0|0|0|0|0|0|0
645|COLOMBIA COUNTY JAIL|County|HUDSON|NY|12543|42.2528649|-73.790959|0|0|0|0|0|0|0|0|0|0|0|3|3|0|0|0|0|0|3|1|0|0|0|0|0|0|0|0|0
890|YAVAPAI COUNTY JAIL|County|PRESCOTT|AZ|85031|34.5400242|-112.4685025|0|1|0|0|0|0|0|0|0|0|0|0|0|0|0|0|0|0|0|0|0|0|0|0|0|0|0|0|0
29|ETOWAH COUNTY JAIL (AL)|County|GADSDEN|AL|35901|34.014264|-86.0066386|352|352|339|383|308|281|231|50|65|83|88|34|3|1|0|0|0|0|0|0|0|0|0|0|0|0|0|0|0
33|LOS CUST CASE|Federal|SAN PEDRO|CA|90731|33.7322884|-118.2935891|149|227|174|130|134|151|116|124|122|136|92|109|161|169|75|66|92|43|19|13|4|4|3|3|2|1|0|0|0
35|AVOYELLES PARISH PRISON||MARKSVILLE|LA||31.1279652|-92.0662356|0|0|0|0|0|0|0|0|105|130|188|200|201|151|102|71|125|98|181|254|253|200|35|0|0|0|0|0|0
36|SEATTLE CONTRACT DET.FAC.|Federal|SEATTLE|WA|98134|47.5730217|-122.3316347|0|0|0|0|0|78|206|198|210|203|201|187|180|155|170|161|133|97|74|0|0|0|0|0|0|0|0|0|0
37|YUBA COUNTY JAIL|County|MARYSVILLE|CA|95901|39.1457253|-121.5913547|189|169|165|169|193|200|199|196|196|146|111|71|71|37|0|0|0|0|0|0|0|0|0|0|0|0|0|0|0
39|WICOMICO CO DET|County|SALISBURY|MD|21801|38.3606736|-75.5993692|0|35|79|78|88|77|54|92|103|140|123|120|115|119|115|111|119|114|72|78|36|0|0|0|0|0|0|0|0
43|DALLAS COUNTY JAIL|County|DALLAS|TX|75207|32.7891591|-96.8217017|0|0|0|0|0|21|113|126|166|354|276|377|205|92|7|2|1|1|1|0|0|0|0|0|0|0|0|0|0
47|FLORENCE STAGING FACILITY|Federal|FLORENCE|AZ|85232|32.772674|-111.1652687|171|193|253|139|195|184|126|111|100|55|3|2|2|2|2|2|2|2|2|2|2|2|2|0|0|0|0|0|0
46|POLK COUNTY JAIL|Community Education Centers|LIVINGSTON|TX|77351|30.711029|-94.9329898|817|603|195|25|0|0|0|0|0|0|0|0|0|0|0|0|0|0|0|0|0|0|0|0|0|0|0|0|0
27|ROLLING PLAINS DETENTION CENTER|Emerald Correctional Management|HASKELL|TX|79521|33.1576031|-99.7337014|561|520|488|266|238|383|246|22|2|0|0|0|0|0|0|0|0|0|0|0|0|0|0|0|0|0|0|0|0
14|SOUTH TEXAS DETENTION COMPLEX|GEO Group, Inc|PEARSALL|TX|78061|28.8921939|-99.095033|1548|1470|1582|960|113|0|0|0|0|0|0|0|0|0|0|0|0|0|0|0|0|0|0|0|0|0|0|0|0
4|EL CENTRO SPC|U.S. Immigrations and Customs Enforcement|EL CENTRO|CA|92243|32.792|-115.5630514|466|426|451|440|472|432|455|507|496|505|544|524|596|581|473|355|269|298|331|387|469|452|430|302|6|0|0|0|0
5|KROME NORTH SPC|U.S. Immigrations and Customs Enforcement|MIAMI|FL|33194|25.7607946|-80.4772699|644|577|677|400|541|576|681|671|528|629|491|341|285|333|321|326|280|394|498|470|540|126|6|5|2|2|0|0|0
40|NORTH LAS VEGAS|City or Municipality|N. LAS VEGAS|NV|89030|36.2040034|-115.1296249|139|121|122|132|135|126|127|141|111|110|139|175|151|115|12|8|5|0|0|0|0|0|0|0|0|0|0|0|0
17|WILLACY COUNTY DETENTION CENTER|Management and Training Corporation|RAYMONDVILLE|TX|78580|26.4814565|-97.783051|1335|1431|1479|120|0|0|0|0|0|0|0|0|0|0|0|0|0|0|0|0|0|0|0|0|0|0|0|0|0
155|FLORENCE FED.CORR.INST.|Regional and Federal Facilities|FLORENCE|CO|81292|38.3902777|-105.1185988|0|1|1|1|7|17|25|29|30|35|39|40|36|30|31|23|4|0|0|0|0|0|0|0|0|0|0|0|0
6|OAKDALE FED.DET.CENTER|Regional and Federal Facilities|OAKDALE|LA|71463|30.8160276|-92.660421|556|430|548|629|570|640|502|523|649|677|613|579|517|567|527|588|452|361|240|97|0|0|0|0|0|0|0|0|0
38|PIEDMONT REG JAIL|Regional and Federal Facilities|FARMVILLE|VA|23901|37.3020965|-78.3919401|251|299|283|300|182|126|141|121|75|62|34|8|7|0|0|0|0|0|0|0|0|0|0|0|0|0|0|0|0
30|TENSAS PARISH DET. CNTR.|Emerald Correctional Management|WATERPROOF|LA|71357|31.8048847|-91.383449|286|346|420|433|380|375|120|123|17|0|0|0|5|18|0|0|0|0|0|0|0|0|0|0|0|0|0|0|0
48|TRI-COUNTY JAIL|County|ULIN|IL|62992|37.272781|-89.1515476|182|162|168|134|147|94|140|166|140|112|48|0|0|0|0|0|0|0|0|0|0|0|0|0|0|0|0|0|0
50|JENA/LASALLE DETENTION FACILITY|GEO Group, Inc|JENA|LA|71342|31.6832271|-92.1337448|950|525|0|0|0|0|0|0|0|0|0|0|0|0|0|0|0|0|0|0|0|0|0|0|0|0|0|0|0
51|CALHOUN CO., BATTLE CR,MI|County|BATTLE CREEK|MI|49036|41.9327779|-85.0649071|194|197|168|177|132|161|150|107|70|70|11|0|0|0|0|0|0|0|0|0|0|0|0|0|0|0|0|0|0
54|HAMPTON ROADS REGIONAL JAIL|County|PORTSMOUTH|VA|23701|36.8130915|-76.3695167|318|184|140|168|242|180|94|1|1|0|0|0|0|0|0|0|0|0|0|0|0|0|0|0|0|0|0|0|0
59|MCHENRY COUNTY SHERIFF'S|County|WOODSTOCK|IL|60098|42.3147436|-88.4487021|342|250|218|175|43|41|33|48|66|31|0|0|0|0|0|0|5|0|5|4|1|4|0|0|0|0|0|0|0
62|BAY COUNTY|County|PANAMA CITY|FL|32404|30.0066385|-85.4839604|0|0|0|0|10|124|149|166|162|133|141|142|127|41|0|0|0|0|0|0|0|0|0|0|0|0|0|0|0
69|PINE PRAIRIE CORRECTIONAL CENTER|County|PINE PRAIRIE|LA|70576|30.7806975|-92.4227241|0|0|428|142|74|89|94|111|99|33|0|0|0|0|0|0|0|0|0|0|0|0|0|0|0|0|0|0|0
71|SOUTHWEST KEY JUVENILE SH|ORR|PHOENIX|AZ|85017|33.5035124|-112.1251372|110|105|116|137|125|91|73|52|45|47|48|47|41|20|1|1|1|0|0|0|0|0|0|0|0|0|0|0|0
83|DENTON COUNTY JAIL|County|DENTON|TX|76205|33.1955954|-97.1197867|0|0|0|0|0|0|53|154|158|108|120|184|106|0|0|0|0|0|0|0|0|0|0|0|0|0|0|0|0
85|SHERBURNE COUNTY JAIL|County|ELK RIVER|MN|55330|45.3172222|-93.5811111|139|136|154|99|49|66|89|61|50|13|7|0|0|0|0|0|0|0|0|0|0|0|0|0|0|0|0|0|0
86|BERNALILLO COUNTY DET CTR|Cornell|ALBUQUERQUE|NM|87102|35.0848894|-106.6468148|0|0|514|332|6|0|0|0|0|0|0|0|0|0|0|0|0|0|0|0|0|0|0|0|0|0|0|0|0
90|SANTA ANA COUNTY JAIL|County|SANTA ANA|CA|92703|33.7526686|-117.9190418|132|92|51|35|54|109|105|57|47|33|3|70|19|0|0|0|0|0|0|0|0|0|0|0|0|0|0|0|0
91|SANTA CLARA CO MAIN JAIL|County|SAN JOSE|CA|95110|37.354611|-121.918866|167|187|214|111|77|34|2|0|0|0|1|0|0|0|0|0|0|0|0|0|0|0|0|0|0|0|0|0|0
92|GLADES COUNTY DETENTION CENTER|County|MOORE HAVEN|FL|33471|26.8331174|-81.0931234|379|355|58|0|0|0|0|0|0|0|0|0|0|0|0|0|0|0|0|0|0|0|0|0|0|0|0|0|0
93|WAKULLA COUNTY JAIL|County|CRAWFORDVILLE|FL|32327|30.174391|-84.3121264|124|113|120|142|111|61|20|8|33|42|18|0|0|0|0|0|0|0|0|0|0|0|0|0|0|0|0|0|0
95|MECKLENBURG (NC) CO JAIL|County|CHARLOTTE|NC|28202|35.2326781|-80.8460822|108|121|133|56|42|56|78|65|55|20|11|12|5|4|2|2|1|3|1|3|3|2|0|0|0|0|0|0|0
96|JUVENILE FACILITY, CHI|ORR|CHICAGO|IL|60626|42.0101318|-87.6729074|56|72|84|49|58|55|52|43|50|60|61|56|39|18|0|0|0|0|0|0|0|0|0|0|0|0|0|0|0
99|TANGIPAHOA PARISH JAIL|County|AMITE|LA|70422|30.720978|-90.50858|0|0|0|0|0|35|40|71|80|53|54|55|58|48|47|32|14|26|42|41|35|3|0|0|0|0|0|0|0
100|KENOSHA COUNTY JAIL|County|KENOSHA|WI|53144|42.5847425|-87.8211854|160|136|105|96|98|106|26|2|0|0|0|0|0|0|0|0|0|0|0|0|0|0|0|0|0|0|0|0|0
84|LAS VEGAS CITY JAIL|City or Municipality|LAS VEGAS|NV|89101|36.1697096|-115.1236952|0|0|0|0|15|138|135|130|161|162|114|15|0|0|1|3|2|7|0|0|0|0|0|0|0|0|0|0|0
88|DEPARTMENT OF CORRECTIONS|City or Municipality|AGANA|GU|96910|13.47617|144.751511|33|33|21|20|15|23|28|64|101|270|221|2|0|0|0|0|0|0|0|0|0|0|0|0|0|0|0|0|0
70|OTERO COUNTY PROCESSING CENTER|Management and Training Corporation|CHAPARRAL|NM|88081|32.0391667|-106.4297222|860|206|0|0|0|0|0|0|0|0|0|0|0|0|0|0|0|0|0|0|0|0|0|0|0|0|0|0|0
53|LOMPOC USP|Regional and Federal Facilities|LOMPOC|CA|93436|34.6391501|-120.4579409|0|0|0|0|0|2|5|6|8|11|18|33|41|48|63|83|129|170|172|180|120|118|94|26|11|5|3|2|1
56|OAKDALE FED.CORR.INST.|Regional and Federal Facilities|OAKDALE|LA|71463|30.8160276|-92.660421|0|0|0|0|0|0|0|0|0|0|0|0|0|0|0|227|343|267|216|183|62|0|0|0|0|0|0|0|0
61|TERRE HAUTE USP|Regional and Federal Facilities|TERRE HAUTE|IN|47808|39.47|-87.41|2|2|2|4|8|55|186|203|130|59|24|32|19|7|8|13|28|36|31|52|106|103|78|20|12|8|7|5|4
144|HERNANDO COUNTY JAIL|Corrections Corporation of America|BROOKSVILLS|FL|34609|28.4784286|-82.5077593|227|86|0|0|0|0|0|0|15|25|23|4|0|0|0|0|0|0|0|0|0|0|0|0|0|0|0|0|0
101|SOUTHWEST KEY PROG. (JUV)|ORR|CANUTILLO|TX|79835|31.9114925|-106.6002687|78|59|86|85|79|59|41|34|35|38|44|47|25|10|0|0|0|0|0|0|0|0|0|0|0|0|0|0|0
123|OAKLAND CITY JAIL|City or Municipality|OAKLAND|CA|94607|37.8091431|-122.2909078|0|0|0|0|36|40|43|28|35|36|51|68|80|26|6|4|20|35|2|3|0|0|0|0|0|0|0|0|0
64|DEKALB CO JAIL|County|DECATUR|GA|30032|33.7414395|-84.2594861|0|0|0|0|0|0|0|0|426|501|154|101|1|0|0|0|0|0|0|0|0|0|0|0|0|0|0|1|0
109|ABBCRS-RED CRS AGR.||BROWNSVILLE|TX||25.9017472|-97.4974838|0|0|0|0|0|0|0|0|0|0|0|0|0|0|0|0|0|0|0|161|410|1|0|0|0|0|0|0|0
110|CALCASIEU PARISH PRISON|County|LAKE CHARLES|LA|70601|30.2237109|-93.2080991|0|8|32|14|27|50|32|46|35|50|194|79|0|0|0|0|0|0|0|0|0|0|0|0|0|0|0|0|0
111|WORCESTER CO. JAIL|County|SNOW HILL|MD|21863|38.1770634|-75.3926959|65|58|56|62|58|62|62|55|51|35|0|0|0|0|0|0|0|0|0|0|0|0|0|0|0|0|0|0|0
114|WESTERN TENNESSEE DET. FAC.|State|MASON|TN|38049|35.4117501|-89.5328538|14|23|49|93|38|54|75|87|65|32|9|11|7|0|0|0|0|0|0|0|0|0|0|0|0|0|0|0|0
117|LACKAWANA CNTY JAIL, PA|County|SCRANTON|PA|18503|41.4108493|-75.6659016|112|143|134|36|0|25|39|27|26|6|0|0|0|0|0|0|0|0|0|0|0|0|0|0|0|0|0|0|0
118|SENECA COUNTY JAIL|County|TIFFIN|OH|44883|41.1144992|-83.1779746|109|108|99|57|43|61|28|30|4|0|0|0|2|2|0|0|0|0|0|0|0|0|0|0|0|0|0|0|0
125|BERKS COUNTY FAMILY SHELTER|County|LEESPORT|PA|19533|40.4470377|-75.9663221|79|77|77|73|62|45|32|35|19|0|0|0|0|0|0|0|0|0|0|0|0|0|0|0|0|0|0|0|0
127|DORCHESTER CO DET CNTR|County|CAMBRIDGE|MD|21613|38.5631744|-76.0788292|32|32|58|55|50|54|65|37|29|32|34|15|3|2|0|0|0|0|0|0|0|0|0|0|0|0|0|0|0
128|COLQUITT COUNTY JAIL|County|MOULTRIE|GA|31776|31.18|-83.78|1|0|5|21|39|108|137|112|17|0|23|22|2|0|0|0|0|0|0|0|0|0|0|0|0|0|0|0|0
129|CATHOLIC CHARITIES (HOU)|ORR|HOUSTON|TX|77006|29.7431508|-95.38872|75|78|68|44|29|18|14|13|12|13|15|17|13|10|9|14|12|8|6|7|0|0|0|0|0|0|0|0|0
130|JEFFERSON COUNTY JAIL|County|WAURIKA|OK|73573|34.1670371|-97.997536|0|0|0|0|0|6|100|122|92|82|58|0|0|0|0|0|0|0|0|0|0|0|0|0|0|0|0|0|0
132|CLINTON COUNTY CORR. FAC.|County|MCELHATTAN|PA|17748|41.127897|-77.3611549|144|124|71|51|28|29|1|1|0|0|0|0|0|0|0|0|0|0|0|0|0|0|0|0|0|0|0|0|0
134|BOYSTOWN|ORR|MIAMI|FL|33186|25.6653934|-80.3992652|44|36|47|38|39|38|29|23|26|24|14|11|8|7|7|10|4|2|3|5|7|4|1|0|0|0|0|0|0
138|HOWARD COUNTY DET CNTR|County|JESSUP|MD|20794|39.1492746|-76.7752493|35|36|34|31|29|32|35|37|20|24|20|20|21|30|0|0|0|0|0|0|0|0|0|0|0|0|0|0|0
140|COMAL CTY JAIL|County|NEW BRAUNFELS|TX|78130|29.7030024|-98.1244531|0|0|0|0|38|17|59|49|71|72|17|25|12|6|2|14|15|3|0|0|0|0|0|0|0|0|0|0|0
142|WAYNE COUNTY, DETROIT|County|DETROIT|MI|48221|42.4349152|-83.1541796|37|74|93|63|35|9|0|0|1|3|17|19|11|8|3|4|5|6|6|0|0|0|0|0|0|0|0|0|0
143|CARVER COUNTY JAIL|County|CHASKA|MN|55318|44.8211|-93.605138|40|38|26|1|13|41|25|47|40|35|34|25|18|2|0|0|0|0|0|0|0|0|0|0|0|0|0|0|0
126|OTERO COUNTY PRISON FACILITY|Management and Training Corporation|CHAPARRAL|NM|88081|32.0391667|-106.4297222|0|139|284|76|0|0|0|0|0|0|0|0|0|0|0|0|0|0|0|0|0|0|0|0|0|0|0|0|0
148|ST MARTIN PARISH CORR CNT|County|ST MARTINVILLE|LA|70582|30.125|-91.8305556|0|0|0|3|6|6|3|25|21|25|70|45|47|46|19|0|0|0|0|19|26|3|0|0|0|0|0|0|0
150|SND DISTRICT STAGING|Federal|SAN DIEGO|CA|92101|32.721742|-117.1647094|34|40|26|12|17|19|30|23|32|27|42|21|8|5|2|2|2|8|2|2|1|0|0|0|0|0|0|0|0
102|RIVERSIDE REG JAIL|Regional and Federal Facilities|HOPEWELL|VA|23860|37.3043154|-77.2872001|63|97|39|24|32|55|20|42|69|69|87|63|0|0|0|0|0|0|0|0|0|0|0|0|0|0|0|0|0
162|CITRUS COUNTY JAIL|Corrections Corporation of America|LECANTO|FL|34461|28.8516486|-82.4875981|0|20|16|25|0|0|64|79|71|29|7|1|11|10|0|0|0|0|0|0|0|0|0|0|0|0|0|0|0
152|GUADALUPE CTY JAIL|County|SEGUIN|TX|78155|29.5688411|-97.9647269|2|1|0|0|0|95|163|93|2|0|0|0|0|0|0|0|0|0|0|0|0|0|0|0|0|0|0|0|0
175|MANSFIELD L.E. CENTER|City or Municipality|MANSFIELD|TX|76063|32.5631924|-97.1416768|0|0|0|0|0|0|1|13|77|78|115|12|0|0|0|0|0|0|0|0|0|0|0|0|0|0|0|0|0
156|HARDIN CO JAIL|County|ELDORA|IA|50627|42.3602778|-93.1013889|69|57|63|56|49|34|7|7|4|2|0|0|0|0|0|0|0|0|0|0|0|0|0|0|0|0|0|0|0
159|DOUGLAS COUNTY CORRECTION|County|OMAHA|NE|68102|41.2661075|-95.9330455|133|134|45|0|0|0|6|5|7|5|5|1|0|0|0|0|0|0|0|0|0|0|0|0|0|0|0|0|0
160|LAFAYETTE PARISH CORR CNT|County|LAFAYETTE|LA|70502|30.24|-92.01|0|0|0|0|0|0|0|0|0|0|0|1|9|12|16|34|10|22|22|27|53|77|57|0|0|0|0|0|0
161|RAMSEY ADC ANNEX, SPM|County|ST. PAUL|MN|55102|44.9343827|-93.1127413|71|66|38|72|61|32|0|0|0|0|0|0|0|0|0|0|0|0|0|0|0|0|0|0|0|0|0|0|0
172|MONTGOMERY COUNTY JAIL|County|MONTGOMERY CITY|MO|63361|38.9775406|-91.5048844|43|36|32|33|39|29|21|12|14|14|27|8|0|0|0|0|0|0|0|0|0|0|0|0|0|0|0|0|0
174|UTAH COUNTY JAIL|County|SPANISH FORK|UT|84660|40.114955|-111.654923|85|70|39|26|14|25|20|12|6|0|3|2|0|0|0|0|0|0|0|0|0|0|0|0|0|0|0|0|0
179|WEBER COUNTY JAIL|County|OGDEN|UT|84401|41.223|-111.9738304|84|77|42|22|14|16|17|12|3|0|0|0|0|0|0|0|0|0|0|0|0|0|0|0|0|0|0|0|0
180|SOUTHWEST INITIATIVES GROUP, LLC|ORR|NIXON|TX|78140|29.267464|-97.7644429|0|3|49|103|72|45|10|0|0|0|0|0|0|0|0|0|0|0|0|0|0|0|0|0|0|0|0|0|0
181|LEHIGH COUNTY JAIL, PA|County|ALLENTOWN|PA|18102|40.6073818|-75.4781662|0|0|0|0|0|3|2|7|2|31|37|77|20|51|8|24|15|0|0|0|0|2|2|0|0|0|0|0|0
184|ARLINGTON CO JAIL|County|ARLINGTON|VA|22203|38.8716687|-77.1168753|10|57|42|27|18|28|24|24|29|8|2|7|5|1|0|0|0|0|0|0|0|0|0|0|0|0|0|0|0
185|VERMILLION PARISH JAIL||ABBEVILLE|LA||29.9746502|-92.1342921|0|0|0|0|0|0|0|9|13|18|22|24|23|26|18|11|16|20|20|22|22|13|0|0|0|0|0|0|0
192|MINN.C.F., STILLWATER||STILLWATER|MN||45.0565|-92.822175|0|0|0|0|0|0|0|0|0|0|0|0|0|0|0|0|0|0|0|0|66|90|42|23|13|10|10|8|5
198|MORGAN COUNTY SHERIFF'S DEPT|County|VERSAILLES|MO|65048|38.4314141|-92.8410274|48|46|47|37|36|35|7|0|0|0|0|0|0|0|0|0|0|0|0|0|0|0|0|0|0|0|0|0|0
195|POLK COUNTY JAIL|County|DES MOINES|IA|50303|41.6|-93.61|40|38|21|19|16|13|25|37|20|19|8|2|0|0|0|0|0|0|0|0|0|0|0|0|0|0|0|0|0
196|CAMBRIA COUNTY JAIL, PA|County|EBENSBURG|PA|15931|40.4850717|-78.7247426|80|63|19|0|0|17|9|13|10|11|25|10|0|0|0|0|0|0|0|0|0|0|0|0|0|0|0|0|0
226|LA TUNA FCI||ANTHONY|TX||31.9992676|-106.6055478|0|0|0|0|0|0|0|0|0|0|0|0|0|0|0|1|2|3|3|6|19|111|43|8|1|0|0|0|0
199|CALDWELL COUNTY JAIL|County|KINGSTON|MO|64650|39.6441742|-94.0385517|52|50|50|50|45|5|0|0|0|0|0|0|0|0|0|0|0|0|0|0|0|0|0|0|0|0|0|0|0
200|COLUMBIA CARE CENTER|Hospital|COLUMBIA|SC|29203|34.1156043|-81.0533854|27|28|0|2|5|21|25|43|42|45|13|0|0|0|0|0|0|0|0|0|0|0|0|0|0|0|0|0|0
201|TARRANT COUNTY JAIL|County|FT. WORTH|TX|76196|32.7299999|-97.3199999|0|0|0|0|0|0|0|0|24|25|62|80|40|19|0|0|0|0|0|0|0|0|0|0|0|0|0|0|0
202|BEAUREGARD PARISH JAIL|County|DE RIDDER|LA|70634|30.8463055|-93.2890527|0|0|0|0|0|0|1|7|29|35|44|42|37|6|0|0|0|0|0|9|22|13|0|0|0|0|0|0|0
154|TEXARKANA FED.CORR.INST.|Regional and Federal Facilities|TEXARKANA|TX|75505|33.43|-94.05|0|0|0|0|2|6|6|5|5|3|3|6|7|8|9|12|37|54|57|57|42|18|10|2|2|0|0|1|0
204|LIMESTONE DET CENTER|Community Education Centers|GROESBECK|TX|76642|31.5243379|-96.5338693|4|9|52|0|100|6|0|0|0|0|0|0|0|0|0|0|10|66|0|0|0|0|0|0|0|0|0|0|0
203|DULUTH FED.PRISON CAMP||DULUTH|MN||46.7866719|-92.1004852|0|0|0|0|0|0|0|0|0|1|1|1|1|1|1|1|1|1|1|1|2|77|70|66|18|1|1|0|0
243|FRIO COUNTY JAIL|GEO Group, Inc|PEARSALL|TX|78061|28.8921939|-99.095033|0|3|3|30|70|26|33|0|0|2|4|0|0|0|0|0|0|0|0|0|0|0|0|0|0|0|0|0|0
205|DESCANSO DETENTION FAC.||ALPINE|CA||32.8350521|-116.7664109|0|0|0|0|0|0|0|0|10|40|54|39|7|0|0|25|48|23|0|0|0|0|0|0|0|0|0|0|0
207|NORTHERN OREGON CORR.FAC.|County|THE DALLES|OR|97058|45.5945645|-121.1786823|10|9|2|4|2|58|56|36|24|31|1|1|1|1|1|1|1|1|1|1|1|1|0|0|0|0|0|0|0
212|MULTNOMAH COUNTY JAIL||PORTLAND|OR||45.5234515|-122.6762071|0|0|0|0|0|0|0|0|0|9|49|77|54|8|3|2|5|14|7|1|1|1|1|1|1|1|0|0|0
213|NAVARRO CO JUSTICE CTR||CORSICANA|TX||32.0954304|-96.4688727|0|0|0|0|0|0|0|12|88|67|28|28|0|0|0|0|0|0|8|4|0|0|0|0|0|0|0|0|0
215|GRAYSON COUNTY JAIL||SHERMAN|TX||33.6356618|-96.6088805|0|0|0|0|0|0|0|11|79|64|73|0|0|0|0|0|0|0|0|0|0|0|0|0|0|0|0|0|0
217|BERKS CO. JUVI|County|LEESPORT|PA|19533|40.4470377|-75.9663221|0|0|0|0|0|7|30|32|34|42|36|13|11|15|2|0|0|0|0|0|0|0|0|0|0|0|0|0|0
218|TULSA COUNTY JAIL|County|TULSA|OK|74103|36.1592882|-95.9964783|153|67|0|0|0|0|0|0|0|0|0|0|0|0|0|0|0|0|0|0|0|0|0|0|0|0|0|0|0
219|PARK COUNTY JAIL|County|FAIRPLAY|CO|80440|39.2247125|-106.0019618|127|63|15|11|1|0|0|0|0|0|0|0|0|0|0|0|0|0|0|0|0|0|0|0|0|0|0|0|0
223|YAMHILL COUNTY CORRECTION|County|MCMINNVILLE|OR|97128|45.2101162|-123.1987163|0|0|0|0|0|16|30|26|25|39|27|21|1|0|0|2|4|11|2|0|0|0|0|0|0|0|0|0|0
194|SHERIDAN FED.CORR.INST.||SHERIDAN|OR||45.0992814|-123.3948291|0|0|0|0|0|0|2|6|14|21|27|40|42|34|27|18|11|11|6|0|0|0|0|0|0|0|0|0|0
231|PHOENIX DIST OFFICE|Federal|PHOENIX|AZ|85004|33.4528292|-112.0685027|70|84|0|0|0|0|0|0|5|10|15|9|0|0|0|0|0|0|0|0|0|0|0|0|0|0|0|0|0
232|YAKIMA COUNTY|County|YAKIMA|WA|98901|46.6020711|-120.5058987|20|12|0|0|2|22|18|8|19|21|9|30|26|3|0|0|0|0|0|0|0|0|0|0|0|0|0|0|0
236|PAULDING CO GEORGIA||DALLAS|GA||33.9237141|-84.8407732|0|0|0|0|0|0|12|48|26|37|35|10|1|0|0|0|0|4|6|0|0|0|0|0|0|0|0|0|0
238|CARROLL COUNTY DETENTION CENTER|County|WESTMINISTER|MD|21157|39.5753791|-76.9958149|3|7|8|7|8|17|15|45|50|18|0|0|0|0|0|0|0|0|0|0|0|0|0|0|0|0|0|0|0
239|TEHAMA COUNTY JAIL|County|RED BLUFF|CA|96080|40.1784886|-122.2358302|0|0|0|0|0|0|0|0|0|28|56|66|27|0|0|0|0|0|0|0|0|0|0|0|0|0|0|0|0
240|CLINTON COUNTY JAIL|County|PLATTSBURGH|NY|12901|44.6994873|-73.4529124|15|31|21|6|2|0|3|3|2|2|2|8|11|11|7|12|6|11|9|9|7|0|0|0|0|0|0|0|0
241|SARASOTA COUNTY JAIL|County|SARASOTA|FL|34237|27.3430762|-82.5131717|0|0|0|0|13|83|31|12|13|4|1|0|14|5|0|0|0|0|0|0|0|0|0|0|0|0|0|0|0
247|CHASE COUNTY JAIL|County|COTTONWOOD FALLS|KS|66845|38.3722364|-96.5427845|41|45|25|11|4|9|12|3|8|10|2|0|0|0|0|0|0|0|0|0|0|0|0|0|0|0|0|0|0
248|PLAQUEMINES PARISH DET. CENTER|County|BRAITHWAITHE|LA|70040|29.765765|-89.9813445|0|0|0|0|97|57|0|18|0|0|0|0|0|0|0|0|0|0|0|0|0|0|0|0|0|0|0|0|0
249|COLUMBIA COUNTY JAIL|County|ST. HELENS|OR|97051|45.8594444|-122.8169444|12|24|22|5|4|24|33|30|15|0|0|0|0|0|0|0|0|1|0|0|0|0|0|0|0|0|0|0|0
250|SOUTHWEST YOUTH VILLAGE|ORR|VINCENNES|IN|47591|38.677269|-87.5286325|28|23|49|32|36|1|0|0|0|0|0|0|0|0|0|0|0|0|0|0|0|0|0|0|0|0|0|0|0
187|SANTA ANA CITY JAIL|City or Municipality|SANTA ANA|CA|92701|33.7463915|-117.8604472|43|40|72|4|0|6|0|24|68|2|2|7|5|0|0|0|0|0|0|0|0|0|0|0|0|0|0|0|0
209|PHOENIX FED.CORR.INST.|Regional and Federal Facilities|PHOENIX|AZ|85027|33.6824366|-112.1072528|0|0|0|0|0|4|6|2|2|1|0|0|6|9|11|19|29|37|38|35|22|9|6|1|2|1|1|1|0
264|EULESS CITY JAIL|City or Municipality|EULESS|TX|76039|32.8620042|-97.0767365|21|19|7|6|5|11|14|11|5|4|3|4|8|6|4|2|5|8|10|1|1|0|0|0|0|0|0|0|0
251|BEXAR COUNTY JAIL|County|SAN ANTONIO|TX|78207|29.4174949|-98.5226706|0|0|4|2|2|5|24|46|37|24|9|4|2|1|1|1|1|1|1|1|1|1|1|1|1|0|0|0|0
291|BEDFORD CITY JAIL|City or Municipality|BEDFORD|TX|76021|32.8477269|-97.1305536|25|26|12|3|1|2|6|8|30|11|2|0|0|0|0|0|0|0|0|0|0|0|0|0|0|0|0|0|0
267|PRINCE WILLIAM|Regional and Federal Facilities|MANASSAS|VA|20110|38.7509488|-77.4752667|0|0|0|2|1|0|1|3|4|5|7|13|27|26|17|18|24|6|0|0|0|0|0|0|0|0|0|0|0
281|BEAUMONT FEDERAL PRISON|Regional and Federal Facilities|BEAUMONT|TX|77720|30.04|-94.16|0|0|1|1|4|11|17|25|30|21|14|8|3|1|0|0|0|0|0|0|0|0|0|0|0|0|0|0|0
253|CHARLESTON COUNTY CORRECT|County|NORTH CHARLESTON|SC|29405|32.8669545|-79.9752212|1|5|34|31|11|12|32|25|7|4|3|2|0|0|0|0|0|0|0|0|0|0|0|0|0|0|0|0|0
254|ALAMANCE CO. DET. FACILITY|County|GRAHAM|NC|27253|36.0690258|-79.4005756|64|74|29|0|0|0|0|0|0|0|0|0|0|0|0|0|0|0|0|0|0|0|0|0|0|0|0|0|0
258|ORANGE COUNTY JAIL|County|ORLANDO|FL|32802|28.55|-81.38|3|4|9|30|10|41|25|15|5|3|4|5|7|3|0|0|0|0|0|0|0|0|0|0|0|0|0|0|0
261|CORPUS CHRISTI FACILITY|ORR|CORPUS CHRISTI|TX|78412|27.700785|-97.3462545|30|49|61|20|0|0|0|0|0|0|0|0|0|0|0|0|0|0|0|0|0|0|0|0|0|0|0|0|0
262|CHIPPEWA CO., SSM|County|SAULT STE MARIE|MI|49783|46.4952996|-84.3453169|25|31|22|28|24|20|7|0|0|0|0|0|0|0|0|0|0|0|0|0|0|0|0|0|0|0|0|0|0
263|IMPERIAL COUNTY JAIL|County|EL CENTRO|CA|92243|32.792|-115.5630514|0|0|0|1|0|0|0|0|27|29|31|39|31|0|0|0|0|0|0|0|0|0|0|0|0|0|0|0|0
265|ST. MARY'S CO DET CNTR|County|LEONARDTOWN|MD|20650|38.291238|-76.6357942|2|13|3|5|15|31|31|9|7|19|17|5|0|0|0|0|0|0|0|0|0|0|0|0|0|0|0|0|0
266|SOUTHWEST KEYS JUV. FAC.|ORR|EL CAJON|CA|92021|32.7947731|-116.9625269|14|12|23|16|14|14|13|11|12|12|12|2|0|0|0|0|0|0|0|0|0|0|0|0|0|0|0|0|0
246|CATAHOULA CORRECTIONAL CENTER|County|HARRISONBURG|LA|71430|31.7721106|-91.8215177|0|0|0|0|3|25|29|51|44|20|0|0|0|0|0|0|0|0|0|0|0|0|0|0|0|0|0|0|0
275|COMFORT SUITES HOTEL|Hotel|MIAMI|FL|33175|25.7357116|-80.3992652|0|0|1|3|0|6|53|51|33|0|0|0|0|0|0|0|0|0|0|0|0|0|0|0|0|0|0|0|0
276|BOONE COUNTY JAIL|County|BURLINGTON|KY|41005|39.02756|-84.7241133|49|31|47|3|0|2|3|6|0|2|2|1|0|0|0|0|0|0|0|0|0|0|0|0|0|0|0|0|0
278|CARBON COUNTY CORRECTIONL|County|NESQUEHONING|PA|18240|40.864534|-75.8110277|0|0|0|0|0|16|20|21|26|28|22|9|0|0|0|0|0|0|0|0|0|0|0|0|0|0|0|0|0
279|HARRISON DETENTION CENTER||GULFPORT|MS||30.3674198|-89.0928155|0|0|0|0|0|0|0|0|0|0|0|0|0|0|0|0|0|0|0|28|43|44|27|0|0|0|0|0|0
282|EL PASO COUNTY JAIL (CO)|County|COLORADO SPRINGS|CO|80903|38.8311113|-104.8162784|108|21|5|1|0|0|0|0|0|0|0|0|0|0|0|0|0|0|0|0|0|0|0|0|0|0|0|0|0
285|WALKER COUNTY JAIL||HUNTSVILLE|TX||30.7235263|-95.5507771|0|0|0|0|0|0|0|2|18|22|26|34|28|4|0|0|0|0|0|0|0|0|0|0|0|0|0|0|0
287|WASHOE COUNTY JAIL|County|RENO|NV|89506|39.6837974|-119.8583772|17|13|9|9|11|9|8|8|8|10|8|7|6|4|3|1|0|0|0|0|0|0|0|0|0|0|0|0|0
289|ERIE CO HOLDING CENTER|County|BUFFALO|NY|14202|42.8897812|-78.8764795|0|7|7|3|1|5|8|1|0|1|1|5|8|8|7|4|4|3|10|20|17|8|0|0|0|0|0|0|0
292|RACINE COUNTY JAIL|County|RACINE|WI|53403|42.691648|-87.8107561|0|0|0|0|0|0|0|12|37|24|25|27|2|0|0|0|0|0|0|0|0|0|0|0|0|0|0|0|0
294|HARRIS COUNTY JAIL|County|HAMILTON|GA|31811|32.7579106|-84.8749311|0|0|2|15|12|19|33|40|6|0|0|0|0|0|0|0|0|0|0|0|0|0|0|0|0|0|0|0|0
295|CHRISTIAN CO SHERIFF DEPT|County|OZARK|MO|65721|37.0208865|-93.2060163|27|27|21|24|17|8|0|0|0|0|0|0|0|0|0|0|0|0|0|0|0|0|0|0|0|0|0|0|0
298|MADISON COUNTY JAIL|County|MADISON|NE|68748|41.8275|-97.4569444|0|0|0|0|1|4|4|16|22|30|26|12|5|0|0|0|0|0|0|0|0|0|0|0|0|0|0|0|0
308|CSC SO.FULTON MUNIC.JAIL|City or Municipality|UNION CITY|GA|30291|33.5812127|-84.5379455|0|0|1|0|0|0|0|0|2|71|35|0|0|0|0|0|0|0|0|0|0|0|0|0|0|0|0|0|0
300|LOS ANGELES COUNTY JAIL|County|LOS ANGELES|CA|90012|34.0649594|-118.2351192|0|0|0|0|0|0|0|0|0|0|5|0|0|0|0|1|6|8|4|90|0|0|0|0|0|0|1|1|0
269|TUCSON FED.CORR.INST.|Regional and Federal Facilities|TUCSON|AZ|85706|32.1482822|-110.9327809|0|0|0|0|1|4|4|6|5|2|3|4|5|7|7|5|7|19|27|30|13|0|0|0|0|0|0|0|0
301|TWIN FALLS COUNTY JAIL|County|TWIN FALLS|ID|83303|42.56|-114.46|10|12|13|11|11|10|12|12|12|10|1|0|0|0|0|0|0|0|0|0|0|0|0|0|0|0|0|0|0
302|PIONEER HUMAN SERVICES|ORR|FIFE|WA|98424|47.2392665|-122.3570664|19|32|29|14|9|11|0|0|0|0|0|0|0|0|0|0|0|0|0|0|0|0|0|0|0|0|0|0|0
306|WHARTON COUNTY JAIL||WHARTON|TX||29.3116366|-96.1027371|0|0|0|0|0|0|0|2|10|18|14|42|13|0|0|0|0|0|4|5|0|0|0|0|0|0|0|0|0
312|BUTLER COUNTY JAIL|County|EL DORADO|KS|67042|37.81724|-96.8622524|0|7|13|19|29|29|6|0|0|0|0|0|0|0|0|0|0|0|0|0|0|0|0|0|0|0|0|0|0
315|CHILDREN'S CENTER INC.|ORR|GALVESTON|TX|77550|29.3262702|-94.795053|15|31|33|19|2|0|0|0|0|0|0|0|0|0|0|0|0|0|0|0|0|0|0|0|0|0|0|0|0
317|PLATTE COUNTY JAIL|County|PLATTE CITY|MO|64079|39.3702773|-94.7824609|3|2|3|1|2|9|16|18|18|20|7|0|0|0|0|0|0|0|0|0|0|0|0|0|0|0|0|0|0
318|VILLE PLATTE P.D., VILLE PLATTE, L||VILLE PLATTE|LA||30.6879749|-92.2715157|0|0|0|0|0|0|0|0|0|0|0|0|0|0|0|0|0|6|4|23|32|27|6|0|0|0|0|0|0
319|LIBERTY COUNTY JAIL||LIBERTY|TX||30.057993|-94.7954783|0|0|0|0|0|0|0|0|0|0|1|24|48|5|10|5|3|2|0|0|0|0|0|0|0|0|0|0|0
320|ZAVALA COUNTY JAIL||CRYSTAL CITY|TX||28.6774795|-99.8281104|0|0|0|0|0|0|9|0|0|0|2|4|8|3|3|13|40|14|0|0|0|0|0|0|0|0|0|0|0
322|DAVIDSON CO. SHERIFF DEPT|County|NASHVILLE|TN|37201|36.1697763|-86.7805961|37|56|0|0|0|0|0|0|0|0|0|0|0|0|0|0|0|0|0|0|0|0|0|0|0|0|0|0|0
324|GRAND FORKS COUNTY CORREC|County|GRAND FORKS|ND|58206|47.93|-97.03|40|22|5|1|0|0|0|0|0|0|3|0|0|0|0|0|0|7|7|6|2|0|0|0|0|0|0|0|0
325|CASS COUNTY JAIL|County|PLATTSMOUTH|NE|68048|41.0079|-95.897141|22|17|19|6|0|5|13|6|0|2|2|0|0|0|0|0|0|0|0|0|0|0|0|0|0|0|0|0|0
326|LINCOLN COUNTY SHERIFF'S|County|TROY|MO|63379|38.9794922|-90.9806954|0|14|16|8|15|11|9|10|5|2|0|0|0|0|0|0|0|0|0|0|0|0|0|0|0|0|0|0|0
327|WILLIAMSON COUNTY JAIL|County|FRANKLIN|TN|37064|35.9250637|-86.8688899|0|3|7|10|13|14|16|13|11|4|0|0|0|0|0|0|0|0|0|0|0|0|0|0|0|0|0|0|0
316|ALBANY COUNTY JAIL|County|ALBANY|NY|11211|42.6525793|-73.7562317|11|8|14|7|8|5|6|3|2|0|0|5|8|4|2|8|3|2|0|2|0|0|0|0|0|0|0|0|0
333|CANADIAN COUNTY, EL RENO,|County|EL RENO|OK|73036|35.5322741|-97.9550493|0|0|2|1|1|4|9|15|17|18|3|6|0|11|1|0|0|0|0|0|0|0|0|0|0|0|0|0|0
335|VENTURA CUSTODY CASE|Federal|CAMARRILLO|CA|93010|34.2163937|-119.0376023|19|11|10|10|13|10|9|5|0|0|0|0|0|0|0|0|0|0|0|0|0|0|0|0|0|0|0|0|0
336|SUMMIT COUNTY JAIL|County|COALVILLE|UT|84017|40.9177251|-111.3993634|3|9|10|10|13|9|11|8|3|5|6|0|0|0|0|0|0|0|0|0|0|0|0|0|0|0|0|0|0
338|GRAYSON COUNTY JAIL, KY|County|LEITCHFIELD|KY|42754|37.4800544|-86.2938637|2|10|19|12|8|7|17|9|2|0|0|0|0|0|0|0|0|0|0|0|0|0|0|0|0|0|0|0|0
339|OPEN ARMS INTERNATIONAL|ORR|MAIMI|FL|33173|25.7038331|-80.360297|30|23|22|9|0|0|0|0|0|0|0|0|0|0|0|0|0|0|0|0|0|0|0|0|0|0|0|0|0
341|MAVERICK COUNTY JAIL|County|EAGLE PASS|TX|78852|28.7091433|-100.4995214|0|0|0|0|0|0|0|0|0|0|0|0|0|0|18|29|25|13|0|0|0|0|0|0|0|0|0|0|0
342|SOUTHWEST KEY JUV -SANJOSE|ORR|SAN JOSE|CA|95118|37.2589827|-121.8847222|21|20|12|15|9|0|0|0|0|1|6|0|0|0|0|0|0|0|0|0|0|0|0|0|0|0|0|0|0
343|VICTORIA COUNTY JAIL||VICTORIA|TX||28.8052674|-97.0035982|0|0|0|0|0|0|0|0|2|7|14|23|17|14|5|0|0|0|0|0|0|0|0|0|0|0|0|0|0
344|WALWORTH COUNTY JAIL||ELKHORN|WI||42.6727927|-88.5445447|0|0|0|0|0|0|3|8|13|21|31|0|2|0|0|0|1|2|0|0|0|0|0|0|0|0|0|0|0
340|CHICAGO MCC|Regional and Federal Facilities|CHICAGO|IL|60605|41.8703314|-87.6235742|0|0|0|0|0|0|0|0|0|0|0|0|0|0|0|0|0|1|6|28|25|14|7|3|0|0|0|0|0
331|DEVENS FMC|Regional and Federal Facilities|AYER|MA|01432|42.5612021|-71.5897897|0|0|1|5|11|13|14|15|12|12|5|1|0|0|0|0|0|0|0|0|0|0|0|0|0|0|0|0|0
346|CATHOLIC SOCIAL SERVICES|ORR|TACOMA|WA|98405|47.2457073|-122.4773432|9|11|9|6|6|6|1|0|0|0|0|2|5|6|13|7|0|0|0|0|0|0|0|0|0|0|0|0|0
349|SANTA CLARA COUNTY JAIL|County|SAN JOSE|CA|95110|37.354611|-121.918866|0|0|0|0|0|0|0|1|0|19|48|11|0|0|0|0|0|0|0|0|0|0|0|0|0|0|0|0|0
310|COLES COUNTY JAIL||CHARLESTON|IL||39.4961458|-88.1761521|0|0|0|0|0|0|2|20|11|25|37|12|0|0|0|0|0|0|0|0|0|0|0|0|0|0|0|0|0
355|JOSEPHINE CO. JAIL|County|GRANTS PASS|OR|97526|42.4390069|-123.3283925|6|7|7|7|4|18|12|9|6|0|0|0|0|0|0|0|0|0|0|0|0|0|0|0|0|0|0|0|0
356|TELLER COUNTY JAIL|County|DIVIDE|CO|80814|38.9255248|-105.1492869|52|24|0|0|0|0|0|0|0|0|0|0|0|0|0|0|0|0|0|0|0|0|0|0|0|0|0|0|0
358|SARPY COUNTY JAIL|County|PAPILLION|NE|68046|41.1544432|-96.0422378|0|0|0|0|0|0|2|6|9|10|12|9|11|3|2|2|2|3|2|0|0|0|0|0|0|0|0|0|0
359|FREDERICK COUNTY DET. CEN|County|FREDERICK|MD|21701|39.4142688|-77.4105409|30|36|8|0|0|0|0|0|0|0|0|0|0|0|0|0|0|0|0|0|0|0|0|0|0|0|0|0|0
360|WASHINGTON COUNTY JAIL|County|FAYETTEVILLE|AR|72701|36.0625795|-94.1574263|13|21|11|2|2|4|6|4|3|5|0|0|0|0|0|0|0|0|0|0|0|0|0|0|0|0|0|0|0
361|MADISON COUNTY JAIL|County|WAMPSVILLE|NY|13163|43.07937|-75.7124345|5|9|6|5|3|3|5|7|2|3|3|7|9|1|0|0|1|3|0|0|0|0|0|0|0|0|0|0|0
363|BLOUNT COUNTY JUSTICE CTR|County|MARYVILLE|TN|37801|35.7564719|-83.9704593|3|6|6|8|4|11|15|9|9|2|0|0|0|0|0|0|0|0|0|0|0|0|0|0|0|0|0|0|0
364|WEST BATON ROUGE DET CTR|County|PORT ALLEN|LA|70767|30.4521351|-91.2101081|5|4|5|4|0|2|0|2|13|17|15|4|0|0|0|0|0|0|0|0|0|0|0|0|0|0|0|0|0
365|LUTHERAN SOCIAL SEREVICES|ORR|EL PASO|TX|79925|31.7776561|-106.3640398|17|15|22|16|0|0|0|0|0|0|0|0|0|0|0|0|0|0|0|0|0|0|0|0|0|0|0|0|0
366|SOUTHWEST KEY PROG. (JUV)|ORR|EL PASO|TX|79901|31.7597373|-106.4788714|20|28|17|0|0|5|0|0|0|0|0|0|0|0|0|0|0|0|0|0|0|0|0|0|0|0|0|0|0
367|GLENN COUNTY JAIL|County|WILLOWS|CA|95988|39.5243265|-122.1935931|0|0|0|0|0|0|17|0|13|25|14|0|0|0|0|0|0|0|0|0|0|0|0|0|0|0|0|0|0
372|DEVEREAUX ARIAONA|ORR|SCOTTSDALE|AZ|85254|33.6071829|-111.9403254|20|18|19|11|0|0|0|0|0|0|0|0|0|0|0|0|0|0|0|0|0|0|0|0|0|0|0|0|0
373|FOREST PK CITY JAIL||FOREST PARK|GA||33.6220542|-84.3690918|0|0|0|0|0|0|0|0|0|0|0|0|46|11|7|2|1|0|0|0|0|0|0|0|0|0|0|0|0
374|WASHINGTON COUNTY JAIL|County|HURRICANE|UT|84737|37.1752607|-113.2899484|11|17|16|7|5|7|5|0|0|0|0|0|0|0|0|0|0|0|0|0|0|0|0|0|0|0|0|0|0
375|HAYS CTY JAIL|County|SAN MARCOS|TX|78666|29.8832749|-97.9413941|0|0|0|0|0|0|0|0|0|0|1|4|1|0|0|1|13|44|4|0|0|0|0|0|0|0|0|0|0
377|HAILE DET. CENTER|County|CALDWELL|ID|83605|43.6686454|-116.6462445|6|6|9|5|6|6|5|3|3|2|6|4|4|1|0|0|0|0|0|0|0|0|0|0|0|0|0|0|0
379|WASHINGTON CO JAIL, BLAIR||BLAIR|NE||41.539371|-96.138313|0|0|0|0|0|0|4|13|13|16|11|5|3|0|0|0|0|0|0|0|0|0|0|0|0|0|0|0|0
380|FT. GORDON ARMY BASE, FT. GORDON,||FT. GORDON|GA||33.420972|-82.1620645|0|0|0|0|0|0|0|0|0|0|0|0|0|0|0|0|0|0|0|0|0|26|36|1|0|0|0|0|0
383|CHILDREN'S VILLAGE|ORR|QUEENS|NY|11355|40.7472625|-73.8242621|23|18|11|3|6|0|0|0|0|0|0|0|0|0|0|0|0|0|0|0|0|0|0|0|0|0|0|0|0
384|CLARKE COUNTY JAIL|County|VANCOUVER|WA|98666|45.63|-122.67|0|0|0|0|0|0|0|0|0|0|4|7|9|8|6|6|8|8|5|0|0|0|0|0|0|0|0|0|0
385|DAYTON HUMAN REHAB||DAYTON|OH||39.7589478|-84.1916069|0|0|0|0|0|0|0|0|0|22|23|5|6|2|3|0|0|0|0|0|0|0|0|0|0|0|0|0|0
387|ROCKINGHAM CO. JAIL|County|HARRISONBURG|VA|22801|38.4495688|-78.8689155|0|16|8|3|4|5|2|5|0|0|0|0|5|0|2|1|0|0|1|7|0|0|0|0|0|0|0|0|0
389|PRAIRIE CORRECT. FACILITY||APPLETON|MN||45.1991667|-96.0244443|0|0|0|0|0|0|0|0|0|0|0|60|0|0|0|0|0|0|0|0|0|0|0|0|0|0|0|0|0
390|SEBASTIAN COUNTY DET CNT|County|FT. SMITH|AR|72901|35.359512|-94.4130648|8|11|6|3|5|7|8|2|3|2|2|2|0|0|0|0|0|0|0|0|0|0|0|0|0|0|0|0|0
415|MCCLENNAN COUNTY DETENTION CENTER|Community Education Centers|WACO|TX|76705|31.549333|-97.1466695|0|7|29|2|13|0|0|0|0|0|0|0|0|0|0|0|0|0|0|0|0|0|0|0|0|0|0|0|0
399|HOSANA GIRLS RANCH|City or Municipality|CASTRO VALLEY|CA|94552|37.6940973|-122.0863522|0|0|0|7|9|12|7|7|5|7|2|0|0|0|0|0|0|0|0|0|0|0|0|0|0|0|0|0|0
351|SANDSTONE FED.CORR.INST.|Regional and Federal Facilities|SANDSTONE|MN|55072|46.1310598|-92.8674231|0|0|0|0|3|4|0|0|1|2|2|2|0|1|1|1|1|5|5|9|12|15|10|3|1|0|0|0|0
855|BP CHULA VISTA, CA||CHULA VISTA|CA||32.6400541|-117.0841955|0|0|0|0|0|0|0|0|0|0|0|0|0|0|0|0|0|0|0|0|1|1|0|0|0|0|0|0|0
397|MARIN CO. JAIL||SAN RAFAEL|CA||37.9735346|-122.5310874|0|0|0|0|0|0|0|0|6|28|24|0|0|0|0|0|0|0|0|0|0|0|0|0|0|0|0|0|0
409|STRAFFORD CO. CORRECTION|County|DOVER|NH|03180|43.1978624|-70.8736698|27|24|2|0|0|0|0|0|0|0|0|0|0|0|0|0|0|0|0|0|0|0|0|0|0|0|0|0|0
401|JOHNSON COUNTY JAIL|County|CLEBURNE|TX|76031|32.3476438|-97.3866837|0|0|0|0|0|0|0|6|32|0|9|9|0|0|0|0|0|0|0|0|0|0|0|0|0|0|0|0|0
404|PORTLAND DISTRICT OFFICE|Federal|PORTLAND|OR|97209|45.5324887|-122.6864005|7|4|2|6|6|5|3|6|2|2|2|3|3|2|0|0|0|0|0|0|0|0|0|0|0|0|0|0|0
425|COMANCHE CO LAW ENFOR CTR||COMANCHE|TX||31.8973693|-98.6036581|0|0|0|0|0|0|0|0|0|0|0|0|0|0|0|0|0|13|22|11|0|0|0|0|0|0|0|0|0
406|ATLANTA DIST. HOLD RM|Federal|ATLANTA|GA|30303|33.755711|-84.3883717|28|16|2|0|3|5|1|0|0|0|0|0|0|0|0|0|0|0|0|0|0|0|0|0|0|0|0|0|0
407|CINC II||LAKE CHARLES|LA||30.2265949|-93.2173758|0|0|0|0|0|0|0|0|0|2|26|25|0|0|0|0|0|0|0|0|0|0|0|0|0|0|0|0|0
408|NOGALES PROCESSING CENTER|Federal|NOGALES|AZ|85621|31.3403775|-110.9342532|0|53|0|0|0|0|0|0|0|0|0|0|0|0|0|0|0|0|0|0|0|0|0|0|0|0|0|0|0
412|DANBURY FED.CORR.INST.||DANBURY|CT||41.394817|-73.4540111|0|0|0|0|0|0|0|0|0|0|0|0|2|4|4|0|0|0|5|11|13|9|5|0|0|0|0|0|0
413|MANATEE COUNTY DETENTION-ANNEX|County|PALMETTO|FL|34221|27.5214269|-82.5723193|0|0|0|0|0|0|0|0|0|0|0|0|14|38|0|0|0|0|0|0|0|0|0|0|0|0|0|0|0
414|SANTA ANA DRO HOLDROOM|Federal|SANTA ANA|CA|90701|33.8648303|-118.0800782|37|14|0|0|0|0|0|0|0|0|0|0|0|0|0|0|0|0|0|0|0|0|0|0|0|0|0|0|0
416|MINNEHAHA COUNTY JAIL|County|SIOUX FALLS|SD|57104|43.6032799|-96.7172907|13|9|11|6|4|2|0|0|0|1|1|2|1|0|0|0|0|0|0|0|0|0|0|0|0|0|0|0|0
417|MARTIN HALL JUVENILE|County|MEDICAL LAKE|WA|99022|47.5729426|-117.6821604|0|0|0|0|0|1|7|5|11|15|8|2|0|0|0|0|0|0|0|0|0|0|0|0|0|0|0|0|0
419|NORTH ROYALTON CITY JAIL||N. ROYALTON|OH||41.3136644|-81.7245739|0|0|0|0|0|0|3|10|11|11|7|8|0|0|0|0|0|0|0|0|0|0|0|0|0|0|0|0|0
420|ANGELINA COUNTY JAIL|County|LUFKIN|TX|75901|31.3382406|-94.729097|0|0|0|0|7|41|0|0|0|0|0|0|0|0|0|0|0|0|0|0|0|0|0|0|0|0|0|0|0
421|WARREN COUNTY JUSTICE CTR|County|WARRENTON|MO|63383|38.811436|-91.1415375|0|0|0|0|0|0|4|9|12|13|8|3|0|0|0|0|0|0|0|0|0|0|0|0|0|0|0|0|0
422|CLINTON COUNTY JAIL||PLATTSBURG|MO||39.5655549|-94.4480059|0|0|0|0|0|0|0|0|0|1|4|6|8|5|4|4|4|5|4|0|0|0|0|0|0|0|0|0|0
423|WILSON COUNTY JAIL|County|FLORESVILLE|TX|78114|29.1335781|-98.1561192|0|0|0|0|0|0|0|0|5|24|15|1|0|0|0|0|0|0|0|0|0|0|0|0|0|0|0|0|0
424|FREMONT COUNTY JAIL, CO|County|CANON CITY|CO|81212|38.439949|-105.226097|6|20|1|0|0|0|0|0|0|5|11|2|0|0|0|0|0|0|0|0|0|0|0|0|0|0|0|0|0
428|DAWSON COUNTY JAIL|County|LEXINGTON|NE|68850|40.7750065|-99.7406712|0|0|0|0|0|0|7|16|15|3|0|0|4|0|0|0|0|0|0|0|0|0|0|0|0|0|0|0|0
429|SAN DIEGO COUNTY JUV.HALL|County|SAN DIEGO|CA|92123|32.7932147|-117.1382404|0|0|0|0|0|5|4|2|8|9|10|6|0|0|0|0|0|0|0|0|0|0|0|0|0|0|0|0|0
430|MACOMB CO.MT.CLEMENS,MI.|County|MT. CLEMENS|MI|48045|42.5972563|-82.8779754|4|4|5|8|6|4|0|0|0|0|0|5|3|1|0|0|0|0|2|0|0|0|0|0|0|0|0|0|0
431|BERKS COUNTY SECURED JUVENILE|County|LEESPORT|PA|19533|40.4470377|-75.9663221|6|8|10|4|3|3|3|4|2|0|0|0|0|0|0|0|0|0|0|0|0|0|0|0|0|0|0|0|0
398|MIAMI FCI (FORMER MCC)|Regional and Federal Facilities|MIAMI|FL|33178|25.8433674|-80.4326521|0|0|0|0|2|4|0|0|0|0|0|0|0|2|2|2|0|0|0|0|10|30|4|0|0|0|0|0|0
438|ANCHORAGE JAIL|City or Municipality|ANCHORAGE|AK|99501|61.2237855|-149.8702209|5|4|4|3|3|4|2|1|1|1|1|1|1|1|1|1|1|1|1|1|1|0|0|0|0|0|0|0|0
392|TRAVIS CTY JAIL|County|AUSTIN|TX|78701|30.2729209|-97.7443863|0|0|1|1|2|2|1|2|0|1|1|1|4|7|6|17|12|0|0|0|0|0|0|0|0|0|0|0|0
451|WASECA FED.CORR.INST.|Regional and Federal Facilities|WASECA|MN|56093|44.0777409|-93.5074426|0|0|0|0|3|10|10|4|4|3|1|0|0|0|0|0|0|0|0|0|0|0|0|0|0|0|0|0|0
440|WALKER COUNTY JAIL||LAFAYETTE|GA||34.7048022|-85.2818998|0|0|0|0|0|0|9|25|4|0|0|0|0|0|0|0|0|0|0|0|0|0|0|0|0|0|0|0|0
442|EASTLAKE JUVENILE HALL|County|LOS ANGELES|CA|90033|34.0484553|-118.2088013|0|0|0|0|0|0|9|7|6|3|0|0|0|0|0|0|5|0|0|7|0|0|0|0|0|0|0|0|0
443|TUMBLEWEED SHELTER|ORR|PHOENIX|AZ|85021|33.5612122|-112.1012912|9|9|9|6|4|0|0|0|0|0|0|0|0|0|0|0|0|0|0|0|0|0|0|0|0|0|0|0|0
444|WINN CORR INSTITUTE||WINNFIELD|LA||31.9254413|-92.6395931|0|0|0|0|0|0|0|0|0|0|0|0|0|0|0|0|0|4|9|11|9|5|0|0|0|0|0|0|0
446|MARION CO JAIL|County|SALEM|OR|97301|44.9464822|-123.0018941|0|0|0|0|0|0|0|0|0|0|2|7|6|2|2|2|3|9|5|0|0|0|0|0|0|0|0|0|0
447|OGLE COUNTY JAIL||OREGON|IL||42.0147513|-89.3323279|0|0|0|0|0|0|0|6|7|9|15|0|0|0|0|0|0|0|0|0|0|0|0|0|0|0|0|0|0
448|JOHNSTON COUNTY DETENTION CENTER|County|SMITHSFIELD|NC|27577|35.5084935|-78.3394455|0|0|4|11|10|5|5|2|0|0|0|0|0|0|0|0|0|0|0|0|0|0|0|0|0|0|0|0|0
449|SALINE COUNTY JAIL|County|SALINA|KS|67401|38.8402805|-97.6114237|0|0|0|0|0|0|6|9|6|7|5|2|1|0|0|0|0|0|0|0|0|0|0|0|0|0|0|0|0
450|DALLAS F.O. HOLD|Federal|DALLAS|TX|75247|32.8166692|-96.8833562|3|15|10|4|4|1|0|0|0|0|0|0|0|0|0|0|0|0|0|0|0|0|0|0|0|0|0|0|0
453|LINCOLN COUNTY JAIL||LINCOLNTON|GA||33.7923477|-82.479018|0|0|0|0|0|0|0|5|6|15|10|0|0|0|0|0|0|0|0|0|0|0|0|0|0|0|0|0|0
454|COLUMBIA COUNTY JAIL|County|BLOOMSBURG|PA|17815|41.003698|-76.4549457|30|6|0|0|0|0|0|0|0|0|0|0|0|0|0|0|0|0|0|0|0|0|0|0|0|0|0|0|0
457|EATON CO.,CHARLOTTE, MI||CHARLOTTE|MI||42.5636478|-84.8358211|0|0|0|0|0|0|0|0|1|9|8|12|3|0|0|0|0|0|0|0|0|0|0|0|0|0|0|0|0
458|ALLEGANY COUNTY JAIL|County|BELMONT|NY|14813|42.2231241|-78.0344506|16|18|0|0|0|0|0|0|0|0|0|0|0|0|0|0|0|0|0|0|0|0|0|0|0|0|0|0|0
460|PICKAWAY COUNTY JAIL|County|CIRCLEVILLE|OH|43113|39.600618|-82.9460133|0|0|0|0|1|0|4|12|8|8|0|0|0|0|0|0|0|0|0|0|0|0|0|0|0|0|0|0|0
462|D.E. LONG JUV.DETENTION||PORTLAND|OR||45.5234515|-122.6762071|0|0|0|0|0|0|0|0|0|2|7|11|13|1|0|0|0|0|0|0|0|0|0|0|0|0|0|0|0
463|LOS PADRINOS JUVENILE HALL||DOWNEY|CA||33.9400143|-118.1325688|0|0|0|0|0|0|3|7|7|16|0|0|0|0|0|0|0|0|0|0|0|0|0|0|0|0|0|0|0
465|SACRAMENTO HOLD|Federal|SACRAMENTO|CA|95814|38.5824933|-121.4941738|16|13|0|0|0|0|1|1|1|0|0|0|0|0|0|0|0|0|0|0|0|0|0|0|0|0|0|0|0
467|CALHOUN COUNTY SHERIFF||ANNISTON|AL||33.6598257|-85.8316318|0|0|0|0|0|0|0|0|0|2|16|0|0|0|0|0|0|0|0|8|5|0|0|0|0|0|0|0|0
470|LEE COUNTY JAIL|County|DIXON|IL|61021|41.8389213|-89.4795478|0|0|0|0|0|0|0|0|0|0|0|4|5|6|5|2|0|2|0|0|5|2|0|0|0|0|0|0|0
472|SILVERDALE/HAMILTON COUNTY|County|CHATTANOOGA|TN|37421|35.0407113|-85.1375645|0|1|4|6|3|6|6|5|0|0|0|0|0|0|0|0|0|0|0|0|0|0|0|0|0|0|0|0|0
433|ONONDAGA COUNTY JAIL|County|SYRACUSE|NY|13202|43.0450679|-76.1522879|9|12|6|3|0|3|1|0|0|0|0|4|4|0|0|0|0|0|0|0|0|0|0|0|0|0|0|0|0
477|ERIE COUNTY JAIL, PA|County|ERIE|PA|16503|42.1253347|-80.0702555|10|12|6|0|0|0|0|2|0|0|0|0|0|0|0|0|0|0|0|0|0|0|0|0|0|0|0|0|0
479|YOUTHCARE|ORR|SEATTLE|WA|98105|47.6571575|-122.2819449|7|10|7|2|2|2|0|0|0|0|0|0|0|0|0|0|0|0|0|0|0|0|0|0|0|0|0|0|0
480|HAMILTON CO. JAIL (TENN)|County|CHATTANOOGA|TN|37402|35.0504707|-85.3162066|0|1|2|2|1|4|6|7|6|1|0|0|0|0|0|0|0|0|0|0|0|0|0|0|0|0|0|0|0
481|AUDRAIN COUNTY JAIL|County|MEXICO|MO|65265|39.1697626|-91.8829484|0|0|0|0|1|16|13|0|0|0|0|0|0|0|0|0|0|0|0|0|0|0|0|0|0|0|0|0|0
67|WACKENHUT FACILITY|GEO Group, Inc|SAN ANTONIO|TX|78207|29.4174949|-98.5226706|10|130|141|112|119|125|87|79|85|71|133|36|0|0|0|0|0|0|0|0|0|0|0|0|0|0|0|0|0
483|RENO COUNTY JAIL|County|HUTCHINSON|KS|67501|38.0608445|-97.9297743|0|0|0|1|0|0|4|10|12|2|0|0|0|0|0|0|0|0|0|0|0|0|0|0|0|0|0|0|0
484|TAMPA BAY ACADEMY|ORR|RIVERVIEW|FL|33569|27.8661364|-82.3264809|6|10|5|5|3|0|0|0|0|0|0|0|0|0|0|0|0|0|0|0|0|0|0|0|0|0|0|0|0
485|YELLOWSTONE COUNTY JAIL|County|BILLINGS|MT|59101|45.7832856|-108.5006904|1|2|2|1|1|3|5|4|2|2|3|2|0|0|0|0|0|0|0|0|0|0|0|0|0|0|0|0|0
7|MIRA LOMA DET.CENTER|County|LANCASTER|CA|93536|34.6867846|-118.1541632|1105|958|972|739|718|737|698|703|778|728|610|496|59|2|2|2|2|0|0|0|0|0|0|0|0|0|0|0|0
9|YORK COUNTY JAIL, PA|County|YORK|PA|17402|39.9721149|-76.6528225|632|647|611|499|591|650|641|775|812|679|530|324|316|260|151|140|53|18|22|19|6|0|0|0|0|0|0|0|0
177|SANTA RITA JAIL||DUBLIN|CA||37.7021521|-121.9357918|0|0|0|0|0|0|1|0|0|0|0|0|0|49|59|48|82|50|0|0|0|0|0|0|0|0|0|0|0
188|MINN.C.F., RUSH CITY|State|RUSH CITY|MN|55069|45.6869444|-92.9641667|0|0|0|0|9|33|51|57|68|53|0|0|0|0|0|0|0|0|0|0|0|0|0|0|0|0|0|0|0
230|GARVIN COUNTY JAIL|County|PAULS VALLEY|OK|73075|34.7400809|-97.2222451|18|12|18|23|18|17|12|11|14|23|11|9|9|0|0|0|0|0|0|0|0|0|0|0|0|0|0|0|0
270|REGIONAL JUSTICE CENTER||KENT|WA||47.3809335|-122.2348431|0|0|0|0|0|0|2|0|0|65|52|33|0|0|0|0|0|0|0|0|0|0|0|0|0|0|0|0|0
311|HOUSTON FO HOLDROOM|Federal|HOUSTON|TX|77032|29.9478352|-95.3207069|45|33|22|4|0|0|0|0|0|0|0|0|0|0|0|0|0|0|0|0|0|0|0|0|0|0|0|0|0
352|IBERIA PARISH JAIL|County|NEW IBERIA|LA|70560|30.0035365|-91.8187285|0|0|0|0|0|0|0|4|14|39|22|0|0|0|0|0|0|0|0|0|0|0|0|0|0|0|0|0|0
394|MAHONING COUNTY JAIL|County|YOUNGSTOWN|OH|44503|41.0990044|-80.6521139|37|20|2|0|0|0|0|0|0|0|0|0|0|0|0|0|0|0|0|0|0|0|0|0|0|0|0|0|0
434|NYC FIELD OFFICE|Federal|NEW YORK|NY|10278|40.7151351|-74.0039382|18|8|3|2|2|0|1|1|1|1|1|1|1|0|0|0|0|0|0|0|0|0|0|0|0|0|0|0|0
435|ST.CLAIR CO.,PT.HURON,MI.|County|PORT HURON|MI|48060|42.9708634|-82.4249142|30|3|3|1|1|1|1|1|0|0|0|0|0|0|0|0|0|0|0|0|0|0|0|0|0|0|0|0|0
476|ADA COUNTY JAIL|County|BOISE|ID|83704|43.6320897|-116.2863998|7|6|3|0|0|0|3|4|3|3|2|0|0|0|0|0|0|0|0|0|0|0|0|0|0|0|0|0|0
10|SAN PEDRO SPC|U.S. Immigrations and Customs Enforcement|SAN PEDRO|CA|90731|33.7322884|-118.2935891|0|25|504|382|395|438|361|417|464|509|521|409|466|421|381|434|498|713|273|263|4|0|0|0|0|0|0|0|0
11|FLORENCE SPC|U.S. Immigrations and Customs Enforcement|FLORENCE|AZ|85232|32.772674|-111.1652687|367|404|361|342|339|352|301|299|306|419|444|397|465|497|425|319|322|356|223|88|122|115|182|125|3|0|0|0|0
20|BUFFALO SPC|U.S. Immigrations and Customs Enforcement|BATAVIA|NY|14020|42.9981156|-78.1875167|483|457|385|334|304|282|284|296|290|289|292|80|1|1|0|0|0|0|0|0|0|0|0|0|0|0|0|0|0
1|PORT ISABEL SPC|U.S. Immigrations and Customs Enforcement|LOS FRESNOS|TX|78566|26.0717438|-97.4763733|601|805|955|753|716|781|736|653|689|605|685|685|510|403|408|416|641|593|542|924|1010|395|334|190|2|0|0|0|0
3|EL PASO SPC|U.S. Immigrations and Customs Enforcement|EL PASO|TX|79925|31.7776561|-106.3640398|752|785|772|712|612|655|757|766|703|561|560|576|367|308|229|163|198|270|287|310|342|293|295|185|11|0|0|0|0
274|KENNESAW CITY JAIL|City or Municipality|KENNESAW|GA|30144|34.0234337|-84.6154897|0|0|1|0|8|14|15|31|16|3|0|4|6|5|3|6|10|9|8|7|0|0|0|0|0|0|0|0|0
396|SOLON CITY JAIL|City or Municipality|SOLON|OH|44139|41.3897764|-81.4412259|2|4|6|0|0|0|11|18|16|1|0|0|0|0|0|0|0|0|0|0|0|0|0|0|0|0|0|0|0
486|CUMBERLAND FCI|Regional and Federal Facilities|CUMBERLAND|MD|21502|39.6528654|-78.7625185|1|1|1|1|4|8|4|3|3|2|1|0|0|0|0|0|0|0|0|0|0|0|0|0|0|0|0|0|0
24|LEAVENWORTH USP|Regional and Federal Facilities|LEAVENWORTH|KS|66048|39.3111112|-94.9224637|0|0|1|4|12|20|28|30|36|42|51|62|112|138|172|243|267|253|270|315|392|518|304|92|40|17|13|11|7
147|BUTNER FED.CORR.INST.|Regional and Federal Facilities|BUTNER|NC|27509|36.1320892|-78.7566714|0|1|4|7|13|16|15|18|17|23|39|59|64|43|19|9|6|2|1|1|4|3|2|1|0|0|0|0|0
487|ORLEANS COUNTY JAIL|County|ALBION|NY|14411|43.2464477|-78.1936319|0|0|0|0|1|0|2|3|2|0|0|0|2|5|3|2|4|2|0|0|0|2|0|0|0|0|0|0|0
523|BONNEVILLE CO. JAIL|County|IDAHO FALLS|ID|83402|43.4665808|-112.0341374|0|0|0|0|3|3|4|3|3|3|2|0|0|0|0|0|0|0|0|0|0|0|0|0|0|0|0|0|0
525|WEST CARROLL DETENTION CTR||EPPS|LA||32.6040264|-91.4778953|0|0|0|0|0|0|0|0|0|0|0|0|0|0|0|0|1|6|7|9|0|0|0|0|0|0|0|0|0
527|BURNET COUNTY JAIL|County|BURNET|TX|78611|30.7582376|-98.2283585|0|0|0|0|0|0|0|0|4|5|9|5|0|0|0|0|0|0|0|0|0|0|0|0|0|0|0|0|0
528|ARTHUR KILL CORR FAC S.I.|State|STATEN ISLAND|NY|10309|40.5265593|-74.223802|0|0|1|1|1|1|1|1|1|1|1|1|1|1|1|1|1|1|1|1|1|1|1|1|0|0|0|0|0
529|FRANKLIN COUNTY DETENTION CENTER||LOUISBURG|NC||36.0990393|-78.301106|0|0|0|0|0|0|0|11|8|3|0|0|0|0|0|0|0|0|0|0|0|0|0|0|0|0|0|0|0
530|LUTHERAN IMMIGRANT & REFUGEE SERVI||PORTLAND|OR||45.5234515|-122.6762071|0|0|0|0|0|0|0|0|0|0|0|0|0|3|10|8|0|0|0|0|0|0|0|0|0|0|0|0|0
532|GILA COUNTY JUVENILE DET CENTER|County|GLOBE|AZ|85501|33.3942223|-110.7864984|0|0|2|0|0|3|7|6|4|0|0|0|0|0|0|0|0|0|0|0|0|0|0|0|0|0|0|0|0
533|COBB COUNTY JAIL|County|MARIETTA|GA|30008|33.8955185|-84.5903367|21|0|0|0|0|0|0|0|0|0|0|0|0|0|0|0|0|0|0|0|0|0|0|0|0|0|0|0|0
536|SOUTHWEST KEY VILLAGE GREEN|ORR|PHOENIX|AZ|85014|33.516877|-112.0535987|14|0|1|2|4|0|0|0|0|0|0|0|0|0|0|0|0|0|0|0|0|0|0|0|0|0|0|0|0
537|TILLAMOOK COUNTY JAIL|County|TILLAMOOK|OR|97141|45.4562158|-123.8440137|0|0|0|0|0|5|0|0|0|7|9|0|0|0|0|0|0|0|0|0|0|0|0|0|0|0|0|0|0
538|HARPER COUNTY JAIL||ANTHONY|KS||37.1533554|-98.0311727|0|0|0|0|0|0|0|0|1|2|6|6|3|0|0|0|0|0|3|0|0|0|0|0|0|0|0|0|0
539|TUSCARAWAS COUNTY JAIL|County|NPHILADELPHIA|OH|44663|40.4602299|-81.4498717|0|0|0|0|0|1|1|1|1|1|1|1|2|2|1|1|1|1|1|1|1|1|1|0|0|0|0|0|0
540|BENTON COUNTY|County|KENNEWICK|WA|99336|46.2223609|-119.2051525|10|9|2|0|0|0|0|0|0|0|0|0|0|0|0|0|0|0|0|0|0|0|0|0|0|0|0|0|0
543|ALAMOSA COUNTY JAIL||ALAMOSA|CO||37.4694491|-105.8700214|0|0|0|0|0|0|0|0|0|0|0|0|2|2|2|2|6|4|3|0|0|0|0|0|0|0|0|0|0
545|CATTARAUGUS COUNTY JAIL|County|LITTLE VALLEY|NY|14755|42.2525629|-78.8055896|0|2|1|0|0|0|0|0|0|0|0|1|10|2|2|2|0|0|0|0|0|0|0|0|0|0|0|0|0
546|CATHOLIC SOC SVCS RFC|ORR|PHOENIX|AZ|85021|33.5612122|-112.1012912|1|1|6|8|3|0|0|0|0|0|0|0|0|0|0|0|0|0|0|0|0|0|0|0|0|0|0|0|0
547|LUTHERAN IMM. & REF. SERV||PORTLAND|OR||45.5234515|-122.6762071|0|0|0|0|0|0|0|0|0|0|0|0|3|4|5|7|0|0|0|0|0|0|0|0|0|0|0|0|0
548|SOUTH FLORIDA RECEPT CENT||MIAMI|FL||25.7889689|-80.2264393|0|0|0|0|0|0|0|0|0|0|0|7|8|3|2|0|0|0|0|0|0|0|0|0|0|0|0|0|0
550|FORSYTH COUNTY JAIL|County|WINSTON-SALEM|NC|27101|36.105232|-80.2042436|0|0|2|2|3|4|2|2|4|2|0|0|0|0|0|0|0|0|0|0|0|0|0|0|0|0|0|0|0
551|YOLO COUNTY JAIL|ORR|WOODLAND|CA|95776|38.6785157|-121.7732971|5|6|0|0|0|0|0|0|5|3|0|0|0|0|0|0|0|0|0|0|0|0|0|0|0|0|0|0|0
552|WOODBURY COUNTY JAIL||SIOUX CITY|IA||42.4999942|-96.4003069|0|0|0|0|0|0|2|7|4|1|3|1|1|0|0|0|0|0|0|0|0|0|0|0|0|0|0|0|0
554|JEFFERSON COUNTY JAIL|County|GOLDEN|CO|80401|39.755543|-105.2210997|2|7|5|5|1|0|0|0|0|0|0|0|0|0|0|0|0|0|0|0|0|0|0|0|0|0|0|0|0
555|JEFFERSON COUNTY JAIL|County|BOULDER|MT|59632|46.2365947|-112.1208336|2|1|3|3|2|2|2|0|1|0|1|1|1|0|0|0|0|0|0|0|0|0|0|0|0|0|0|0|0
516|NACOGDOCHES COUNTY JAIL||NACOGDOCHES|TX||31.6035129|-94.6554874|0|0|0|0|0|0|0|0|0|0|7|17|0|0|0|0|0|0|0|0|0|0|0|0|0|0|0|0|0
560|FLOYD COUNTY JAIL|County|NEW ALBANY|IN|47150|38.2856247|-85.8241312|0|0|0|0|0|0|0|3|7|5|2|2|0|0|0|0|0|0|0|0|0|0|0|0|0|0|0|0|0
561|GREENE COUNTY JAIL|County|SPRINGFIELD|MO|65802|37.215326|-93.2982436|0|0|0|0|1|10|5|3|0|0|0|0|0|0|0|0|0|0|0|0|0|0|0|0|0|0|0|0|0
524|ROUNDHOUSE PHI, PA|City or Municipality|PHILADELPHIA|PA|19106|39.9493801|-75.145782|0|0|0|0|0|0|0|0|0|0|0|0|0|4|3|3|3|2|0|2|3|2|1|0|0|0|0|0|0
531|BEAUMONT FCC, LOW|Regional and Federal Facilities|BEAUMONT|TX|77720|30.04|-94.16|0|0|0|0|1|3|5|6|4|2|0|0|0|0|0|0|0|0|0|0|0|0|0|0|0|0|0|0|0
544|U.S.P. ATWATER|Regional and Federal Facilities|ATWATER|CA|95301|37.3477174|-120.609084|0|0|0|0|5|10|6|0|0|0|0|0|0|0|0|0|0|0|0|0|0|0|0|0|0|0|0|0|0
562|YORK COUNTY DETENTION CENTER|County|YORK|SC|29745|34.9943021|-81.2420175|2|1|0|0|0|0|4|12|0|0|0|0|0|0|0|0|0|0|0|0|0|0|0|0|0|0|0|0|0
563|INS DISTRICT OFFICE|Federal|HONOLULU|HI|96813|21.3136151|-157.8480364|0|0|0|0|1|0|0|2|3|2|2|2|3|2|2|0|0|0|0|0|0|0|0|0|0|0|0|0|0
564|GUADALUPE COUNTY JUVENILE D.F.|ORR|SEGUIN|TX|78155|29.5688411|-97.9647269|0|2|0|0|0|4|9|3|0|0|0|0|0|0|0|0|0|0|0|0|0|0|0|0|0|0|0|0|0
565|METRO DADE JAIL|County|MIAMI|FL|33169|25.9400585|-80.2153998|0|2|0|0|0|0|0|0|10|0|0|0|0|0|0|0|0|0|0|1|4|0|0|0|0|0|0|0|0
568|BROOKS COUNTY JAIL (CONTRACT)|County|FALFURRIAS|TX|78355|27.2269872|-98.1441714|0|0|9|0|9|0|0|0|0|0|0|0|0|0|0|0|0|0|0|0|0|0|0|0|0|0|0|0|0
570|ALLEN PARISH JAIL||OAKDALE|LA||30.8160276|-92.660421|0|0|0|0|0|0|0|0|0|0|0|0|0|0|0|0|0|0|0|1|6|8|2|0|0|0|0|0|0
571|SALEM COUNTY JAIL||SALEM|NJ||39.5717796|-75.4671423|0|0|0|0|0|0|0|0|0|0|0|0|0|0|0|0|0|0|0|1|4|4|3|5|0|0|0|0|0
572|MARIN JUVENILE HALL|ORR|SAN RAFAEL|CA|94903|37.9735346|-122.5310874|0|1|0|2|5|2|0|0|1|1|2|1|2|0|0|0|0|0|0|0|0|0|0|0|0|0|0|0|0
574|NEWAYGO CO.WHITE CLOUD,MI||WHITE CLOUD|MI||43.5502974|-85.771997|0|0|0|0|0|0|0|0|0|0|0|8|6|3|0|0|0|0|0|0|0|0|0|0|0|0|0|0|0
576|DEWITT COUNTY JAIL|County|CLINTON|IL|61727|40.1536479|-88.9645253|0|0|0|0|0|0|0|0|2|0|5|8|3|0|0|0|0|0|0|0|0|0|0|0|0|0|0|0|0
577|RUSK COUNTY JAIL||HENDERSON|TX||32.1532156|-94.7993802|0|0|0|0|0|0|0|0|0|0|0|0|0|0|0|0|0|0|13|5|0|0|0|0|0|0|0|0|0
578|SOUTHWEST KEY LEMON GROVE|ORR|LEMON GROVE|CA|91945|32.7425516|-117.0314172|9|8|0|0|0|0|0|0|0|0|0|0|0|0|0|0|0|0|0|0|0|0|0|0|0|0|0|0|0
588|NOBLES CO. JAIL|County|WORTHINGTON|MN|56082|43.623348|-95.5952|0|0|5|0|0|4|6|2|0|0|0|0|0|0|0|0|0|0|0|0|0|0|0|0|0|0|0|0|0
580|DAVIS CO. JAIL|County|FARMINGTON|UT|84025|40.9804999|-111.8874392|0|0|0|0|0|3|5|4|0|0|0|2|1|0|1|1|0|0|0|0|0|0|0|0|0|0|0|0|0
579|WARREN COUNTY REGIONAL|County|BOWLING GREEN|KY|42010|36.9903199|-86.4436018|0|0|0|0|0|0|5|5|5|2|0|0|0|0|0|0|0|0|0|0|0|0|0|0|0|0|0|0|0
582|MOFFET COUNTY JAIL|County|CRAIG|CO|81625|40.5152491|-107.5464541|5|4|7|2|0|0|0|0|0|0|0|0|0|0|0|0|0|0|0|0|0|0|0|0|0|0|0|0|0
583|UPSHUR COUNTY JAIL|County|GILMER|TX|75644|32.7287472|-94.9424379|0|0|0|0|0|0|0|0|7|10|0|0|0|0|0|0|0|0|0|0|0|0|0|0|0|0|0|0|0
585|CUMBERLAND COUNTY JAIL||TOLEDO|IL||39.2736491|-88.2436522|0|0|0|0|0|0|0|4|5|3|5|0|0|0|0|0|0|0|0|0|0|0|0|0|0|0|0|0|0
587|LUTHERN SOCIAL SERVICES|ORR|MOUNTLAKE TERR.|WA|98043|47.7933719|-122.302732|0|0|0|1|0|0|2|0|0|0|0|0|2|2|2|7|0|0|0|0|0|0|0|0|0|0|0|0|0
589|SAN BERNADINO HOLD ROOM|Federal|SAN BERNADINO|CA|92408|34.0868517|-117.2617329|16|0|0|0|0|0|0|0|0|0|0|0|0|0|0|0|0|0|0|0|0|0|0|0|0|0|0|0|0
590|IMPERIAL COUNTY JUVENILE||EL CENTRO|CA||32.792|-115.5630514|0|0|0|0|0|0|0|0|0|0|0|0|0|0|0|0|0|1|1|2|3|8|0|1|0|0|0|0|0
591|DENVER COUNTY JAIL|County|DENVER|CO|80201|39.75|-104.99|2|3|3|1|0|0|1|1|1|2|2|0|0|0|0|0|0|0|0|0|0|0|0|0|0|0|0|0|0
593|BEDFORD COUNTY JAIL|County|BEDFORD|PA|15522|40.0186921|-78.5039069|0|0|0|0|0|6|0|2|4|3|0|0|0|0|0|0|0|0|0|0|0|0|0|0|0|0|0|0|0
595|COOK INLET PRETRIAL, ANCH|State|ANCHORAGE|AK|99501|61.2237855|-149.8702209|0|0|0|0|0|0|2|2|2|2|3|3|1|0|0|0|0|0|0|0|0|0|0|0|0|0|0|0|0
596|MADISON COUNTY JAIL|County|REXBURG|ID|83440|43.8230556|-111.7852778|0|2|4|4|3|2|0|0|0|0|0|0|0|0|0|0|0|0|0|0|0|0|0|0|0|0|0|0|0
557|LUTHERAN SOC SERV, LANSIN|ORR|LANSING|MI|48917|42.7287542|-84.6374484|5|0|0|0|0|0|0|0|0|0|0|0|0|2|7|5|0|0|0|0|0|0|0|0|0|0|0|0|0
599|FRESNO HOLDROOM|Federal|FRESNO|CA|93721|36.7312691|-119.7802409|7|8|0|0|0|0|0|0|0|0|0|0|0|0|0|0|0|0|0|0|0|0|0|0|0|0|0|0|0
601|GILA COUNTY JAIL|County|GLOBE|AZ|85501|33.3942223|-110.7864984|0|0|0|0|0|0|0|0|0|1|1|1|1|1|1|1|1|2|2|2|0|0|0|0|0|0|0|0|0
489|COLEMAN FCI|Regional and Federal Facilities|COLEMAN|FL|33521|28.7997103|-82.0700856|0|0|0|0|5|6|3|3|4|3|2|1|1|0|0|0|0|0|0|0|0|0|0|0|0|0|0|0|0
491|CAYUGA COUNTY JAIL|County|AUBURN|NY|13021|42.9317335|-76.5660529|0|13|5|7|0|2|0|0|0|0|0|0|0|0|0|0|0|0|0|0|0|0|0|0|0|0|0|0|0
606|FRANKLIN CO. REGION JAIL|County|FRANKFORT|KY|40356|38.2009055|-84.8732835|0|0|0|0|0|0|0|0|0|3|5|3|3|0|0|0|0|0|0|0|0|0|0|0|0|0|0|0|0
604|SHELBY CO. SHERIFF OFFICE|County|MEMPHIS|TN|38103|35.1543632|-90.0606637|0|0|0|0|0|0|0|5|4|0|3|2|0|0|0|0|0|0|0|0|0|0|0|0|0|0|0|0|0
617|RIVERSIDE CUSTODY CASE|Federal|RIVERSIDE|CA|92705|33.9533487|-117.3961564|0|0|0|0|0|0|0|6|6|0|0|0|0|0|0|0|0|0|0|0|0|0|0|0|0|0|0|0|0
607|KENT CO.,GRAND RAPIDS,MI|County|GRAND RAPIDS|MI|49503|42.9616689|-85.6588999|0|0|3|3|3|2|0|0|0|0|2|2|0|0|0|0|0|0|0|0|0|0|0|0|0|0|0|0|0
609|PANOLA COUNTY JAIL||CARTHAGE|TX||32.1573841|-94.3374199|0|0|0|0|0|0|0|0|0|0|0|0|0|0|0|0|0|5|6|3|0|0|0|0|0|0|0|0|0
610|J.C. BURKE CORR.CENTER||WAUPUN|WI||43.6333219|-88.7295519|0|0|0|0|0|0|0|0|0|0|0|0|0|0|0|0|0|0|0|0|1|4|8|0|0|0|0|0|0
612|HAYS COUNTY JUVENILE CENTER||SAN MARCOS|TX||29.8832749|-97.9413941|0|0|0|0|0|0|4|9|0|0|0|0|0|0|0|0|0|0|0|0|0|0|0|0|0|0|0|0|0
613|WEST OAKS HOSPITAL|Hospital|HOUSTON|TX|77074|29.6917896|-95.514493|0|0|0|0|0|0|0|5|8|0|0|0|0|0|0|0|0|0|0|0|0|0|0|0|0|0|0|0|0
614|EL PASO COUNTY JAIL (TX)|County|EL PASO|TX|79925|31.7776561|-106.3640398|0|0|0|0|0|0|0|0|0|0|0|0|2|0|0|0|0|2|1|0|0|5|3|0|0|0|0|0|0
615|SOUTHWEST KEY PROGRAM (JUV)|ORR|DALLAS|TX|75207|32.7891591|-96.8217017|0|0|0|2|7|4|0|0|0|0|0|0|0|0|0|0|0|0|0|0|0|0|0|0|0|0|0|0|0
618|LEAVENWORTH COUNTY JAIL||LEAVENWORTH|KS||39.3111112|-94.9224637|0|0|0|0|0|0|0|0|0|0|0|4|5|3|0|0|0|0|0|0|0|0|0|0|0|0|0|0|0
619|STARR COUNTY JAIL|County|RIO GRANDE CITY|TX|78582|26.3797874|-98.8203046|0|0|0|0|0|0|0|0|0|0|0|0|0|0|0|0|0|0|0|0|5|6|2|0|0|0|0|0|0
622|LASALLE COUNTY JAIL|County|COTTULA|TX|78014|28.436934|-99.2350322|0|0|3|1|0|0|0|0|0|0|0|0|0|0|6|2|0|0|0|0|0|0|0|0|0|0|0|0|0
624|KLAMATH CO JAIL|County|KLAMATH FALLS|OR|97601|42.224867|-121.7816704|0|0|1|0|0|0|0|0|0|3|4|2|2|0|0|0|0|0|0|0|0|0|0|0|0|0|0|0|0
625|WAUKESHA COUNTY JAIL|County|WAUKESHA|WI|53186|43.015059|-88.1974148|0|0|0|0|0|0|0|6|6|0|0|0|0|0|0|0|0|0|0|0|0|0|0|0|0|0|0|0|0
626|MIAMI DISTRICT|Federal|MIAMI|FL|33138|25.8531041|-80.1847167|7|5|0|0|0|0|0|0|0|0|0|0|0|0|0|0|0|0|0|0|0|0|0|0|0|0|0|0|0
628|YUMA COUNTY JUVENILE CENT|County|YUMA|AZ|85364|32.7056541|-114.678669|0|0|0|0|0|0|0|0|0|2|4|4|1|0|0|0|0|0|0|0|0|0|0|0|0|0|0|0|0
629|ALDERSON FED. PRISON CAMP||ALDERSON|WV||37.725954|-80.6420237|0|0|0|0|0|0|0|0|0|0|0|0|0|0|0|0|0|0|0|0|2|3|3|1|2|0|0|0|0
630|INDIAN RIVER COUNTY JAIL||VERO BEACH|FL||27.6386434|-80.3972736|0|0|0|0|0|0|0|0|4|8|0|0|0|0|0|0|0|0|0|0|0|0|0|0|0|0|0|0|0
633|ERIE COUNTY CORRECTIONAL|County|ALDEN|NY|14004|42.9000596|-78.4919671|0|0|0|0|0|0|0|1|0|0|0|0|0|0|0|0|0|0|0|0|0|10|0|0|0|0|0|0|0
634|DOUGLAS CO. JAIL|County|ROSEBURG|OR|97470|43.216505|-123.3417381|0|0|0|0|0|0|0|3|3|2|0|0|2|1|0|0|0|0|0|0|0|0|0|0|0|0|0|0|0
635|MARSHALL COUNTY JAIL||MARSHALLTOWN|IA||42.0416667|-92.9144444|0|0|0|0|0|0|3|6|2|1|0|0|0|0|0|0|0|0|0|0|0|0|0|0|0|0|0|0|0
636|HARLINGEN MEDICAL CENTER|Hospital|HARLINGEN|TX|78550|26.2848429|-97.6765157|0|0|0|0|0|0|0|0|0|1|1|1|1|1|1|1|1|1|1|1|0|0|0|0|0|0|0|0|0
637|ELYRIA CITY JAIL||ELYRIA|OH||41.3683798|-82.1076486|0|0|0|0|0|0|3|6|2|0|0|0|0|0|0|0|0|0|0|0|0|0|0|0|0|0|0|0|0
639|HOLIDAY INN,||JAMAICA|NY||40.703546|-73.802032|0|0|0|0|0|0|0|0|2|3|2|3|0|0|0|0|0|0|0|0|0|0|0|0|0|0|0|0|0
640|ST LAWRENCE COUNTY JAIL|County|CANTON|NY|13617|44.5956163|-75.1690942|0|0|0|0|0|0|0|0|0|0|0|0|0|0|0|0|0|2|2|7|0|0|0|0|0|0|0|0|0
642|PRESIDIO COUNTY JAIL|County|MARFA|TX|79843|30.3079384|-104.0190718|1|0|0|0|0|0|0|0|0|0|0|0|10|0|0|0|0|0|0|0|0|0|0|0|0|0|0|0|0
602|ALHAMBRA CITY JAIL|City or Municipality|ALHAMBRA|CA|91801|34.0837958|-118.1181199|11|3|0|0|0|0|0|0|0|0|0|0|0|0|0|0|0|0|0|0|0|0|0|0|0|0|0|0|0
620|EDEN DET CENTER|Regional and Federal Facilities|EDEN|TX|76837|31.216276|-99.8456277|0|0|0|0|0|0|0|0|0|0|0|1|1|0|0|7|3|0|0|0|0|0|0|0|0|0|0|0|0
492|ECONO LODGE-ELP||EL PASO|TX||31.7587198|-106.4869314|0|0|0|0|0|0|0|0|0|0|0|20|7|0|0|0|0|0|0|0|0|0|0|0|0|0|0|0|0
493|PLEASANTON FED.CORR.INST.||DUBLIN|CA||37.7021521|-121.9357918|0|0|0|0|0|0|0|0|0|0|0|0|0|0|0|0|2|4|4|6|5|6|1|0|0|0|0|0|0
669|LAUREL COUNTY SHERIFF'S JAIL|County|LONDON|KY|40714|37.1289771|-84.0832646|0|0|0|0|0|1|2|2|2|2|0|0|0|0|0|0|0|0|0|0|0|0|0|0|0|0|0|0|0
648|ROGER HASHEM JUVENILE JUSTICE CTR.||ROCKDALE|TX||30.6554759|-97.0013744|0|0|0|0|0|0|0|2|8|0|0|0|0|0|0|0|0|0|0|0|0|0|0|0|0|0|0|0|0
651|BROADVIEW HTS CITY JAIL||BROADVIEW HTS.|OH||41.3139426|-81.6851271|0|0|0|0|0|0|0|3|0|1|0|3|3|0|0|0|0|0|0|0|0|0|0|0|0|0|0|0|0
653|DEKALB COUNTY DETENTION CENTER|County|FORT PAYNE|AL|35968|34.4442547|-85.7196893|8|2|0|0|0|0|0|0|0|0|0|0|0|0|0|0|0|0|0|0|0|0|0|0|0|0|0|0|0
654|HENNIPEN COUNTY WORKHOUSE||PLYMOUTH|MN||45.0105194|-93.4555093|0|0|0|0|0|0|0|0|0|0|0|7|3|0|0|0|0|0|0|0|0|0|0|0|0|0|0|0|0
656|WINDMOOR HOSP.(HARBORVIEW)||MIAMI|FL||25.7889689|-80.2264393|0|0|0|0|0|0|0|0|0|6|0|2|2|0|0|0|0|0|0|0|0|0|0|0|0|0|0|0|0
658|NEVADA COUNTY JAIL||NEVADA CITY|CA||39.2615606|-121.0160594|0|0|0|0|0|0|0|0|0|7|2|0|0|0|0|0|0|0|0|0|0|0|0|0|0|0|0|0|0
659|SOMERSET COUNTY JAIL||SOMERVILLE|NJ||40.5742696|-74.60988|0|0|0|0|0|0|0|0|0|0|0|0|5|1|0|0|0|2|2|0|0|0|0|0|0|0|0|0|0
660|NEW YORK MCC||NEW YORK|NY||40.7143528|-74.0059731|0|0|0|0|0|0|0|2|0|0|0|1|2|1|0|0|0|0|0|0|0|2|2|0|0|0|0|0|0
663|BINGHAM COUNTY JAIL|County|BLACKFOOT|ID|83221|43.1904709|-112.3449773|0|0|0|0|0|0|0|0|0|0|0|5|4|0|0|0|0|0|0|0|0|0|0|0|0|0|0|0|0
664|MEMPHIS/SHELBY COUNTY JUV|County|MEMPHIS|TN|38105|35.1516237|-90.0349866|0|0|0|0|0|0|0|0|0|0|0|0|0|1|1|1|1|1|1|1|1|1|0|0|0|0|0|0|0
665|BELL COUNTY JAIL|County|BELTON|TX|76513|31.0560132|-97.464453|0|0|1|1|1|0|0|0|0|0|0|6|0|0|0|0|0|0|0|0|0|0|0|0|0|0|0|0|0
670|MORGAN COUNTY JAIL|County|FT. MORGAN|CO|80701|40.2502582|-103.7999509|0|4|5|0|0|0|0|0|0|0|0|0|0|0|0|0|0|0|0|0|0|0|0|0|0|0|0|0|0
671|WASHINGTON FIELD OFFICE|Federal|FAIRFAX|VA|22031|38.8462236|-77.3063733|2|6|0|0|0|0|0|0|0|0|0|0|0|0|0|0|0|0|0|0|0|0|0|0|0|0|0|0|0
672|FL DEPT OF CORRECTIONS||TALLAHASSEE|FL||30.4382559|-84.2807329|0|0|0|0|0|0|0|0|0|0|0|0|0|1|3|1|1|1|1|0|0|0|0|0|0|0|0|0|0
674|ABRAXAS-H GARCIA CENTER|ORR|SAN ANTONIO|TX|78232|29.5930195|-98.478759|0|9|0|0|0|0|0|0|0|0|0|0|0|0|0|0|0|0|0|0|0|0|0|0|0|0|0|0|0
675|MACON COUNTY JUVENILE FAC.||DECATUR|IL||39.8403147|-88.9548001|0|0|0|0|0|0|0|0|0|0|0|0|0|0|0|0|0|5|3|0|0|0|0|0|0|0|0|0|0
676|ALLENWOOD FED.PRISON CAMP||MONTGOMERY|PA||41.1703592|-76.8769076|0|0|0|0|0|0|0|0|0|0|0|2|4|1|2|0|0|0|0|0|0|0|0|0|0|0|0|0|0
677|TULARE COUNTY JUVENILE FACILITY||VISALIA|CA||36.3302284|-119.2920585|0|0|0|0|0|0|0|0|8|0|0|0|0|0|0|0|0|0|0|0|0|0|0|0|0|0|0|0|0
678|SCOTT COUNTY JAIL||SHAKOPEE|MN||44.7986111|-93.5194444|0|0|0|0|0|0|0|0|0|0|0|0|3|0|0|0|3|2|0|0|0|0|0|0|0|0|0|0|0
681|YOLO CO. JUV. DET.||WOODLAND|CA|95695|38.6785157|-121.7732971|8|0|0|0|0|0|0|0|0|0|0|0|0|0|0|0|0|0|0|0|0|0|0|0|0|0|0|0|0
682|JUAB COUNTY JAIL|County|NEPHI|UT|84648|39.7102336|-111.8363216|0|0|0|0|0|0|0|0|0|0|0|5|3|0|0|0|0|0|0|0|0|0|0|0|0|0|0|0|0
647|WACKENHUT CORRECTIONS CORP|GEO Group, Inc|SAN DIEGO|CA|92101|32.721742|-117.1647094|0|0|0|0|0|4|6|0|0|0|0|0|0|0|0|0|0|0|0|0|0|0|0|0|0|0|0|0|0
644|ELGIN POLICE DEPT. JAIL|City or Municipality|ELGIN|IL|60120|42.0352856|-88.2558525|1|0|1|1|1|1|2|2|1|0|0|0|0|0|0|0|0|0|0|0|0|0|0|0|0|0|0|0|0
649|GLENDALE POLICE DEPT|City or Municipality|GELNDALE|CA|91206|34.1527251|-118.2117257|8|3|0|0|0|0|0|0|0|0|0|0|0|0|0|0|0|0|0|0|0|0|0|0|0|0|0|0|0
655|ELKTON FED.CORR.INST.|Regional and Federal Facilities|ELKTON|OH|44415|40.7650288|-80.712083|0|0|0|0|2|4|2|2|0|0|0|0|0|0|0|0|0|0|0|0|0|0|0|0|0|0|0|0|0
661|EDGEFIELD FED.CORR.INST.|Regional and Federal Facilities|EDGEFIELD|SC|29824|33.7895774|-81.9295582|0|0|0|0|0|0|0|3|3|2|1|0|0|0|0|0|0|0|0|0|0|0|0|0|0|0|0|0|0
666|FLORENCE ADMAX US PEN.|Regional and Federal Facilities|FLORENCE|CO|81226|38.3902777|-105.1185988|0|0|0|0|0|1|1|0|0|2|2|1|1|1|0|0|0|0|0|0|0|0|0|0|0|0|0|0|0
494|COLLIER COUNTY SHERIFF|County|NAPLES|FL|34101|26.14|-81.8|18|9|0|0|0|0|0|0|0|0|0|0|0|0|0|0|0|0|0|0|0|0|0|0|0|0|0|0|0
683|MARION CO JAIL & L.E. CTR||PALMYRA|MO||39.7942118|-91.5232106|0|0|0|0|0|0|0|0|0|2|6|0|0|0|0|0|0|0|0|0|0|0|0|0|0|0|0|0|0
684|BALT CITY SOUTHWESTERN||BALTIMORE|MD||39.2903848|-76.6121893|0|0|0|0|0|0|0|0|0|0|0|0|1|1|1|1|2|1|0|0|0|0|0|0|0|0|0|0|0
685|INS AIRPORT HOLD|Federal|CHICAGO|IL|60666|41.9699968|-87.9040571|0|0|0|0|0|0|0|2|3|2|0|0|0|0|0|0|0|0|0|0|0|0|0|1|0|0|0|0|0
687|WALLA WALLA COUNTY||WALLA WALLA|WA||46.0645809|-118.3430209|0|0|0|0|0|0|0|0|0|0|0|0|0|0|0|0|0|0|0|0|0|0|0|0|0|1|4|2|1
688|MADISON CO. JAIL, MS.|County|CANTON|MS|39046|32.6126381|-90.0367512|0|0|0|0|0|0|0|4|2|0|0|1|0|0|0|0|0|0|0|0|0|0|0|0|0|0|0|0|0
689|LUNA COUNTY JAIL|County|DEMING|NM|88030|32.2686981|-107.7586404|0|0|0|0|0|0|0|0|0|0|0|6|2|0|0|0|0|0|0|0|0|0|0|0|0|0|0|0|0
690|PENNINGTON CO. JAIL, MN|County|THIEFRIVER FALLS|MN|56701|48.1129336|-96.1857655|0|0|0|0|0|0|0|0|0|5|3|0|0|0|0|0|0|0|0|0|0|0|0|0|0|0|0|0|0
693|CLAY COUNTY JAIL|County|VERMILLION|SD|57069|42.7794417|-96.9292104|0|0|0|0|0|0|0|1|1|3|2|0|0|0|0|0|0|0|0|0|0|0|0|0|0|0|0|0|0
694|COCHISE COUNTY CHILD CENT|County|HUACHUCA CITY|AZ|85616|31.6278703|-110.3339678|0|0|0|0|0|3|0|0|0|1|2|2|0|0|0|0|0|0|0|0|0|0|0|0|0|0|0|0|0
695|GOOD NITE INN MOTEL||CHULA VISTA|CA||32.6400541|-117.0841955|0|0|0|0|0|0|0|0|0|0|0|4|4|0|0|0|0|0|0|0|0|0|0|0|0|0|0|0|0
696|PICAYUNE P.D., PICAYUNE, MS||PICAYUNE|MS||30.5254692|-89.6795084|0|0|0|0|0|0|0|0|0|0|0|0|0|0|0|0|0|0|6|1|0|0|0|0|0|0|0|0|0
699|ST. JOSEPH COUNTY JAIL|County|SOUTH BEND|IN|46601|41.6724038|-86.2539519|0|0|0|0|0|0|0|7|0|0|0|0|0|0|0|0|0|0|0|0|0|0|0|0|0|0|0|0|0
700|SYBIL BRAND WOMEN'S INST.||LOS ANGELES|CA||34.0522342|-118.2436849|0|0|0|0|0|0|0|0|0|0|0|0|0|0|0|0|0|0|0|7|0|0|0|0|0|0|0|0|0
701|SHIAWASSEE COUNTY JAIL||CORUNNA|MI||42.9819728|-84.117745|0|0|0|0|0|0|0|0|0|0|4|3|0|0|0|0|0|0|0|0|0|0|0|0|0|0|0|0|0
703|U.S. IMMIGRATION, DETROIT|Federal|DETROIT|MI|48207|42.3488239|-83.025396|0|0|1|1|0|2|0|0|1|0|0|0|1|0|0|0|0|0|0|0|0|0|0|0|0|0|0|0|0
704|CHATHAM CO JAIL|County|SAVANNAH|GA|31405|32.0371137|-81.1747498|0|0|0|0|0|0|0|4|3|0|0|0|0|0|0|0|0|0|0|0|0|0|0|0|0|0|0|0|0
705|CRYSTAL CITY CORR. CENTER||CRYSTAL CITY|TX||28.6774795|-99.8281104|0|0|0|0|0|0|7|0|0|0|0|0|0|0|0|0|0|0|0|0|0|0|0|0|0|0|0|0|0
706|JACKSON COUNTY JAIL||EDNA|TX||28.9785947|-96.6460877|0|0|0|0|0|0|0|0|0|0|0|0|0|0|0|0|0|2|1|4|0|0|0|0|0|0|0|0|0
708|ROCKWALL COUNTY DETENTION CENTER|County|ROCKWALL|TX|75087|32.9312336|-96.4597089|0|0|0|0|0|0|0|0|0|0|0|0|0|0|0|0|0|0|7|0|0|0|0|0|0|0|0|0|0
709|NIANTIC CORR INST||NIANTIC|CT||41.3253756|-72.1931338|0|0|0|0|0|0|0|0|0|0|0|4|3|0|0|0|0|0|0|0|0|0|0|0|0|0|0|0|0
710|ST. MARTIN D.P. NURS.HOME|Hospital|LAKE CHARLES|LA|70615|30.2491764|-93.1077277|0|0|0|1|1|1|1|1|1|1|0|0|0|0|0|0|0|0|0|0|0|0|0|0|0|0|0|0|0
711|LUBBOCK COUNTY JAIL|County|LUBBOCK|TX|79408|33.5917322|-101.8483669|3|2|2|0|0|0|0|0|0|0|0|0|0|0|0|0|0|0|0|0|0|0|0|0|0|0|0|0|0
713|SAN DIEGO AREA HOSPITAL|Hospital|CHULA VISTA|CA|91911|32.6059744|-117.0441009|4|3|0|0|0|0|0|0|0|0|0|0|0|0|0|0|0|0|0|0|0|0|0|0|0|0|0|0|0
715|BORDELONVILLE CORR CENTER||MOREAUVILLE|LA||31.0346323|-91.9756768|0|0|0|0|0|0|0|0|0|0|4|2|0|0|0|0|0|0|0|0|0|0|0|0|0|0|0|0|0
716|OTERO COUNTY DETENTION|County|ALAMOGORDO|NM|88310|32.8995325|-105.960265|1|1|0|1|0|3|0|0|0|0|0|0|0|0|0|0|0|0|0|0|0|0|0|0|0|0|0|0|0
719|HILL COUNTY JUSTICE CENTER|County|HAVRE|MT|59501|48.5452778|-109.6775|0|0|0|0|2|3|2|0|0|0|0|0|0|0|0|0|0|0|0|0|0|0|0|0|0|0|0|0|0
721|UNION COUNTY JAIL|County|ELK POINT|SD|57025|42.6833303|-96.6836475|0|0|0|0|0|0|1|3|2|0|0|0|0|0|0|0|0|0|0|0|0|0|0|0|0|0|0|0|0
724|HIS HOUSE CHILDREN'S HOME|ORR|MIAMI|FL|33186|25.6653934|-80.3992652|5|1|0|0|0|0|0|0|0|0|0|0|0|0|0|0|0|0|0|0|0|0|0|0|0|0|0|0|0
692|VAL VERDE DETENTION CENTER|GEO Group, Inc|DEL RIO|TX|78840|29.3708857|-100.8958674|0|0|2|0|0|6|0|0|0|0|0|0|0|0|0|0|0|0|0|0|0|0|0|0|0|0|0|0|0
725|LONOKE POLICE DEPT DET.CTR|City or Municipality|LONOKE|AR|72086|34.7839795|-91.8998611|2|5|0|0|0|0|0|0|0|0|0|0|0|0|0|0|0|0|0|0|0|0|0|0|0|0|0|0|0
717|THE BRIDGE (YOUTH ALTERN.)|Regional and Federal Facilities|SAN ANTONIO|TX|78213|29.5096305|-98.5226706|0|0|0|0|0|3|0|0|1|1|2|0|0|0|0|0|0|0|0|0|0|0|0|0|0|0|0|0|0
495|MINICASSIA DET. CENTER|County|BURLEY|ID|83318|42.5357428|-113.7927948|0|0|1|0|0|0|0|0|0|0|9|6|3|2|2|1|1|0|0|0|0|0|0|0|0|0|0|0|0
747|DICKENS COUNTY DET. CENTER|Community Education Centers|SPUR|TX|79370|33.4764767|-100.8556857|0|0|0|2|0|3|0|0|0|0|0|0|0|0|0|0|0|0|0|0|0|0|0|0|0|0|0|0|0
722|YMCA||DALLAS|TX||32.802955|-96.769923|0|0|0|0|0|0|0|0|0|1|3|2|0|0|0|0|0|0|0|0|0|0|0|0|0|0|0|0|0
726|SEWARD COUNTY JAIL|County|LIBERAL|KS|67901|37.0430812|-100.920999|0|0|0|0|0|0|0|5|2|0|0|0|0|0|0|0|0|0|0|0|0|0|0|0|0|0|0|0|0
727|BUTLER COUNTY JAIL, PA|County|BUTLER|PA|16001|40.8611755|-79.8953328|0|0|0|0|0|0|0|0|0|0|0|0|1|1|0|0|0|0|0|0|0|0|4|0|0|0|0|0|0
728|WASHINGTON COUNTY JAIL|County|SALEM|NY|12865|43.1722983|-73.3276101|3|3|0|0|0|0|0|0|0|0|0|0|0|0|0|0|0|0|0|0|0|0|0|0|0|0|0|0|0
730|JOHNSON COUNTY ADULT JAIL||OLATHE|KS||38.8813958|-94.8191285|0|0|0|0|0|0|0|0|0|0|0|0|0|0|0|0|0|0|0|0|0|0|0|0|1|1|2|2|0
731|DUVAL/JACKSONVILLE JAIL|County|JACKSONVILLE|FL|32202|30.3231932|-81.6309078|6|0|0|0|0|0|0|0|0|0|0|0|0|0|0|0|0|0|0|0|0|0|0|0|0|0|0|0|0
732|DOUGHERTY COUNTY JAIL||ALBANY|GA||31.5785074|-84.155741|0|0|0|0|0|0|0|3|2|0|0|0|0|0|0|0|0|0|0|0|0|0|0|0|0|0|0|0|0
733|COOKE COUNTY JAIL|County|GAINSVILLE|TX|76240|33.6259414|-97.1333453|0|0|0|0|0|0|0|0|0|0|0|0|0|0|0|0|0|0|3|3|0|0|0|0|0|0|0|0|0
735|SANTA FE CORNELL DET. FAC.|County|SANTA FE|NM|87505|35.6869752|-105.937799|0|0|0|0|0|2|0|0|0|2|2|0|0|0|0|0|0|0|0|0|0|0|0|0|0|0|0|0|0
736|EAST BATON ROUGE JAIL|County|SCOTLANDVILLE|LA|70807|30.5204668|-91.1787186|0|0|0|0|0|0|0|0|0|0|0|0|0|0|0|0|0|0|0|0|0|6|0|0|0|0|0|0|0
737|CALIF. REHAB. CTR./MEN||NORCO|CA||33.9311257|-117.548661|0|0|0|0|0|0|0|0|0|0|0|0|0|0|0|0|0|0|0|6|0|0|0|0|0|0|0|0|0
738|CHESTER CNTY JAIL, PA|County|WEST CHESTER|PA|19380|39.9606643|-75.6054882|0|0|0|0|0|0|0|0|0|0|0|0|0|0|0|0|0|0|0|0|0|5|0|0|0|0|0|0|0
739|NATRONA COUNTY JAIL|County|CASPER|WY|82601|42.866632|-106.313081|2|2|1|0|0|0|0|0|0|0|0|0|0|0|0|0|0|0|0|0|0|0|0|0|0|0|0|0|0
741|HENRY CO JAIL||MCDONOUGH|GA||33.4473361|-84.1468616|0|0|0|0|0|0|0|0|0|0|0|0|0|0|0|1|4|0|0|0|0|0|0|0|0|0|0|0|0
786|SUPERSTN MT MENTAL CENTER||APACHE JUNCTION|AZ||33.4150485|-111.5495777|0|0|0|0|0|0|0|0|0|0|2|2|0|0|0|0|0|0|0|0|0|0|0|0|0|0|0|0|0
746|FAIRFAX CO JAIL|County|FAIRFAX|VA|22030|38.8462236|-77.3063733|0|0|0|2|1|0|0|0|0|0|0|1|0|0|0|0|0|0|1|0|0|0|0|0|0|0|0|0|0
748|MCCLELLAN CTY JAIL|County|WACO|TX|76705|31.549333|-97.1466695|0|0|0|0|0|2|1|1|1|0|0|0|0|0|0|0|0|0|0|0|0|0|0|0|0|0|0|0|0
750|LAKELAND NURSING HOME|Hospital|PINEVILLE|LA|71360|31.3224044|-92.4343035|1|1|1|1|1|0|0|0|0|0|0|0|0|0|0|0|0|0|0|0|0|0|0|0|0|0|0|0|0
752|WASHINGTON CO. JAIL, PA|County|WASHINGTON|PA|15301|40.17396|-80.2461714|0|0|0|0|0|0|0|0|0|0|0|2|3|0|0|0|0|0|0|0|0|0|0|0|0|0|0|0|0
753|GEAUGA COUNTY JAIL||CHARDON|OH||41.579074|-81.208531|0|0|0|0|0|0|0|2|0|0|0|1|1|0|0|0|0|0|0|0|0|0|0|0|0|0|0|0|0
754|CHILDREN'S CENTER-FOSTER CARE|ORR|GALVESTON|TX|77553|29.309932|-94.7759547|4|1|0|0|0|0|0|0|0|0|0|0|0|0|0|0|0|0|0|0|0|0|0|0|0|0|0|0|0
757|LANCASTER COUNTY JAIL||LINCOLN|NE||40.806862|-96.681679|0|0|0|0|0|0|1|1|1|1|0|0|0|0|0|0|0|0|0|0|0|0|0|0|0|0|0|0|0
758|MEDINA COUNTY JAIL||MEDINA|OH||41.1383877|-81.8637474|0|0|0|0|0|0|0|3|0|2|0|0|0|0|0|0|0|0|0|0|0|0|0|0|0|0|0|0|0
759|BLACK HAWK CO JAIL||WATERLOO|IA||42.4927641|-92.3429631|0|0|0|0|0|0|0|0|0|0|0|2|1|1|0|0|0|0|0|0|0|0|0|0|0|0|0|0|0
760|DET PD 7TH PREC.||DETROIT|MI||42.331427|-83.0457538|0|0|0|0|0|0|0|0|0|0|0|0|1|1|1|1|0|0|0|0|0|0|0|0|0|0|0|0|0
764|MESA COUNTY JAIL|County|GRAND JUNCTION|CO|81502|39.06|-108.55|2|1|0|0|0|0|0|0|0|0|0|0|0|1|0|0|0|0|0|0|0|0|0|0|0|0|0|0|0
766|HARVEY COUNTY JAIL||NEWTON|KS||38.0466779|-97.3450365|0|0|0|0|0|0|0|0|0|2|2|0|0|0|0|0|0|0|0|0|0|0|0|0|0|0|0|0|0
767|MEADE CO. JAIL, SD|County|STURGIS|SD|57785|44.4097069|-103.5090786|0|0|0|0|0|0|0|0|0|2|1|1|0|0|0|0|0|0|0|0|0|0|0|0|0|0|0|0|0
768|CLINTON COUNTY JAIL||CARLYLE|IL||38.6103264|-89.3725796|0|0|0|0|0|0|0|0|0|0|2|3|0|0|0|0|0|0|0|0|0|0|0|0|0|0|0|0|0
762|SOUTHERN UTE DETENTION CENTER|City or Municipality|IGNACIO|CO|81137|37.1150037|-107.633113|0|1|2|1|0|0|0|0|0|0|0|0|0|0|0|0|0|0|0|0|0|0|0|0|0|0|0|0|0
496|GRANT COUNTY JAIL|County|CANYON CITY|OR|97820|44.3895995|-118.9502315|0|0|0|0|0|11|15|0|0|0|0|0|0|0|0|0|0|0|0|0|0|0|0|0|0|0|0|0|0
769|BROWARD COUNTY JAIL|County|FT.LAUDERDALE|FL|33301|26.1105211|-80.1136326|0|3|0|0|0|0|0|0|0|0|0|2|0|0|0|0|0|0|0|0|0|0|0|0|0|0|0|0|0
772|PACIFIC FURLOUGH FACILITY||SAN DIEGO|CA||32.7153292|-117.1572551|0|0|0|0|0|0|0|0|4|0|0|0|0|0|0|0|0|0|0|0|0|0|0|0|0|0|0|0|0
773|ROBINSON CORR INST||ENFIELD|CT||41.9762077|-72.5917554|0|0|0|0|0|0|0|2|2|0|0|0|0|0|0|0|0|0|0|0|0|0|0|0|0|0|0|0|0
774|COOS CO. JAIL|County|COQUILLE|OR|97423|43.1770544|-124.1876075|0|0|0|0|0|0|0|0|0|0|2|2|0|0|0|0|0|0|0|0|0|0|0|0|0|0|0|0|0
777|STERNS CO. JAIL||ST. CLOUD|MN||45.5538889|-94.1702778|0|0|0|0|0|0|0|0|0|2|2|0|0|0|0|0|0|0|0|0|0|0|0|0|0|0|0|0|0
779|COSTA MESA COLLEGE HOSP|Hospital|COSTA MESA|CA|92627|33.6496252|-117.9190418|2|2|0|0|0|0|0|0|0|0|0|0|0|0|0|0|0|0|0|0|0|0|0|0|0|0|0|0|0
780|SAN PATRICIO COUNTY JAIL||SINTON|TX||28.0366818|-97.5091611|0|0|0|0|0|0|0|0|0|0|0|4|0|0|0|0|0|0|0|0|0|0|0|0|0|0|0|0|0
782|CUBAN SXUL TRTMNT PGM||PUEBLO|CO||38.2544472|-104.6091409|0|0|0|0|0|0|0|0|0|0|0|1|2|0|0|0|0|0|0|0|0|0|0|0|0|0|0|0|0
783|ISLAND COUNTY JAIL||COUPEVILLE|WA||48.2198208|-122.6862804|0|0|0|0|0|0|0|0|0|0|0|1|0|0|0|0|0|0|2|0|0|0|0|0|0|0|0|0|0
784|BALTIMORE CIT JAIL||BALTIMORE|MD||39.2903848|-76.6121893|0|0|0|0|0|0|0|0|0|0|0|0|0|0|0|0|0|0|0|0|0|4|0|0|0|0|0|0|0
785|FRANKLIN COUNTY|County|PASCO|WA|99301|46.2395793|-119.1005657|0|0|0|0|0|2|1|0|0|0|0|0|0|0|0|0|0|0|0|0|0|0|0|0|0|0|0|0|0
789|FOSTER CARE, SAN DIEGO, CA||SAN DIEGO|CA||32.7153292|-117.1572551|0|0|0|0|0|0|0|0|0|0|0|0|0|0|0|0|0|0|1|1|0|0|0|1|0|0|0|0|0
790|DALLAS COUNTY SHERIFF'S OFFICE|County|ADEL|IA|50003|41.6144325|-94.017453|0|0|0|0|0|0|0|0|0|2|1|0|0|0|0|0|0|0|0|0|0|0|0|0|0|0|0|0|0
791|FAULKNER COUNTY JAIL|County|CONWAY|AR|72034|35.0886963|-92.4421011|2|2|0|0|0|0|0|0|0|0|0|0|0|0|0|0|0|0|0|0|0|0|0|0|0|0|0|0|0
794|BALT CITY CENTRAL||BALTIMORE|MD||39.2903848|-76.6121893|0|0|0|0|0|0|0|0|0|0|0|0|0|0|0|0|0|0|0|0|2|1|0|0|0|0|0|0|0
796|CHEROKEE CO JAIL GA||CANTON|GA||40.7989473|-81.378447|0|0|0|0|0|0|0|0|0|3|0|0|0|0|0|0|0|0|0|0|0|0|0|0|0|0|0|0|0
797|WASHINGTON COUNTY JAIL|County|AKRON|CO|80720|40.1605373|-103.2143843|2|1|0|0|0|0|0|0|0|0|0|0|0|0|0|0|0|0|0|0|0|0|0|0|0|0|0|0|0
799|BROWN COUNTY JAIL||NEW ULM|MN||44.309479|-94.467789|0|0|0|0|0|0|0|0|0|3|0|0|0|0|0|0|0|0|0|0|0|0|0|0|0|0|0|0|0
800|DADE CORRECTIONAL INST||FLORIDA CITY|FL||25.4478898|-80.4792237|0|0|0|0|0|0|0|0|0|0|0|0|0|0|0|0|1|0|1|1|0|0|0|0|0|0|0|0|0
801|CC FAMILY & YOUTH SERVICE|County|LAS VEGAS|NV|89101|36.1697096|-115.1236952|0|0|0|0|0|0|0|0|2|1|0|0|0|0|0|0|0|0|0|0|0|0|0|0|0|0|0|0|0
803|YOUTH AUTH. TRAINING CTR.||CAMARILLO|CA||34.2163937|-119.0376023|0|0|0|0|0|0|0|0|0|0|0|0|0|0|0|0|0|0|0|3|0|0|0|0|0|0|0|0|0
804|FLORIDA DEPT OF CORR. COR||TALLAHASSEE|FL||30.4382559|-84.2807329|0|0|0|0|0|0|0|0|0|0|0|0|0|0|0|0|0|0|1|1|1|0|0|0|0|0|0|0|0
806|ATASCOSA COUNTY JAIL|County|JOURDANTON|TX|78026|28.9180294|-98.5464068|0|0|0|0|0|0|0|0|0|0|0|2|1|0|0|0|0|0|0|0|0|0|0|0|0|0|0|0|0
808|KING COUNTY ADULT JAIL|County|SEATTLE|WA|98104|47.6011125|-122.3293984|0|0|0|0|0|0|0|0|0|0|0|3|0|0|0|0|0|0|0|0|0|0|0|0|0|0|0|0|0
809|YUMA HOLDROOM|Federal|YUMA|AZ|85365|32.6926512|-114.6276916|2|1|0|0|0|0|0|0|0|0|0|0|0|0|0|0|0|0|0|0|0|0|0|0|0|0|0|0|0
816|NORTH RICHLAND HILLS JAIL||N RICHLAND HILLS|TX||32.8342952|-97.2289029|0|0|0|0|0|0|0|0|0|0|0|0|0|0|0|0|0|1|2|0|0|0|0|0|0|0|0|0|0
811|PALMETTO HOSPITAL|Hospital|HIALEAH|FL|33016|25.8921484|-80.3296664|0|0|0|0|0|0|0|1|2|0|0|0|0|0|0|0|0|0|0|0|0|0|0|0|0|0|0|0|0
813|CALIF. INST. FOR MEN/WEST||CHINO|CA||34.0122346|-117.688944|0|0|0|0|0|0|0|0|0|0|0|0|0|0|0|0|0|0|0|3|0|0|0|0|0|0|0|0|0
805|CCA NORTHEAST OH CORRECTS|Corrections Corporation of America|YOUNGSTOWN|OH|44505|41.0997803|-80.6495194|0|0|1|1|1|0|0|0|0|0|0|0|0|0|0|0|0|0|0|0|0|0|0|0|0|0|0|0|0
795|ODESSA DETENTION CENTER|Community Education Centers|ODESSA|TX|79761|31.8590272|-102.3521148|0|0|0|0|0|0|1|2|0|0|0|0|0|0|0|0|0|0|0|0|0|0|0|0|0|0|0|0|0
775|BEAUMONT FED.CORR.CTR|Regional and Federal Facilities|BEAUMONT|TX|77720|30.04|-94.16|0|0|0|0|0|0|1|1|1|1|0|0|0|0|0|0|0|0|0|0|0|0|0|0|0|0|0|0|0
497|COCHISE CO JAIL BISBEE AZ||BISBEE|AZ||31.4481547|-109.9284084|0|0|0|0|0|0|0|0|0|1|1|1|1|1|1|1|1|2|4|6|1|2|1|1|1|0|0|0|0
814|PERRY COUNTY JAIL||PINCKNEYVILLE|IL||38.0803286|-89.3820321|0|0|0|0|0|0|0|0|2|0|0|1|0|0|0|0|0|0|0|0|0|0|0|0|0|0|0|0|0
815|CASA DE ESPERANZA|ORR|RICHMOND|VA|23294|37.6284406|-77.5447454|0|1|1|0|0|0|0|0|0|0|0|0|0|0|0|0|0|0|0|0|0|0|0|0|0|0|0|0|0
810|SARPY COUNTY JUVENILE|County|PAPILLION|NE||41.1544432|-96.0422378|0|0|0|0|0|0|2|1|0|0|0|0|0|0|0|0|0|0|0|0|0|0|0|0|0|0|0|0|0
818|GILLIAM YOUTH CENTER||DENVER|CO||39.7391536|-104.9847034|0|0|0|0|0|0|0|0|0|0|0|0|0|0|0|1|1|0|0|0|0|0|0|0|0|0|0|0|0
819|KENT CITY JAIL||KENT|WA||47.3809335|-122.2348431|0|0|0|0|0|0|0|0|0|0|0|1|0|1|0|0|0|0|0|0|0|0|0|0|0|0|0|0|0
820|BEST WESTERN DRAGON GATE INN|Hotel|LOS ANGELES|CA|90012|34.0649594|-118.2351192|3|0|0|0|0|0|0|0|0|0|0|0|0|0|0|0|0|0|0|0|0|0|0|0|0|0|0|0|0
822|WASHINGTON COUNTY JAIL||HILLSBORO|OR||45.5228939|-122.989827|0|0|0|0|0|0|0|0|0|0|0|1|1|0|0|0|0|0|0|0|0|0|0|0|0|0|0|0|0
824|TEXARKANA, AR POLICE DEPT.||TEXARKANA|AR||33.4417915|-94.0376881|0|0|0|0|0|0|2|1|0|0|0|0|0|0|0|0|0|0|0|0|0|0|0|0|0|0|0|0|0
825|CAMELLIA GARDEN MANOR||PINEVILLE|LA||31.3224044|-92.4343035|0|0|0|0|0|0|0|0|1|0|0|0|2|0|0|0|0|0|0|0|0|0|0|0|0|0|0|0|0
826|BRANCH CO, COLDWATER, MI||COLDWATER|MI||41.9403263|-85.0005215|0|0|0|0|0|0|0|0|0|0|0|0|3|0|0|0|0|0|0|0|0|0|0|0|0|0|0|0|0
827|OLMSTED CO. JAIL||ROCHESTER|MN||44.0216306|-92.4698992|0|0|0|0|0|0|0|0|0|1|1|0|0|0|0|0|0|0|0|0|0|0|0|0|0|0|0|0|0
830|MUSCATINE COUNTY JAIL||MUSCATINE|IA||41.424473|-91.0432051|0|0|0|0|0|0|0|0|0|3|0|0|0|0|0|0|0|0|0|0|0|0|0|0|0|0|0|0|0
831|BAY POINT SCHOOLS|ORR|CUTLER BAY|FL|33157|25.5783|-80.3377|3|0|0|0|0|0|0|0|0|0|0|0|0|0|0|0|0|0|0|0|0|0|0|0|0|0|0|0|0
832|SCHUYLER COUNTY JAIL||WATKINS GLEN|NY||42.3806287|-76.8732921|0|0|0|0|0|0|0|0|0|0|0|0|0|0|0|0|0|0|0|0|0|2|0|0|0|0|0|0|0
834|FRONTIER COUNTY JAIL||CURTIS|NE||40.6300081|-100.5157004|0|0|0|0|0|0|0|1|1|0|0|0|0|0|0|0|0|0|0|0|0|0|0|0|0|0|0|0|0
835|DIXON CORRECTIONAL INST||JACKSON|LA||30.8374036|-91.2176087|0|0|0|0|0|0|0|0|0|0|0|0|0|0|0|0|0|0|0|0|0|2|0|0|0|0|0|0|0
837|LA PAZ COUNTY ADULT DET. FAC.|County|PARKER|AZ|85344|34.1500162|-114.2891177|0|0|0|0|2|0|0|0|0|0|0|0|0|0|0|0|0|0|0|0|0|0|0|0|0|0|0|0|0
838|COOK COUNTY JAIL||CHICAGO|IL||41.8781136|-87.6297982|0|0|0|0|0|0|0|0|0|0|0|0|0|0|0|0|0|0|0|0|0|0|0|0|0|0|0|1|1
840|ADAMS COUNTY JAIL|County|BRIGHTON|CO|80601|39.9852617|-104.8205283|0|1|1|0|0|0|0|0|0|0|0|0|0|0|0|0|0|0|0|0|0|0|0|0|0|0|0|0|0
841|CLAY COUNTY JAIL|County|LIBERTY|MO|64068|39.2461138|-94.4191177|0|0|0|0|0|0|0|0|0|0|0|0|0|0|0|0|0|1|1|0|0|0|0|0|0|0|0|0|0
842|HUTCH. CORR. FACILITY||HUTCHINSON|KS||38.0608445|-97.9297743|0|0|0|0|0|0|0|0|0|0|0|0|0|0|0|0|0|0|0|0|0|0|0|0|0|0|0|1|1
844|CIBOLA COUNTY DET CTR|County|GRANTS|NM|87020|35.14726|-107.8514466|0|0|0|0|0|0|0|0|0|0|0|2|0|0|0|0|0|0|0|0|0|0|0|0|0|0|0|0|0
845|MEDFORD SUB-OFFICE|Federal|MEDFORD|OR|97501|42.3265152|-122.8755949|0|0|0|0|0|0|0|2|0|0|0|0|0|0|0|0|0|0|0|0|0|0|0|0|0|0|0|0|0
847|MONROE COUNTY JAIL||WATERLOO|IL||38.3358857|-90.1498341|0|0|0|0|0|0|0|0|0|0|1|1|0|0|0|0|0|0|0|0|0|0|0|0|0|0|0|0|0
849|GREEN HAVEN,STORMVILLE,NY||STORMVILLE|NY||41.5703713|-73.7454088|0|0|0|0|0|0|0|0|0|0|0|0|0|0|0|0|0|0|0|0|0|0|0|0|0|0|0|1|1
850|CEDARS MEDICAL CENTER||MIAMI|FL||25.7889689|-80.2264393|0|0|0|0|0|0|0|0|0|0|2|0|0|0|0|0|0|0|0|0|0|0|0|0|0|0|0|0|0
851|CASCADE COUNTY JAIL, MT|County|GREAT FALLS|MT|59404|47.5002354|-111.3008083|1|0|1|0|0|0|0|0|0|0|0|0|0|0|0|0|0|0|0|0|0|0|0|0|0|0|0|0|0
854|AZ DEPT OF CORRECTIONS||PHOENIX|AZ||33.4483771|-112.0740373|0|0|0|0|0|0|0|0|0|0|2|0|0|0|0|0|0|0|0|0|0|0|0|0|0|0|0|0|0
821|RICHMOND CITY JAIL|City or Municipality|RICHMOND|VA|23219|37.5357794|-77.4386429|0|0|0|0|0|0|0|0|0|0|0|0|0|0|0|0|0|0|0|0|3|0|0|0|0|0|0|0|0
829|BIG SPRING FED.CORR.INST.|Regional and Federal Facilities|BIG SPRING|TX|79720|32.2503979|-101.4787355|0|0|0|0|3|0|0|0|0|0|0|0|0|0|0|0|0|0|0|0|0|0|0|0|0|0|0|0|0
846|CAMP DODGE|Regional and Federal Facilities|JOHNSTON|IA|50131|41.6713889|-93.7058333|0|0|2|0|0|0|0|0|0|0|0|0|0|0|0|0|0|0|0|0|0|0|0|0|0|0|0|0|0
498|SUMTER COUNTY JAIL||BUSHNELL|FL||28.6649924|-82.1128629|0|0|0|0|0|0|0|3|8|2|4|3|4|3|0|0|0|0|0|0|0|0|0|0|0|0|0|0|0
858|CENTRAL MO CORR. CENTER||JEFFERSON CITY|MO||38.5767017|-92.1735164|0|0|0|0|0|0|0|0|0|0|0|0|0|0|0|0|0|0|0|0|0|0|0|0|0|0|1|1|0
860|WHATCOM COUNTY JAIL||BELLINGHAM|WA||48.7595529|-122.4882249|0|0|0|0|0|0|0|0|0|2|0|0|0|0|0|0|0|0|0|0|0|0|0|0|0|0|0|0|0
861|BANNOCK COUNTY JAIL|County|POCATELLO|ID|83205|42.87|-112.44|2|0|0|0|0|0|0|0|0|0|0|0|0|0|0|0|0|0|0|0|0|0|0|0|0|0|0|0|0
862|MARICOPA COUNTY JAIL|County|PHOENIX|AZ|85003|33.4522157|-112.0789355|2|0|0|0|0|0|0|0|0|0|0|0|0|0|0|0|0|0|0|0|0|0|0|0|0|0|0|0|0
863|KENNEBEC COUNTY JAIL||AUGUSTA|ME||44.3106241|-69.7794897|0|0|0|0|0|0|0|0|0|2|0|0|0|0|0|0|0|0|0|0|0|0|0|0|0|0|0|0|0
864|BLUE EARTH CO. JAIL, MN||MANKATO|MN||44.1635775|-93.9993996|0|0|0|0|0|0|0|0|0|0|2|0|0|0|0|0|0|0|0|0|0|0|0|0|0|0|0|0|0
866|TUSCOLA COUNTY JAIL||CARO|MI||43.4911322|-83.396897|0|0|0|0|0|0|0|0|0|0|0|2|0|0|0|0|0|0|0|0|0|0|0|0|0|0|0|0|0
867|WOOD COUNTY JAIL||BOWLING GREEN|OH||41.3747744|-83.6513229|0|0|0|0|0|0|0|0|0|0|0|2|0|0|0|0|0|0|0|0|0|0|0|0|0|0|0|0|0
868|MONTGOMERY COUNTY||DAYTON|OH||39.7589478|-84.1916069|0|0|0|0|0|0|0|0|0|2|0|0|0|0|0|0|0|0|0|0|0|0|0|0|0|0|0|0|0
871|MCKEAN COUNTY JAIL||SMETHPORT|PA||41.8111748|-78.4447413|0|0|0|0|0|0|0|0|0|0|0|2|0|0|0|0|0|0|0|0|0|0|0|0|0|0|0|0|0
873|DAYTON CORRECTIONAL INST.||DAYTON|OH||39.7589478|-84.1916069|0|0|0|0|0|0|0|0|0|0|0|0|0|0|0|0|2|0|0|0|0|0|0|0|0|0|0|0|0
874|SNJ HOLD ROOM|Federal|SAN JOSE|CA|95110|37.354611|-121.918866|2|0|0|0|0|0|0|0|0|0|0|0|0|0|0|0|0|0|0|0|0|0|0|0|0|0|0|0|0
876|MONT CO DEPT OF CORR||INDEPENDENCE|KS||37.2242358|-95.7083131|0|0|0|0|0|0|0|0|0|0|0|2|0|0|0|0|0|0|0|0|0|0|0|0|0|0|0|0|0
877|TAYCHEEDAH CORRECTIONAL FACILITY||FOND DU LAC|WI||43.7730448|-88.4470508|0|0|0|0|0|0|0|0|0|0|0|0|0|0|0|0|0|0|0|2|0|0|0|0|0|0|0|0|0
878|GRANT COUNTY|County|EPHRATA|WA|98823|47.3176385|-119.5536491|0|2|0|0|0|0|0|0|0|0|0|0|0|0|0|0|0|0|0|0|0|0|0|0|0|0|0|0|0
879|RJ DONOVAN CORREC FAC|State|SAN DIEGO|CA|92104|32.7475752|-117.1323579|0|0|0|0|0|0|0|0|0|0|0|0|1|0|0|0|0|0|0|0|0|0|0|0|0|0|0|0|0
883|BUFFALO CITY JAIL||BUFFALO|NY||42.8864468|-78.8783689|0|0|0|0|0|0|0|0|0|0|0|0|1|0|0|0|0|0|0|0|0|0|0|0|0|0|0|0|0
884|OSWEGO COUNTY JAIL|County|OSWEGO|NY|13126|43.4553461|-76.5104973|0|0|0|0|0|0|0|0|0|0|0|0|0|1|0|0|0|0|0|0|0|0|0|0|0|0|0|0|0
886|SNOHOMISH COUNTY JAIL||EVERETT|WA||47.9789848|-122.2020794|0|0|0|0|0|0|0|0|0|1|0|0|0|0|0|0|0|0|0|0|0|0|0|0|0|0|0|0|0
887|BENTON CO JAIL|County|VINTON|IA|52349|42.1641667|-92.0261111|0|0|0|0|0|0|0|0|0|1|0|0|0|0|0|0|0|0|0|0|0|0|0|0|0|0|0|0|0
889|ALLEGAN CO. SHER. ALL.,MI||ALLEGAN|MI||42.5543473|-85.8486236|0|0|0|0|0|0|0|0|0|0|0|0|0|0|0|0|0|0|1|0|0|0|0|0|0|0|0|0|0
891|GRAHAM CO. JAIL - PHO|County|SAFFORD|AZ|85546|32.8339546|-109.70758|0|0|0|0|0|0|0|0|0|0|0|0|0|0|0|0|0|0|1|0|0|0|0|0|0|0|0|0|0
892|WASATCH COUNTY JAIL|County|HEBER CITY|UT|84032|40.5066667|-111.4122222|0|0|0|0|0|0|0|0|0|0|0|1|0|0|0|0|0|0|0|0|0|0|0|0|0|0|0|0|0
893|LAMOILLE JAIL/BURLINGTON||PORTLAND|MA||45.5234515|-122.6762071|0|0|0|0|0|0|0|0|0|0|0|0|0|0|0|0|0|1|0|0|0|0|0|0|0|0|0|0|0
895|CLACKAMAS CO JAIL||OREGON CITY|OR||45.3573429|-122.6067583|0|0|0|0|0|0|0|0|0|0|0|1|0|0|0|0|0|0|0|0|0|0|0|0|0|0|0|0|0
896|WELD COUNTY JAIL|County|GREELEY|CO|80631|40.4233142|-104.7091322|0|0|0|0|0|0|0|0|0|0|1|0|0|0|0|0|0|0|0|0|0|0|0|0|0|0|0|0|0
897|PIERCE COUNTY JAIL||ELLSWORTH|WI||44.7321897|-92.4874124|0|0|0|0|0|0|0|0|0|0|0|0|0|0|0|0|0|0|1|0|0|0|0|0|0|0|0|0|0
898|COLUMBIA KENDAL HOSPITAL|Hospital|MIAMI|FL|33175|25.7357116|-80.3992652|1|0|0|0|0|0|0|0|0|0|0|0|0|0|0|0|0|0|0|0|0|0|0|0|0|0|0|0|0
880|WAUKEGAN CITY JAIL|City or Municipality|WAUKEGAN|IL|60085|42.3641878|-87.8647961|0|0|0|0|0|0|0|1|0|0|0|0|0|0|0|0|0|0|0|0|0|0|0|0|0|0|0|0|0
500|CATHOLIC HOME|ORR|MIAMI|FL|33157|25.6155611|-80.3547286|0|0|0|0|0|0|0|0|0|0|0|0|3|4|4|2|0|2|1|5|4|2|0|0|0|0|0|0|0
501|SFR HOLD ROOM|Federal|SAN FRANCISCO|CA|94111|37.7983181|-122.4000032|21|4|0|0|0|0|0|0|0|0|0|0|0|0|0|0|0|0|0|0|0|0|0|0|0|0|0|0|0
901|TRAVELERS & IMMIGRANT AID||CHICAGO|IL||41.8781136|-87.6297982|0|0|0|0|0|0|0|0|0|0|1|0|0|0|0|0|0|0|0|0|0|0|0|0|0|0|0|0|0
902|DETROIT POLICE 1ST PCT.||DETROIT|MI||42.331427|-83.0457538|0|0|0|0|0|0|0|0|0|0|0|0|1|0|0|0|0|0|0|0|0|0|0|0|0|0|0|0|0
903|TOOLE COUNTY|County|SHELBY|MT|59474|48.505533|-111.857551|0|0|0|0|0|0|0|0|0|1|0|0|0|0|0|0|0|0|0|0|0|0|0|0|0|0|0|0|0
904|ST. CLAIR COUNTY JAIL||OSCEOLA|MO||38.0466967|-93.7043764|0|0|0|0|0|0|0|0|0|0|0|1|0|0|0|0|0|0|0|0|0|0|0|0|0|0|0|0|0
906|LOGAN COUNTY JAIL|County|STERLING|CO|80751|40.6255415|-103.207709|0|0|0|0|0|0|0|0|0|0|0|0|0|0|0|0|0|0|1|0|0|0|0|0|0|0|0|0|0
907|ST CLAIR COUNTY JAIL||BELLEVILLE|IL||38.5200504|-89.9839935|0|0|0|0|0|0|0|0|0|0|1|0|0|0|0|0|0|0|0|0|0|0|0|0|0|0|0|0|0
908|WEST VALLEY||RANCHO CUCAMONGA|CA||34.1063989|-117.5931084|0|0|0|0|0|0|0|0|0|0|1|0|0|0|0|0|0|0|0|0|0|0|0|0|0|0|0|0|0
909|PICAYUNE P.D., PICAYUNE, MS||PICAYUNE|MS||30.5254692|-89.6795084|0|0|0|0|0|0|0|0|0|0|0|0|0|0|0|0|0|1|0|0|0|0|0|0|0|0|0|0|0
911|CALIFORNIA STATE PRISON|State|CORCORAN|CA|93212|36.098007|-119.5604015|0|1|0|0|0|0|0|0|0|0|0|0|0|0|0|0|0|0|0|0|0|0|0|0|0|0|0|0|0
912|PULASKI COUNTY DETENTION CENTER|County|SOMERSET|KY|42503|37.0920222|-84.6041084|0|0|0|0|0|0|0|1|0|0|0|0|0|0|0|0|0|0|0|0|0|0|0|0|0|0|0|0|0
913|ADAMS CO JAIL, NEBRASKA||HASTINGS|NE||40.5891667|-98.3916667|0|0|0|0|0|0|0|0|1|0|0|0|0|0|0|0|0|0|0|0|0|0|0|0|0|0|0|0|0
914|PHILADELPHIA DETENTION CT||PHILADELPHIA|PA||39.952335|-75.163789|0|0|0|0|0|0|0|0|0|1|0|0|0|0|0|0|0|0|0|0|0|0|0|0|0|0|0|0|0
915|CECIL COUNTY DETENTION||ELKTON|MD||39.6067789|-75.8332718|0|0|0|0|0|0|0|0|0|0|0|0|0|0|0|0|0|0|0|0|0|1|0|0|0|0|0|0|0
917|JACKSON MEMORIAL HOSPITAL|Hospital|MIAMI|FL|33186|25.6653934|-80.3992652|1|0|0|0|0|0|0|0|0|0|0|0|0|0|0|0|0|0|0|0|0|0|0|0|0|0|0|0|0
918|MCSO MADISON FACILITY|County|PHOENIX|AZ|85003|33.4522157|-112.0789355|0|0|0|0|0|0|0|0|0|1|0|0|0|0|0|0|0|0|0|0|0|0|0|0|0|0|0|0|0
920|ANGEL'S FLIGHT|ORR|LOS ANGELES|CA|90057|34.0617061|-118.2789735|0|1|0|0|0|0|0|0|0|0|0|0|0|0|0|0|0|0|0|0|0|0|0|0|0|0|0|0|0
922|BENTON COUNTY JAIL||FOLEY|MN||45.6646892|-93.9097009|0|0|0|0|0|0|0|0|0|1|0|0|0|0|0|0|0|0|0|0|0|0|0|0|0|0|0|0|0
934|EL PASO SPC JUVENILE|Federal|EL PASO|TX|79925|31.7776561|-106.3640398|0|0|0|0|0|0|0|0|0|0|1|0|0|0|0|0|0|0|0|0|0|0|0|0|0|0|0|0|0
936|CACHE CO. JAIL|County|LOGAN|UT|84321|41.7354861|-111.834388|0|0|0|0|0|0|0|0|0|1|0|0|0|0|0|0|0|0|0|0|0|0|0|0|0|0|0|0|0
937|DOUGLAS COUNTY JAIL|County|CASTLE ROCK|CO|80104|39.3722121|-104.8560902|0|1|0|0|0|0|0|0|0|0|0|0|0|0|0|0|0|0|0|0|0|0|0|0|0|0|0|0|0
940|ECONOLODGE MOTEL|Hotel|TUKWILA|WA|98168|47.4826332|-122.2973219|1|0|0|0|0|0|0|0|0|0|0|0|0|0|0|0|0|0|0|0|0|0|0|0|0|0|0|0|0
942|WASCO STATE PRISON||WASCO|CA||35.5941238|-119.3409457|0|0|0|0|0|0|0|0|0|0|0|1|0|0|0|0|0|0|0|0|0|0|0|0|0|0|0|0|0
943|WILLIAMSON COUNTY JAIL|County|GEORGETOWN|TX|78626|30.6326942|-97.6772311|0|1|0|0|0|0|0|0|0|0|0|0|0|0|0|0|0|0|0|0|0|0|0|0|0|0|0|0|0
944|WEBB COUNTY JAIL|County|LAREDO|TX|78041|27.5676627|-99.4450439|0|0|0|0|0|0|0|0|0|0|0|0|0|1|0|0|0|0|0|0|0|0|0|0|0|0|0|0|0
945|RUTH DYKEMAN CHILD CENTER|ORR|SEATTLE|WA|98166|47.4595732|-122.3531419|0|0|0|0|1|0|0|0|0|0|0|0|0|0|0|0|0|0|0|0|0|0|0|0|0|0|0|0|0
939|OBRIEN CO JAIL, IOWA||PRIMGHAR|IA||43.0869215|-95.627232|0|0|0|0|0|0|1|0|0|0|0|0|0|0|0|0|0|0|0|0|0|0|0|0|0|0|0|0|0
8|HOUSTON CONTRACT DET.FAC.|Corrections Corporation of America|HOUSTON|TX|77032|29.9478352|-95.3207069|865|863|869|817|691|492|511|516|518|527|505|468|332|150|164|142|127|124|148|72|1|0|0|0|0|0|0|0|0
12|CORR.CORP.OF AMERICA - SAN DIEGO|Corrections Corporation of America|SAN DIEGO|CA|92173|32.5497444|-117.0382158|666|652|747|942|921|937|861|723|614|272|187|7|0|0|0|0|0|0|0|0|0|0|0|0|0|0|0|0|0
900|DENVER CITY PADF|City or Municipality|DENVER|CO|80201|39.75|-104.99|0|1|0|0|0|0|0|0|0|0|0|0|0|0|0|0|0|0|0|0|0|0|0|0|0|0|0|0|0
938|BEXAR COUNTY WACKENHUT ANNUAL DET.|Regional and Federal Facilities|SAN ANTONIO|TX|78207|29.4174949|-98.5226706|0|1|0|0|0|0|0|0|0|0|0|0|0|0|0|0|0|0|0|0|0|0|0|0|0|0|0|0|0
510|REEVES COUNTY JAIL|GEO Group, Inc|PECOS|TX|79772|31.4229124|-103.4932293|15|9|0|0|0|0|0|0|0|0|0|0|0|0|0|0|0|0|0|0|0|0|0|0|0|0|0|0|0
511|NH STATE PRISON, CONCORD|State|CONCORD|NH|03301|43.2086343|-71.5486562|0|0|2|0|0|0|2|4|7|2|1|3|3|0|0|0|0|0|0|1|0|0|0|0|0|0|0|0|0
502|ONEIDA COUNTY JAIL|County|ORISKANY|NY|13424|43.1572918|-75.3326692|0|0|0|7|0|0|3|2|6|7|0|0|0|0|0|0|0|0|0|0|0|0|0|0|0|0|0|0|0
503|DENVER HOLD ROOM|Federal|DENVER|CO|80239|39.8086537|-104.8337879|23|2|0|0|0|0|0|0|0|0|0|0|0|0|0|0|0|0|0|0|0|0|0|0|0|0|0|0|0
507|KENTON COUNTY JAIL|County|COVINGTON|KY|41011|39.073028|-84.5274616|0|0|0|0|0|0|2|6|15|2|0|0|0|0|0|0|0|0|0|0|0|0|0|0|0|0|0|0|0
512|BUCKS CNTY JAIL, PA|County|DOYLESTOWN|PA|18901|40.3101063|-75.1298939|0|0|0|0|0|0|0|0|1|0|0|0|0|0|0|0|0|1|4|3|1|3|9|2|0|0|0|0|0
513|JACKSON CO JAIL|County|MEDFORD|OR|97501|42.3265152|-122.8755949|0|0|0|0|1|0|2|0|2|4|4|4|6|2|0|0|0|0|0|0|0|0|0|0|0|0|0|0|0
514|ALTERNATIVE HOUSE||EL PASO|TX||31.7587198|-106.4869314|0|0|0|0|0|0|0|0|0|0|8|16|0|0|0|0|0|0|0|0|0|0|0|0|0|0|0|0|0
520|SEATTLE FIELD OFFICE HOLD ROOM|Federal|SEATTLE|WA|98168|47.4826332|-122.2973219|11|10|0|2|0|0|0|0|0|0|0|0|0|0|0|0|0|0|0|0|0|0|0|0|0|0|0|0|0
522|GARFIELD COUNTY JAIL|County|GLENWOOD SPGS|CO|81601|39.6044937|-107.3375791|0|0|13|9|0|0|0|0|0|0|0|0|0|0|0|0|0|0|0|0|0|0|0|0|0|0|0|0|0
505|JENNINGS CITY JAIL|City or Municipality|JENNINGS|MO|63136|38.7192175|-90.2603903|0|0|0|0|0|0|0|2|5|5|2|4|5|0|1|0|0|0|0|0|0|0|0|0|0|0|0|0|0
509|WV REGIONAL JAIL & CORR.|City or Municipality|CHARLESTON|WV|15305|38.3498195|-81.6326234|0|0|8|2|3|1|3|2|5|0|0|0|0|0|0|0|0|0|0|0|0|0|0|0|0|0|0|0|0
508|BROOKLYN MDC|Regional and Federal Facilities|BROOKLYN|NY|11232|40.6560436|-74.0079781|0|0|0|0|0|0|0|24|0|0|0|0|0|0|0|0|0|0|0|0|0|0|0|0|0|0|0|0|0
519|BSCC AIRPARK UNIT|Regional and Federal Facilities|BIG SPRING|TX|79720|32.2503979|-101.4787355|0|0|1|3|1|3|3|5|4|2|1|0|0|0|0|0|0|0|0|0|0|0|0|0|0|0|0|0|0
567|SOUTH CENTRAL REGIONAL JAIL|State|CHARLESTON|WV|25309|38.3099759|-81.7458845|10|8|0|0|0|0|0|0|0|0|0|0|0|0|0|0|0|0|0|0|0|0|0|0|0|0|0|0|0
608|WAKE COUNTY SHERRIF DEPT.|County|RALEIGH|NC|27601|35.7744301|-78.6313624|13|0|0|0|0|0|0|0|0|0|0|0|0|0|0|0|0|0|0|0|0|0|0|0|0|0|0|0|0
698|LAW ENF CTR PECOS||PECOS|TX||31.4229124|-103.4932293|0|0|0|0|0|0|0|0|0|0|0|0|7|0|0|0|0|0|0|0|0|0|0|0|0|0|0|0|0
743|ESCAMBIA COUNTY DETENTION CENTER|County|BREWTON|AL|34626|31.1051779|-87.0721918|0|0|0|0|2|3|0|0|0|0|0|0|0|0|0|0|0|0|0|0|0|0|0|0|0|0|0|0|0
749|HUDSPETH COUNTY JAIL|County|SIERRA BLANCA|TX|93009|31.1745732|-105.3571764|0|0|0|0|0|0|0|0|0|0|0|0|5|0|0|0|0|0|0|0|0|0|0|0|0|0|0|0|0
744|OKANOGAN CO. JAIL|County|OKANOGAN|WA|98840|48.0441017|-119.3057739|1|2|0|0|0|3|0|0|0|0|0|0|0|0|0|0|0|0|0|0|0|0|0|0|0|0|0|0|0
788|ORANGE COUNTY JAIL||SANTA ANA|CA||33.7455731|-117.8678338|0|0|0|0|0|0|0|0|0|0|1|0|0|0|0|0|0|0|1|1|0|0|0|0|0|0|0|0|0
882|STICKNEY POLICE DEPT.||STICKNEY|IL||41.821421|-87.7828339|0|0|0|0|0|0|0|0|0|0|1|0|0|0|0|0|0|0|0|0|0|0|0|0|0|0|0|0|0
923|SAN PEDRO PENINSULA HOSPITAL|Hospital|SAN PEDRO|CA|90731|33.7322884|-118.2935891|1|0|0|0|0|0|0|0|0|0|0|0|0|0|0|0|0|0|0|0|0|0|0|0|0|0|0|0|0
924|ELBERT COUNTY JAIL|County|KIOWA|CO|80117|39.3472095|-104.4644112|0|0|0|0|0|0|0|0|0|0|0|0|0|0|0|0|0|0|1|0|0|0|0|0|0|0|0|0|0
925|CRAWFORD CO, GRAYLING,MI.|County|GRAYLING|MI|49738|44.6614039|-84.7147512|0|0|0|0|0|1|0|0|0|0|0|0|0|0|0|0|0|0|0|0|0|0|0|0|0|0|0|0|0
926|YATES COUNTY JAIL|County|PENNYAN|NY|14527|42.6544744|-77.0794705|0|0|0|0|0|0|0|0|1|0|0|0|0|0|0|0|0|0|0|0|0|0|0|0|0|0|0|0|0
927|CLATSOP CO JAIL||ASTORIA|OR||46.1878841|-123.8312534|0|0|0|0|0|0|0|0|0|0|0|1|0|0|0|0|0|0|0|0|0|0|0|0|0|0|0|0|0
928|DEPELCHIN CHILDREN'S CENTER|ORR|HOUSTON|TX|77007|29.7769344|-95.4096633|0|0|0|1|0|0|0|0|0|0|0|0|0|0|0|0|0|0|0|0|0|0|0|0|0|0|0|0|0
929|FINNEY COUNTY JAIL|County|GARDEN CITY|KS|67846|37.9716898|-100.8726618|0|0|0|0|0|0|0|1|0|0|0|0|0|0|0|0|0|0|0|0|0|0|0|0|0|0|0|0|0
930|CALIF. MEN COLONY, WEST||SAN LUIS OBISPO|CA||35.2827524|-120.6596156|0|0|0|0|0|0|0|0|0|0|0|0|0|0|0|0|0|0|0|1|0|0|0|0|0|0|0|0|0
931|HUNTINGDON CNTY JAIL||HUNTINGDON|PA||40.4847959|-78.0102813|0|0|0|0|0|0|0|0|0|0|0|0|0|0|0|0|0|0|0|0|0|0|1|0|0|0|0|0|0
932|LEA COUNTY JAIL|County|LOVINGTON|NM|88260|32.9440077|-103.3485543|0|0|1|0|0|0|0|0|0|0|0|0|0|0|0|0|0|0|0|0|0|0|0|0|0|0|0|0|0
933|LINCOLN COUNTY JAIL|County|NORTH PLATTE|NE|69101|41.1238873|-100.7654232|0|0|0|0|0|0|0|0|1|0|0|0|0|0|0|0|0|0|0|0|0|0|0|0|0|0|0|0|0
941|DUBLIN FED.CORR.INST.||DUBLIN|CA||37.7021521|-121.9357918|0|0|0|0|0|0|0|1|0|0|0|0|0|0|0|0|0|0|0|0|0|0|0|0|0|0|0|0|0
